{
"type": "FeatureCollection",
"name": "A31a-30-25_21_8505090072_20",
"crs": { "type": "name", "properties": { "name": "urn:ogc:def:crs:EPSG::6668" } },
"xy_coordinate_resolution": 1e-09,
"features": [
{ "type": "Feature", "properties": { "A31a_301": "8505090072", "A31a_302": "川浦川", "A31a_303": "21", "A31a_304": "岐阜県", "A31a_305": 1 }, "geometry": { "type": "Polygon", "coordinates": [ [ [ 137.066875953, 35.533124663 ], [ 137.066563954, 35.533124663 ], [ 137.066563955, 35.533332663 ], [ 137.066875954, 35.533332663 ], [ 137.066875953, 35.533124663 ] ] ] } },
{ "type": "Feature", "properties": { "A31a_301": "8505090072", "A31a_302": "川浦川", "A31a_303": "21", "A31a_304": "岐阜県", "A31a_305": 1 }, "geometry": { "type": "Polygon", "coordinates": [ [ [ 137.064688936, 35.527916668 ], [ 137.064375937, 35.527916668 ], [ 137.064375939, 35.528124667 ], [ 137.064687937, 35.528124668 ], [ 137.064687938, 35.528332667 ], [ 137.065000937, 35.528332668 ], [ 137.065000936, 35.528124668 ], [ 137.064688937, 35.528124668 ], [ 137.064688936, 35.527916668 ] ] ] } },
{ "type": "Feature", "properties": { "A31a_301": "8505090072", "A31a_302": "川浦川", "A31a_303": "21", "A31a_304": "岐阜県", "A31a_305": 1 }, "geometry": { "type": "Polygon", "coordinates": [ [ [ 137.062813937, 35.526457668 ], [ 137.062500938, 35.526457668 ], [ 137.062500939, 35.526666667 ], [ 137.062500941, 35.526874667 ], [ 137.062500942, 35.527082667 ], [ 137.06281394, 35.527082667 ], [ 137.062813939, 35.526874667 ], [ 137.062813938, 35.526666668 ], [ 137.062813937, 35.526457668 ] ] ] } },
{ "type": "Feature", "properties": { "A31a_301": "8505090072", "A31a_302": "川浦川", "A31a_303": "21", "A31a_304": "岐阜県", "A31a_305": 1 }, "geometry": { "type": "Polygon", "coordinates": [ [ [ 137.062500936, 35.526041668 ], [ 137.062188937, 35.526041668 ], [ 137.062188938, 35.526249668 ], [ 137.062500937, 35.526249668 ], [ 137.062500936, 35.526041668 ] ] ] } },
{ "type": "Feature", "properties": { "A31a_301": "8505090072", "A31a_302": "川浦川", "A31a_303": "21", "A31a_304": "岐阜県", "A31a_305": 1 }, "geometry": { "type": "Polygon", "coordinates": [ [ [ 137.062188935, 35.525624668 ], [ 137.061875936, 35.525624668 ], [ 137.061875937, 35.525832668 ], [ 137.062188936, 35.525832668 ], [ 137.062188935, 35.525624668 ] ] ] } },
{ "type": "Feature", "properties": { "A31a_301": "8505090072", "A31a_302": "川浦川", "A31a_303": "21", "A31a_304": "岐阜県", "A31a_305": 1 }, "geometry": { "type": "Polygon", "coordinates": [ [ [ 137.061563933, 35.524791669 ], [ 137.061250934, 35.524791669 ], [ 137.061250935, 35.524999669 ], [ 137.061250936, 35.525207668 ], [ 137.061563935, 35.525207669 ], [ 137.061875934, 35.525207669 ], [ 137.061875933, 35.524999669 ], [ 137.061563934, 35.524999669 ], [ 137.061563933, 35.524791669 ] ] ] } },
{ "type": "Feature", "properties": { "A31a_301": "8505090072", "A31a_302": "川浦川", "A31a_303": "21", "A31a_304": "岐阜県", "A31a_305": 1 }, "geometry": { "type": "Polygon", "coordinates": [ [ [ 137.061563929, 35.52416667 ], [ 137.06125093, 35.52416667 ], [ 137.061250931, 35.524374669 ], [ 137.06156393, 35.52437467 ], [ 137.061563929, 35.52416667 ] ] ] } },
{ "type": "Feature", "properties": { "A31a_301": "8505090072", "A31a_302": "川浦川", "A31a_303": "21", "A31a_304": "岐阜県", "A31a_305": 1 }, "geometry": { "type": "Polygon", "coordinates": [ [ [ 137.056875932, 35.521874669 ], [ 137.056875934, 35.522082669 ], [ 137.056563935, 35.522082669 ], [ 137.056250936, 35.522082669 ], [ 137.055938937, 35.522082668 ], [ 137.055937937, 35.522082668 ], [ 137.055625938, 35.522082668 ], [ 137.055625939, 35.522291668 ], [ 137.055937938, 35.522291668 ], [ 137.055937939, 35.522499668 ], [ 137.056250938, 35.522499668 ], [ 137.056563937, 35.522499668 ], [ 137.056563938, 35.522707668 ], [ 137.056875937, 35.522707668 ], [ 137.057187936, 35.522707669 ], [ 137.057188936, 35.522707669 ], [ 137.057500935, 35.522707669 ], [ 137.057500934, 35.522499669 ], [ 137.057500933, 35.522291669 ], [ 137.057813932, 35.52229167 ], [ 137.05781393, 35.52208267 ], [ 137.058125929, 35.52208267 ], [ 137.058125928, 35.52187467 ], [ 137.057813929, 35.52187467 ], [ 137.05750093, 35.52187467 ], [ 137.057188931, 35.52187467 ], [ 137.057187931, 35.52187467 ], [ 137.056875932, 35.521874669 ] ] ] } },
{ "type": "Feature", "properties": { "A31a_301": "8505090072", "A31a_302": "川浦川", "A31a_303": "21", "A31a_304": "岐阜県", "A31a_305": 1 }, "geometry": { "type": "Polygon", "coordinates": [ [ [ 137.051563955, 35.522499665 ], [ 137.051563953, 35.522291665 ], [ 137.051875952, 35.522291665 ], [ 137.051875951, 35.522082665 ], [ 137.05187595, 35.521874666 ], [ 137.051563951, 35.521874665 ], [ 137.051563952, 35.522082665 ], [ 137.051250953, 35.522082665 ], [ 137.050938954, 35.522082665 ], [ 137.050938955, 35.522291665 ], [ 137.051250954, 35.522291665 ], [ 137.051250956, 35.522499665 ], [ 137.051563955, 35.522499665 ] ] ] } },
{ "type": "Feature", "properties": { "A31a_301": "8505090072", "A31a_302": "川浦川", "A31a_303": "21", "A31a_304": "岐阜県", "A31a_305": 1 }, "geometry": { "type": "Polygon", "coordinates": [ [ [ 137.052813948, 35.522082666 ], [ 137.052813946, 35.521874666 ], [ 137.053125945, 35.521874667 ], [ 137.053438944, 35.521874667 ], [ 137.053438943, 35.521666667 ], [ 137.053750942, 35.521666667 ], [ 137.053750941, 35.521457668 ], [ 137.053438942, 35.521457667 ], [ 137.053125943, 35.521457667 ], [ 137.053125944, 35.521666667 ], [ 137.052813945, 35.521666667 ], [ 137.052500946, 35.521666666 ], [ 137.052500948, 35.521874666 ], [ 137.052188949, 35.521874666 ], [ 137.05218895, 35.522082666 ], [ 137.052500949, 35.522082666 ], [ 137.052813948, 35.522082666 ] ] ] } },
{ "type": "Feature", "properties": { "A31a_301": "8505090072", "A31a_302": "川浦川", "A31a_303": "21", "A31a_304": "岐阜県", "A31a_305": 1 }, "geometry": { "type": "Polygon", "coordinates": [ [ [ 137.056875932, 35.521874669 ], [ 137.056875931, 35.52166667 ], [ 137.056563932, 35.521666669 ], [ 137.056563933, 35.521874669 ], [ 137.056875932, 35.521874669 ] ] ] } },
{ "type": "Feature", "properties": { "A31a_301": "8505090072", "A31a_302": "川浦川", "A31a_303": "21", "A31a_304": "岐阜県", "A31a_305": 1 }, "geometry": { "type": "Polygon", "coordinates": [ [ [ 137.05500093, 35.52041667 ], [ 137.054688931, 35.520416669 ], [ 137.054688933, 35.520624669 ], [ 137.055000932, 35.520624669 ], [ 137.055000933, 35.520832669 ], [ 137.055313932, 35.520832669 ], [ 137.055313933, 35.521041669 ], [ 137.055313934, 35.521249669 ], [ 137.055313935, 35.521457669 ], [ 137.055313937, 35.521666668 ], [ 137.055625936, 35.521666669 ], [ 137.055625937, 35.521874668 ], [ 137.055938936, 35.521874669 ], [ 137.055938934, 35.521666669 ], [ 137.055938933, 35.521457669 ], [ 137.055938932, 35.521249669 ], [ 137.055938931, 35.52104167 ], [ 137.055625932, 35.521041669 ], [ 137.055625931, 35.52083267 ], [ 137.055625929, 35.52062467 ], [ 137.05531393, 35.52062467 ], [ 137.055313929, 35.52041667 ], [ 137.05500093, 35.52041667 ] ] ] } },
{ "type": "Feature", "properties": { "A31a_301": "8505090072", "A31a_302": "川浦川", "A31a_303": "21", "A31a_304": "岐阜県", "A31a_305": 1 }, "geometry": { "type": "Polygon", "coordinates": [ [ [ 137.054063936, 35.520832668 ], [ 137.053750937, 35.520832668 ], [ 137.053750938, 35.521041668 ], [ 137.05375094, 35.521249668 ], [ 137.054063938, 35.521249668 ], [ 137.054063937, 35.521041668 ], [ 137.054063936, 35.520832668 ] ] ] } },
{ "type": "Feature", "properties": { "A31a_301": "8505090072", "A31a_302": "川浦川", "A31a_303": "21", "A31a_304": "岐阜県", "A31a_305": 1 }, "geometry": { "type": "Polygon", "coordinates": [ [ [ 137.049062947, 35.519999665 ], [ 137.049062945, 35.519791666 ], [ 137.049375945, 35.519791666 ], [ 137.049688944, 35.519791666 ], [ 137.049688943, 35.519582666 ], [ 137.049375944, 35.519582666 ], [ 137.049375942, 35.519374666 ], [ 137.049062943, 35.519374666 ], [ 137.048750943, 35.519374666 ], [ 137.048750942, 35.519166666 ], [ 137.048438943, 35.519166666 ], [ 137.048438942, 35.518957666 ], [ 137.048125942, 35.518957666 ], [ 137.048125941, 35.518749666 ], [ 137.047812941, 35.518749666 ], [ 137.047812943, 35.518957666 ], [ 137.047812944, 35.519166665 ], [ 137.048125943, 35.519166666 ], [ 137.048125945, 35.519374665 ], [ 137.048438944, 35.519374666 ], [ 137.048438945, 35.519582665 ], [ 137.048438947, 35.519791665 ], [ 137.048750946, 35.519791665 ], [ 137.048750947, 35.519999665 ], [ 137.049062947, 35.519999665 ] ] ] } },
{ "type": "Feature", "properties": { "A31a_301": "8505090072", "A31a_302": "川浦川", "A31a_303": "21", "A31a_304": "岐阜県", "A31a_305": 1 }, "geometry": { "type": "Polygon", "coordinates": [ [ [ 137.046250943, 35.518541665 ], [ 137.046250944, 35.518749665 ], [ 137.046250945, 35.518957665 ], [ 137.046562945, 35.518957665 ], [ 137.046562946, 35.519166665 ], [ 137.046875946, 35.519166665 ], [ 137.047188945, 35.519166665 ], [ 137.047188944, 35.518957665 ], [ 137.047188942, 35.518749665 ], [ 137.047188941, 35.518541666 ], [ 137.046875942, 35.518541665 ], [ 137.046562942, 35.518541665 ], [ 137.046250943, 35.518541665 ] ] ] } },
{ "type": "Feature", "properties": { "A31a_301": "8505090072", "A31a_302": "川浦川", "A31a_303": "21", "A31a_304": "岐阜県", "A31a_305": 1 }, "geometry": { "type": "Polygon", "coordinates": [ [ [ 137.046250943, 35.518541665 ], [ 137.046250942, 35.518332665 ], [ 137.045938942, 35.518332665 ], [ 137.045938943, 35.518541665 ], [ 137.046250943, 35.518541665 ] ] ] } },
{ "type": "Feature", "properties": { "A31a_301": "8505090072", "A31a_302": "川浦川", "A31a_303": "21", "A31a_304": "岐阜県", "A31a_305": 1 }, "geometry": { "type": "Polygon", "coordinates": [ [ [ 137.047188932, 35.517082667 ], [ 137.046875933, 35.517082667 ], [ 137.046875934, 35.517291667 ], [ 137.047188934, 35.517291667 ], [ 137.047188932, 35.517082667 ] ] ] } },
{ "type": "Feature", "properties": { "A31a_301": "8505090072", "A31a_302": "川浦川", "A31a_303": "21", "A31a_304": "岐阜県", "A31a_305": 1 }, "geometry": { "type": "Polygon", "coordinates": [ [ [ 137.047188925, 35.515832669 ], [ 137.046875926, 35.515832668 ], [ 137.046875927, 35.516041668 ], [ 137.047188926, 35.516041668 ], [ 137.047188925, 35.515832669 ] ] ] } },
{ "type": "Feature", "properties": { "A31a_301": "8505090072", "A31a_302": "川浦川", "A31a_303": "21", "A31a_304": "岐阜県", "A31a_305": 1 }, "geometry": { "type": "Polygon", "coordinates": [ [ [ 137.045625923, 35.514999669 ], [ 137.045625922, 35.514791669 ], [ 137.045938922, 35.514791669 ], [ 137.04593892, 35.514582669 ], [ 137.045938919, 35.51437467 ], [ 137.04562592, 35.514374669 ], [ 137.04531292, 35.514374669 ], [ 137.045312919, 35.514166669 ], [ 137.04500092, 35.514166669 ], [ 137.04468792, 35.514166669 ], [ 137.044687921, 35.514374669 ], [ 137.044375922, 35.514374668 ], [ 137.044062923, 35.514374668 ], [ 137.044062924, 35.514582668 ], [ 137.043750924, 35.514582668 ], [ 137.043437925, 35.514582667 ], [ 137.043437926, 35.514791667 ], [ 137.043750925, 35.514791667 ], [ 137.044062925, 35.514791668 ], [ 137.044375924, 35.514791668 ], [ 137.044687924, 35.514791668 ], [ 137.044687925, 35.514999668 ], [ 137.045000924, 35.514999668 ], [ 137.045312924, 35.514999668 ], [ 137.045312925, 35.515207668 ], [ 137.045625925, 35.515207668 ], [ 137.045625923, 35.514999669 ] ] ] } },
{ "type": "Feature", "properties": { "A31a_301": "8505090072", "A31a_302": "川浦川", "A31a_303": "21", "A31a_304": "岐阜県", "A31a_305": 1 }, "geometry": { "type": "Polygon", "coordinates": [ [ [ 137.043125918, 35.513332669 ], [ 137.043125917, 35.513124669 ], [ 137.042812918, 35.513124669 ], [ 137.042812917, 35.512916669 ], [ 137.042500917, 35.512916669 ], [ 137.042500918, 35.513124668 ], [ 137.042500919, 35.513332668 ], [ 137.04218792, 35.513332668 ], [ 137.042187921, 35.513541668 ], [ 137.042500921, 35.513541668 ], [ 137.042500922, 35.513749668 ], [ 137.042812921, 35.513749668 ], [ 137.042812922, 35.513957668 ], [ 137.042812924, 35.514166668 ], [ 137.043125923, 35.514166668 ], [ 137.043125922, 35.513957668 ], [ 137.043125921, 35.513749668 ], [ 137.04312592, 35.513541668 ], [ 137.043125918, 35.513332669 ] ] ] } },
{ "type": "Feature", "properties": { "A31a_301": "8505090072", "A31a_302": "川浦川", "A31a_303": "21", "A31a_304": "岐阜県", "A31a_305": 1 }, "geometry": { "type": "Polygon", "coordinates": [ [ [ 137.040000923, 35.513124667 ], [ 137.039687923, 35.513124666 ], [ 137.039687924, 35.513332666 ], [ 137.040000924, 35.513332666 ], [ 137.040000923, 35.513124667 ] ] ] } },
{ "type": "Feature", "properties": { "A31a_301": "8505090072", "A31a_302": "川浦川", "A31a_303": "21", "A31a_304": "岐阜県", "A31a_305": 1 }, "geometry": { "type": "Polygon", "coordinates": [ [ [ 137.041875919, 35.513124668 ], [ 137.041875918, 35.512916668 ], [ 137.042188918, 35.512916668 ], [ 137.042188916, 35.512707669 ], [ 137.042188915, 35.512499669 ], [ 137.041875916, 35.512499669 ], [ 137.041562916, 35.512499668 ], [ 137.041250917, 35.512499668 ], [ 137.041250918, 35.512707668 ], [ 137.041562918, 35.512707668 ], [ 137.041562919, 35.512916668 ], [ 137.04156292, 35.513124668 ], [ 137.041875919, 35.513124668 ] ] ] } },
{ "type": "Feature", "properties": { "A31a_301": "8505090072", "A31a_302": "川浦川", "A31a_303": "21", "A31a_304": "岐阜県", "A31a_305": 1 }, "geometry": { "type": "Polygon", "coordinates": [ [ [ 137.031875915, 35.510416664 ], [ 137.031875916, 35.510624664 ], [ 137.031875917, 35.510832664 ], [ 137.032187917, 35.510832664 ], [ 137.032187918, 35.511041664 ], [ 137.032187919, 35.511249663 ], [ 137.03218792, 35.511457663 ], [ 137.03250092, 35.511457663 ], [ 137.03281392, 35.511457664 ], [ 137.03312592, 35.511457664 ], [ 137.033125921, 35.511666664 ], [ 137.033438921, 35.511666664 ], [ 137.033750921, 35.511666664 ], [ 137.034063921, 35.511666664 ], [ 137.034063922, 35.511874664 ], [ 137.034375922, 35.511874664 ], [ 137.034688921, 35.511874664 ], [ 137.035000921, 35.511874664 ], [ 137.035313921, 35.511874665 ], [ 137.035313922, 35.512082664 ], [ 137.035625922, 35.512082665 ], [ 137.035938922, 35.512082665 ], [ 137.035938923, 35.512291665 ], [ 137.035938924, 35.512499664 ], [ 137.036250924, 35.512499665 ], [ 137.036250925, 35.512707664 ], [ 137.036250927, 35.512916664 ], [ 137.036250928, 35.513124664 ], [ 137.036563928, 35.513124664 ], [ 137.036563926, 35.512916664 ], [ 137.036563925, 35.512707665 ], [ 137.036875925, 35.512707665 ], [ 137.037188925, 35.512707665 ], [ 137.037500925, 35.512707665 ], [ 137.037500926, 35.512916665 ], [ 137.037813925, 35.512916665 ], [ 137.038125925, 35.512916665 ], [ 137.038125924, 35.512707666 ], [ 137.037813924, 35.512707665 ], [ 137.037813923, 35.512499666 ], [ 137.037500924, 35.512499665 ], [ 137.037188924, 35.512499665 ], [ 137.036875924, 35.512499665 ], [ 137.036875923, 35.512291665 ], [ 137.036563923, 35.512291665 ], [ 137.036250923, 35.512291665 ], [ 137.036250922, 35.512082665 ], [ 137.036250921, 35.511874665 ], [ 137.035938921, 35.511874665 ], [ 137.03593892, 35.511666665 ], [ 137.03562592, 35.511666665 ], [ 137.03531392, 35.511666665 ], [ 137.035313919, 35.511457665 ], [ 137.035000919, 35.511457665 ], [ 137.034688919, 35.511457665 ], [ 137.034375919, 35.511457664 ], [ 137.034375918, 35.511249665 ], [ 137.034063918, 35.511249665 ], [ 137.033750918, 35.511249664 ], [ 137.033438919, 35.511249664 ], [ 137.033438917, 35.511041664 ], [ 137.033125918, 35.511041664 ], [ 137.032813918, 35.511041664 ], [ 137.032813917, 35.510832664 ], [ 137.032500917, 35.510832664 ], [ 137.032500916, 35.510624664 ], [ 137.032188916, 35.510624664 ], [ 137.032188915, 35.510416664 ], [ 137.031875915, 35.510416664 ] ] ] } },
{ "type": "Feature", "properties": { "A31a_301": "8505090072", "A31a_302": "川浦川", "A31a_303": "21", "A31a_304": "岐阜県", "A31a_305": 1 }, "geometry": { "type": "Polygon", "coordinates": [ [ [ 137.031875915, 35.510416664 ], [ 137.031875914, 35.510207664 ], [ 137.031875913, 35.509999664 ], [ 137.031563913, 35.509999664 ], [ 137.031563912, 35.509791664 ], [ 137.031563911, 35.509582664 ], [ 137.031250911, 35.509582664 ], [ 137.03125091, 35.509374664 ], [ 137.03093791, 35.509374664 ], [ 137.030937911, 35.509582664 ], [ 137.030937912, 35.509791664 ], [ 137.031250912, 35.509791664 ], [ 137.031250913, 35.509999664 ], [ 137.031250914, 35.510207664 ], [ 137.031563914, 35.510207664 ], [ 137.031563915, 35.510416664 ], [ 137.031875915, 35.510416664 ] ] ] } },
{ "type": "Feature", "properties": { "A31a_301": "8505090072", "A31a_302": "川浦川", "A31a_303": "21", "A31a_304": "岐阜県", "A31a_305": 1 }, "geometry": { "type": "Polygon", "coordinates": [ [ [ 137.026563915, 35.509791661 ], [ 137.026250915, 35.509791661 ], [ 137.026250916, 35.509999661 ], [ 137.026563916, 35.509999661 ], [ 137.026563915, 35.509791661 ] ] ] } },
{ "type": "Feature", "properties": { "A31a_301": "8505090072", "A31a_302": "川浦川", "A31a_303": "21", "A31a_304": "岐阜県", "A31a_305": 1 }, "geometry": { "type": "Polygon", "coordinates": [ [ [ 137.026563915, 35.509791661 ], [ 137.026875915, 35.509791661 ], [ 137.026875913, 35.509582661 ], [ 137.026563914, 35.509582661 ], [ 137.026563915, 35.509791661 ] ] ] } },
{ "type": "Feature", "properties": { "A31a_301": "8505090072", "A31a_302": "川浦川", "A31a_303": "21", "A31a_304": "岐阜県", "A31a_305": 1 }, "geometry": { "type": "Polygon", "coordinates": [ [ [ 137.025938906, 35.507916662 ], [ 137.025938907, 35.508124662 ], [ 137.025937907, 35.508124662 ], [ 137.025625907, 35.508124662 ], [ 137.025625908, 35.508332662 ], [ 137.025625909, 35.508541661 ], [ 137.02562591, 35.508749661 ], [ 137.025625911, 35.508957661 ], [ 137.025313911, 35.508957661 ], [ 137.025313912, 35.509166661 ], [ 137.025313913, 35.509374661 ], [ 137.025313914, 35.50958266 ], [ 137.025625914, 35.509582661 ], [ 137.025625915, 35.509791661 ], [ 137.025938915, 35.509791661 ], [ 137.025938914, 35.509582661 ], [ 137.026250914, 35.509582661 ], [ 137.026250913, 35.509374661 ], [ 137.026563913, 35.509374661 ], [ 137.026563912, 35.509166662 ], [ 137.026875911, 35.509166662 ], [ 137.02687591, 35.508957662 ], [ 137.026875909, 35.508749662 ], [ 137.026563909, 35.508749662 ], [ 137.026563908, 35.508541662 ], [ 137.026250909, 35.508541662 ], [ 137.026250907, 35.508332662 ], [ 137.026250907, 35.508124662 ], [ 137.026250906, 35.507916662 ], [ 137.025938906, 35.507916662 ] ] ] } },
{ "type": "Feature", "properties": { "A31a_301": "8505090072", "A31a_302": "川浦川", "A31a_303": "21", "A31a_304": "岐阜県", "A31a_305": 1 }, "geometry": { "type": "Polygon", "coordinates": [ [ [ 137.030000905, 35.508332664 ], [ 137.029687905, 35.508332664 ], [ 137.029687906, 35.508541664 ], [ 137.030000906, 35.508541664 ], [ 137.030000905, 35.508332664 ] ] ] } },
{ "type": "Feature", "properties": { "A31a_301": "8505090072", "A31a_302": "川浦川", "A31a_303": "21", "A31a_304": "岐阜県", "A31a_305": 1 }, "geometry": { "type": "Polygon", "coordinates": [ [ [ 137.029063903, 35.507707664 ], [ 137.029063902, 35.507499664 ], [ 137.028750902, 35.507499664 ], [ 137.028750903, 35.507707664 ], [ 137.028438903, 35.507707664 ], [ 137.028438902, 35.507499664 ], [ 137.028438901, 35.507291664 ], [ 137.028125901, 35.507291664 ], [ 137.028125902, 35.507499664 ], [ 137.027813903, 35.507499664 ], [ 137.027813903, 35.507707663 ], [ 137.027813904, 35.507916663 ], [ 137.027813905, 35.508124663 ], [ 137.028125905, 35.508124663 ], [ 137.028125904, 35.507916664 ], [ 137.028125903, 35.507707664 ], [ 137.028437903, 35.507707664 ], [ 137.028437904, 35.507916664 ], [ 137.028750904, 35.507916664 ], [ 137.028750905, 35.508124664 ], [ 137.029063905, 35.508124664 ], [ 137.029375904, 35.508124664 ], [ 137.029688904, 35.508124664 ], [ 137.029688903, 35.507916665 ], [ 137.029375903, 35.507916664 ], [ 137.029375902, 35.507707665 ], [ 137.029063903, 35.507707664 ] ] ] } },
{ "type": "Feature", "properties": { "A31a_301": "8505090072", "A31a_302": "川浦川", "A31a_303": "21", "A31a_304": "岐阜県", "A31a_305": 1 }, "geometry": { "type": "Polygon", "coordinates": [ [ [ 137.025938906, 35.507916662 ], [ 137.025938905, 35.507707662 ], [ 137.025625905, 35.507707662 ], [ 137.025625906, 35.507916662 ], [ 137.025937906, 35.507916662 ], [ 137.025938906, 35.507916662 ] ] ] } },
{ "type": "Feature", "properties": { "A31a_301": "8505090072", "A31a_302": "川浦川", "A31a_303": "21", "A31a_304": "岐阜県", "A31a_305": 1 }, "geometry": { "type": "Polygon", "coordinates": [ [ [ 137.020938896, 35.50645766 ], [ 137.020938897, 35.50666666 ], [ 137.021250898, 35.50666666 ], [ 137.021250898, 35.50687466 ], [ 137.021562899, 35.50687466 ], [ 137.021562898, 35.506666661 ], [ 137.021562897, 35.506457661 ], [ 137.021250897, 35.506457661 ], [ 137.020938896, 35.50645766 ] ] ] } },
{ "type": "Feature", "properties": { "A31a_301": "8505090072", "A31a_302": "川浦川", "A31a_303": "21", "A31a_304": "岐阜県", "A31a_305": 1 }, "geometry": { "type": "Polygon", "coordinates": [ [ [ 137.020938896, 35.50645766 ], [ 137.020938895, 35.50624966 ], [ 137.020625895, 35.50624966 ], [ 137.020625896, 35.50645766 ], [ 137.020938896, 35.50645766 ] ] ] } },
{ "type": "Feature", "properties": { "A31a_301": "8505090072", "A31a_302": "川浦川", "A31a_303": "21", "A31a_304": "岐阜県", "A31a_305": 1 }, "geometry": { "type": "Polygon", "coordinates": [ [ [ 137.018750893, 35.506041659 ], [ 137.018750892, 35.50583266 ], [ 137.019062892, 35.50583266 ], [ 137.019375892, 35.50583266 ], [ 137.019375892, 35.50562466 ], [ 137.019062891, 35.50562466 ], [ 137.018750891, 35.50562466 ], [ 137.018438891, 35.50562466 ], [ 137.018437891, 35.50562466 ], [ 137.018125891, 35.505624659 ], [ 137.01781289, 35.505624659 ], [ 137.017812889, 35.505416659 ], [ 137.017500889, 35.505416659 ], [ 137.017188889, 35.505416659 ], [ 137.017187889, 35.505416659 ], [ 137.016875889, 35.505416659 ], [ 137.016562889, 35.505416659 ], [ 137.016562888, 35.505207659 ], [ 137.016250887, 35.505207659 ], [ 137.015938887, 35.505207658 ], [ 137.015938886, 35.504999659 ], [ 137.015625886, 35.504999658 ], [ 137.015312886, 35.504999658 ], [ 137.015312885, 35.504791658 ], [ 137.015000885, 35.504791658 ], [ 137.015000886, 35.504999658 ], [ 137.015000887, 35.505207658 ], [ 137.015000887, 35.505416658 ], [ 137.014688887, 35.505416658 ], [ 137.014687887, 35.505416658 ], [ 137.014375887, 35.505416658 ], [ 137.014375886, 35.505207658 ], [ 137.014375885, 35.504999658 ], [ 137.014688885, 35.504999658 ], [ 137.014688885, 35.504791658 ], [ 137.014688884, 35.504582658 ], [ 137.014375884, 35.504582658 ], [ 137.014062883, 35.504582658 ], [ 137.014062884, 35.504791658 ], [ 137.014062885, 35.504999657 ], [ 137.013750885, 35.504999657 ], [ 137.013750886, 35.505207657 ], [ 137.013750886, 35.505416657 ], [ 137.014062887, 35.505416657 ], [ 137.014062888, 35.505624657 ], [ 137.014375888, 35.505624657 ], [ 137.014375889, 35.505832657 ], [ 137.014687889, 35.505832658 ], [ 137.01468789, 35.506041657 ], [ 137.01500089, 35.506041658 ], [ 137.01531289, 35.506041658 ], [ 137.015312891, 35.506249658 ], [ 137.015625891, 35.506249658 ], [ 137.015937892, 35.506249658 ], [ 137.015938892, 35.506249658 ], [ 137.016250892, 35.506249658 ], [ 137.016562892, 35.506249658 ], [ 137.016875892, 35.506249658 ], [ 137.016875891, 35.506041659 ], [ 137.017187892, 35.506041659 ], [ 137.017188892, 35.506041659 ], [ 137.017500892, 35.506041659 ], [ 137.017812892, 35.506041659 ], [ 137.018125892, 35.506041659 ], [ 137.018125893, 35.506249659 ], [ 137.018437894, 35.506249659 ], [ 137.018438894, 35.506249659 ], [ 137.018750894, 35.506249659 ], [ 137.018750893, 35.506041659 ] ] ] } },
{ "type": "Feature", "properties": { "A31a_301": "8505090072", "A31a_302": "川浦川", "A31a_303": "21", "A31a_304": "岐阜県", "A31a_305": 1 }, "geometry": { "type": "Polygon", "coordinates": [ [ [ 137.015312857, 35.498124661 ], [ 137.015000857, 35.498124661 ], [ 137.015000858, 35.498332661 ], [ 137.015000859, 35.498541661 ], [ 137.01500086, 35.498749661 ], [ 137.01531286, 35.498749661 ], [ 137.015312859, 35.498541661 ], [ 137.015312858, 35.498332661 ], [ 137.015312857, 35.498124661 ] ] ] } },
{ "type": "Feature", "properties": { "A31a_301": "8505090072", "A31a_302": "川浦川", "A31a_303": "21", "A31a_304": "岐阜県", "A31a_305": 1 }, "geometry": { "type": "Polygon", "coordinates": [ [ [ 137.015000851, 35.496666661 ], [ 137.014687851, 35.496666661 ], [ 137.014687852, 35.496874661 ], [ 137.014687853, 35.497082661 ], [ 137.014687854, 35.497291661 ], [ 137.015000854, 35.497291661 ], [ 137.015000853, 35.497082661 ], [ 137.015000852, 35.496874661 ], [ 137.015000851, 35.496666661 ] ] ] } },
{ "type": "Feature", "properties": { "A31a_301": "8505090072", "A31a_302": "川浦川", "A31a_303": "21", "A31a_304": "岐阜県", "A31a_305": 1 }, "geometry": { "type": "Polygon", "coordinates": [ [ [ 137.01406285, 35.496457661 ], [ 137.01375085, 35.49645766 ], [ 137.013750851, 35.49666666 ], [ 137.014062851, 35.496666661 ], [ 137.01406285, 35.496457661 ] ] ] } },
{ "type": "Feature", "properties": { "A31a_301": "8505090072", "A31a_302": "川浦川", "A31a_303": "21", "A31a_304": "岐阜県", "A31a_305": 1 }, "geometry": { "type": "Polygon", "coordinates": [ [ [ 137.008750842, 35.495416659 ], [ 137.008438842, 35.495416658 ], [ 137.008125841, 35.495416658 ], [ 137.008125841, 35.495207658 ], [ 137.00781284, 35.495207658 ], [ 137.00781284, 35.494999658 ], [ 137.007500839, 35.494999658 ], [ 137.007500838, 35.494791658 ], [ 137.007188838, 35.494791658 ], [ 137.007188837, 35.494582658 ], [ 137.007188837, 35.494374658 ], [ 137.007500837, 35.494374658 ], [ 137.007500836, 35.494166658 ], [ 137.007188836, 35.494166658 ], [ 137.007188835, 35.493957658 ], [ 137.006875835, 35.493957658 ], [ 137.006875836, 35.494166658 ], [ 137.007187836, 35.494166658 ], [ 137.007187837, 35.494374658 ], [ 137.006875836, 35.494374658 ], [ 137.006875836, 35.494166658 ], [ 137.006563835, 35.494166658 ], [ 137.006250835, 35.494166658 ], [ 137.006250836, 35.494374658 ], [ 137.006250837, 35.494582658 ], [ 137.005937836, 35.494582658 ], [ 137.005937837, 35.494791658 ], [ 137.005625837, 35.494791658 ], [ 137.005625837, 35.494999658 ], [ 137.005625838, 35.495207658 ], [ 137.005625839, 35.495416657 ], [ 137.005938839, 35.495416658 ], [ 137.005938838, 35.495207658 ], [ 137.005938838, 35.494999658 ], [ 137.006250838, 35.494999658 ], [ 137.006563838, 35.494999658 ], [ 137.006875839, 35.494999658 ], [ 137.007187839, 35.494999658 ], [ 137.00718784, 35.495207658 ], [ 137.00718784, 35.495416658 ], [ 137.007500841, 35.495416658 ], [ 137.007500841, 35.495624658 ], [ 137.007500842, 35.495832658 ], [ 137.007500843, 35.496041658 ], [ 137.007812843, 35.496041658 ], [ 137.007812844, 35.496249658 ], [ 137.008125844, 35.496249658 ], [ 137.008438845, 35.496249658 ], [ 137.008438844, 35.496041658 ], [ 137.008750844, 35.496041658 ], [ 137.008750843, 35.495832658 ], [ 137.009062844, 35.495832659 ], [ 137.009062845, 35.496041659 ], [ 137.009062845, 35.496249658 ], [ 137.009062846, 35.496457658 ], [ 137.009375846, 35.496457659 ], [ 137.009688847, 35.496457659 ], [ 137.009688846, 35.496249659 ], [ 137.010000846, 35.496249659 ], [ 137.010000846, 35.496041659 ], [ 137.010000845, 35.495832659 ], [ 137.009688844, 35.495832659 ], [ 137.009375844, 35.495832659 ], [ 137.009375843, 35.495624659 ], [ 137.009062843, 35.495624659 ], [ 137.008750843, 35.495624659 ], [ 137.008750842, 35.495416659 ] ] ] } },
{ "type": "Feature", "properties": { "A31a_301": "8505090072", "A31a_302": "川浦川", "A31a_303": "21", "A31a_304": "岐阜県", "A31a_305": 1 }, "geometry": { "type": "Polygon", "coordinates": [ [ [ 137.008750841, 35.495207659 ], [ 137.008750842, 35.495416659 ], [ 137.009062842, 35.495416659 ], [ 137.009375843, 35.495416659 ], [ 137.009375842, 35.495207659 ], [ 137.009062841, 35.495207659 ], [ 137.008750841, 35.495207659 ] ] ] } },
{ "type": "Feature", "properties": { "A31a_301": "8505090072", "A31a_302": "川浦川", "A31a_303": "21", "A31a_304": "岐阜県", "A31a_305": 1 }, "geometry": { "type": "Polygon", "coordinates": [ [ [ 137.007812838, 35.494582658 ], [ 137.007812839, 35.494791658 ], [ 137.00781284, 35.494999658 ], [ 137.00812584, 35.494999658 ], [ 137.008125841, 35.495207658 ], [ 137.008438841, 35.495207659 ], [ 137.008750841, 35.495207659 ], [ 137.00875084, 35.494999659 ], [ 137.00875084, 35.494791659 ], [ 137.008438839, 35.494791659 ], [ 137.008125839, 35.494791658 ], [ 137.008125838, 35.494582659 ], [ 137.007812838, 35.494582658 ] ] ] } },
{ "type": "Feature", "properties": { "A31a_301": "8505090072", "A31a_302": "川浦川", "A31a_303": "21", "A31a_304": "岐阜県", "A31a_305": 1 }, "geometry": { "type": "Polygon", "coordinates": [ [ [ 136.996250824, 35.494791655 ], [ 136.995938824, 35.494791655 ], [ 136.995938824, 35.494999655 ], [ 136.996250825, 35.494999655 ], [ 136.996250825, 35.495207655 ], [ 136.996563826, 35.495207655 ], [ 136.996875827, 35.495207655 ], [ 136.997188827, 35.495207655 ], [ 136.997188827, 35.494999655 ], [ 136.996875826, 35.494999655 ], [ 136.996563826, 35.494999655 ], [ 136.996563825, 35.494791655 ], [ 136.996250824, 35.494791655 ] ] ] } },
{ "type": "Feature", "properties": { "A31a_301": "8505090072", "A31a_302": "川浦川", "A31a_303": "21", "A31a_304": "岐阜県", "A31a_305": 1 }, "geometry": { "type": "Polygon", "coordinates": [ [ [ 136.998125827, 35.494582655 ], [ 136.997813827, 35.494582655 ], [ 136.997813827, 35.494791655 ], [ 136.998125828, 35.494791655 ], [ 136.998125827, 35.494582655 ] ] ] } },
{ "type": "Feature", "properties": { "A31a_301": "8505090072", "A31a_302": "川浦川", "A31a_303": "21", "A31a_304": "岐阜県", "A31a_305": 1 }, "geometry": { "type": "Polygon", "coordinates": [ [ [ 136.997188826, 35.494791655 ], [ 136.997188826, 35.494582655 ], [ 136.997500826, 35.494582655 ], [ 136.997500826, 35.494374655 ], [ 136.997500825, 35.494166655 ], [ 136.997188824, 35.494166655 ], [ 136.997188825, 35.494374655 ], [ 136.996875824, 35.494374655 ], [ 136.996875825, 35.494582655 ], [ 136.996875826, 35.494791655 ], [ 136.997188826, 35.494791655 ] ] ] } },
{ "type": "Feature", "properties": { "A31a_301": "8505090072", "A31a_302": "川浦川", "A31a_303": "21", "A31a_304": "岐阜県", "A31a_305": 1 }, "geometry": { "type": "Polygon", "coordinates": [ [ [ 136.995625823, 35.494582655 ], [ 136.995313822, 35.494582655 ], [ 136.995313822, 35.494791655 ], [ 136.995625823, 35.494791655 ], [ 136.995625823, 35.494582655 ] ] ] } },
{ "type": "Feature", "properties": { "A31a_301": "8505090072", "A31a_302": "川浦川", "A31a_303": "21", "A31a_304": "岐阜県", "A31a_305": 1 }, "geometry": { "type": "Polygon", "coordinates": [ [ [ 137.007500837, 35.494374658 ], [ 137.007500838, 35.494582658 ], [ 137.007812838, 35.494582658 ], [ 137.007812837, 35.494374658 ], [ 137.007500837, 35.494374658 ] ] ] } },
{ "type": "Feature", "properties": { "A31a_301": "8505090072", "A31a_302": "川浦川", "A31a_303": "21", "A31a_304": "岐阜県", "A31a_305": 1 }, "geometry": { "type": "Polygon", "coordinates": [ [ [ 137.000000825, 35.492499656 ], [ 137.000000825, 35.492707656 ], [ 136.999688825, 35.492707655 ], [ 136.999688825, 35.492916655 ], [ 136.999375825, 35.492916655 ], [ 136.999375825, 35.493124655 ], [ 136.999063825, 35.493124655 ], [ 136.999063825, 35.493332655 ], [ 136.998750825, 35.493332655 ], [ 136.998750826, 35.493541655 ], [ 136.998438825, 35.493541655 ], [ 136.998125824, 35.493541655 ], [ 136.998125825, 35.493749655 ], [ 136.997813824, 35.493749655 ], [ 136.997813825, 35.493957655 ], [ 136.998125826, 35.493957655 ], [ 136.998125826, 35.494166655 ], [ 136.998438827, 35.494166655 ], [ 136.998750827, 35.494166655 ], [ 136.998750828, 35.494374655 ], [ 136.998750829, 35.494582655 ], [ 136.999063829, 35.494582655 ], [ 136.999063829, 35.494374655 ], [ 136.999375829, 35.494374655 ], [ 136.99968883, 35.494374656 ], [ 136.999688829, 35.494166656 ], [ 137.00000083, 35.494166656 ], [ 137.000000829, 35.493957656 ], [ 137.000000828, 35.493749656 ], [ 137.000313829, 35.493749656 ], [ 137.000625829, 35.493749656 ], [ 137.00062583, 35.493957656 ], [ 137.00062583, 35.494166656 ], [ 137.000937831, 35.494166656 ], [ 137.000938831, 35.494166656 ], [ 137.001250831, 35.494166656 ], [ 137.00125083, 35.493957656 ], [ 137.00125083, 35.493749656 ], [ 137.001250829, 35.493541656 ], [ 137.001250828, 35.493332656 ], [ 137.001250828, 35.493124656 ], [ 137.001250827, 35.492916656 ], [ 137.001250826, 35.492707656 ], [ 137.001563827, 35.492707656 ], [ 137.001563826, 35.492499656 ], [ 137.001250826, 35.492499656 ], [ 137.000938825, 35.492499656 ], [ 137.000937825, 35.492499656 ], [ 137.000625825, 35.492499656 ], [ 137.000313825, 35.492499656 ], [ 137.000000825, 35.492499656 ] ], [ [ 136.999375827, 35.493749655 ], [ 136.999375828, 35.493957655 ], [ 136.999375829, 35.494166655 ], [ 136.999063828, 35.494166655 ], [ 136.999063827, 35.493957655 ], [ 136.999063827, 35.493749655 ], [ 136.999063826, 35.493541655 ], [ 136.999375827, 35.493541655 ], [ 136.999375827, 35.493749655 ] ] ] } },
{ "type": "Feature", "properties": { "A31a_301": "8505090072", "A31a_302": "川浦川", "A31a_303": "21", "A31a_304": "岐阜県", "A31a_305": 1 }, "geometry": { "type": "Polygon", "coordinates": [ [ [ 136.996250822, 35.493957655 ], [ 136.995938821, 35.493957655 ], [ 136.995938822, 35.494166655 ], [ 136.996250823, 35.494166655 ], [ 136.996250822, 35.493957655 ] ] ] } },
{ "type": "Feature", "properties": { "A31a_301": "8505090072", "A31a_302": "川浦川", "A31a_303": "21", "A31a_304": "岐阜県", "A31a_305": 1 }, "geometry": { "type": "Polygon", "coordinates": [ [ [ 136.994063818, 35.493957655 ], [ 136.994375818, 35.493957655 ], [ 136.994375819, 35.494166655 ], [ 136.99468882, 35.494166655 ], [ 136.994688819, 35.493957655 ], [ 136.994688818, 35.493749655 ], [ 136.994688818, 35.493541655 ], [ 136.994375817, 35.493541655 ], [ 136.994375817, 35.493332655 ], [ 136.994063816, 35.493332655 ], [ 136.993750816, 35.493332654 ], [ 136.993750816, 35.493541654 ], [ 136.994063817, 35.493541655 ], [ 136.994063817, 35.493749655 ], [ 136.994063818, 35.493957655 ] ] ] } },
{ "type": "Feature", "properties": { "A31a_301": "8505090072", "A31a_302": "川浦川", "A31a_303": "21", "A31a_304": "岐阜県", "A31a_305": 1 }, "geometry": { "type": "Polygon", "coordinates": [ [ [ 136.994063818, 35.493957655 ], [ 136.993750817, 35.493957655 ], [ 136.993750818, 35.494166655 ], [ 136.994063818, 35.494166655 ], [ 136.994063818, 35.493957655 ] ] ] } },
{ "type": "Feature", "properties": { "A31a_301": "8505090072", "A31a_302": "川浦川", "A31a_303": "21", "A31a_304": "岐阜県", "A31a_305": 1 }, "geometry": { "type": "Polygon", "coordinates": [ [ [ 137.006875835, 35.493957658 ], [ 137.006875834, 35.493749658 ], [ 137.006563834, 35.493749658 ], [ 137.006563835, 35.493957658 ], [ 137.006875835, 35.493957658 ] ] ] } },
{ "type": "Feature", "properties": { "A31a_301": "8505090072", "A31a_302": "川浦川", "A31a_303": "21", "A31a_304": "岐阜県", "A31a_305": 1 }, "geometry": { "type": "Polygon", "coordinates": [ [ [ 137.005000831, 35.493332658 ], [ 137.004688831, 35.493332657 ], [ 137.004687831, 35.493332657 ], [ 137.004375831, 35.493332657 ], [ 137.00406383, 35.493332657 ], [ 137.00375083, 35.493332657 ], [ 137.003750831, 35.493541657 ], [ 137.004063831, 35.493541657 ], [ 137.004375831, 35.493541657 ], [ 137.004375832, 35.493749657 ], [ 137.004375833, 35.493957657 ], [ 137.004687833, 35.493957657 ], [ 137.004688833, 35.493957657 ], [ 137.005000833, 35.493957657 ], [ 137.005313834, 35.493957658 ], [ 137.005625834, 35.493957658 ], [ 137.005625833, 35.493749658 ], [ 137.005625832, 35.493541658 ], [ 137.005313832, 35.493541658 ], [ 137.005000832, 35.493541658 ], [ 137.005000831, 35.493332658 ] ] ] } },
{ "type": "Feature", "properties": { "A31a_301": "8505090072", "A31a_302": "川浦川", "A31a_303": "21", "A31a_304": "岐阜県", "A31a_305": 1 }, "geometry": { "type": "Polygon", "coordinates": [ [ [ 136.993750817, 35.493957655 ], [ 136.993750817, 35.493749655 ], [ 136.993437816, 35.493749654 ], [ 136.993437817, 35.493957654 ], [ 136.993750817, 35.493957655 ] ] ] } },
{ "type": "Feature", "properties": { "A31a_301": "8505090072", "A31a_302": "川浦川", "A31a_303": "21", "A31a_304": "岐阜県", "A31a_305": 1 }, "geometry": { "type": "Polygon", "coordinates": [ [ [ 137.005000831, 35.493332658 ], [ 137.005313831, 35.493332658 ], [ 137.005313831, 35.493124658 ], [ 137.005000831, 35.493124658 ], [ 137.005000831, 35.493332658 ] ] ] } },
{ "type": "Feature", "properties": { "A31a_301": "8505090072", "A31a_302": "川浦川", "A31a_303": "21", "A31a_304": "岐阜県", "A31a_305": 1 }, "geometry": { "type": "Polygon", "coordinates": [ [ [ 137.002813829, 35.493124657 ], [ 137.002813829, 35.493332657 ], [ 137.00312583, 35.493332657 ], [ 137.003125829, 35.493124657 ], [ 137.002813829, 35.493124657 ] ] ] } },
{ "type": "Feature", "properties": { "A31a_301": "8505090072", "A31a_302": "川浦川", "A31a_303": "21", "A31a_304": "岐阜県", "A31a_305": 1 }, "geometry": { "type": "Polygon", "coordinates": [ [ [ 137.00468883, 35.492916657 ], [ 137.004375829, 35.492916657 ], [ 137.00437583, 35.493124657 ], [ 137.00468883, 35.493124657 ], [ 137.00468883, 35.492916657 ] ] ] } },
{ "type": "Feature", "properties": { "A31a_301": "8505090072", "A31a_302": "川浦川", "A31a_303": "21", "A31a_304": "岐阜県", "A31a_305": 1 }, "geometry": { "type": "Polygon", "coordinates": [ [ [ 137.003750828, 35.492707657 ], [ 137.003750829, 35.492916657 ], [ 137.00375083, 35.493124657 ], [ 137.00406383, 35.493124657 ], [ 137.004063829, 35.492916657 ], [ 137.004063828, 35.492707657 ], [ 137.003750828, 35.492707657 ] ] ] } },
{ "type": "Feature", "properties": { "A31a_301": "8505090072", "A31a_302": "川浦川", "A31a_303": "21", "A31a_304": "岐阜県", "A31a_305": 1 }, "geometry": { "type": "Polygon", "coordinates": [ [ [ 137.002813828, 35.492916657 ], [ 137.002500828, 35.492916657 ], [ 137.002500829, 35.493124657 ], [ 137.002813829, 35.493124657 ], [ 137.002813828, 35.492916657 ] ] ] } },
{ "type": "Feature", "properties": { "A31a_301": "8505090072", "A31a_302": "川浦川", "A31a_303": "21", "A31a_304": "岐阜県", "A31a_305": 1 }, "geometry": { "type": "Polygon", "coordinates": [ [ [ 136.992500812, 35.492707654 ], [ 136.992813812, 35.492707654 ], [ 136.992813813, 35.492916654 ], [ 136.993125813, 35.492916654 ], [ 136.993125814, 35.493124654 ], [ 136.993438814, 35.493124654 ], [ 136.993438814, 35.492916654 ], [ 136.993438813, 35.492707654 ], [ 136.993438813, 35.492499654 ], [ 136.993438812, 35.492291654 ], [ 136.993125812, 35.492291654 ], [ 136.993125811, 35.492082654 ], [ 136.993125811, 35.491874654 ], [ 136.99281381, 35.491874654 ], [ 136.992500809, 35.491874654 ], [ 136.992500809, 35.491666654 ], [ 136.992188808, 35.491666654 ], [ 136.992188808, 35.491457654 ], [ 136.991875807, 35.491457654 ], [ 136.991875808, 35.491666654 ], [ 136.991875808, 35.491874654 ], [ 136.991875809, 35.492082654 ], [ 136.992188809, 35.492082654 ], [ 136.99218881, 35.492291654 ], [ 136.99218881, 35.492499654 ], [ 136.992500811, 35.492499654 ], [ 136.992500812, 35.492707654 ] ] ] } },
{ "type": "Feature", "properties": { "A31a_301": "8505090072", "A31a_302": "川浦川", "A31a_303": "21", "A31a_304": "岐阜県", "A31a_305": 1 }, "geometry": { "type": "Polygon", "coordinates": [ [ [ 137.003750828, 35.492707657 ], [ 137.003750827, 35.492499657 ], [ 137.003438827, 35.492499657 ], [ 137.003438827, 35.492291657 ], [ 137.003125826, 35.492291657 ], [ 137.003125827, 35.492499657 ], [ 137.002813827, 35.492499657 ], [ 137.002500827, 35.492499657 ], [ 137.002500827, 35.492707657 ], [ 137.002813827, 35.492707657 ], [ 137.002813828, 35.492916657 ], [ 137.003125828, 35.492916657 ], [ 137.003125828, 35.492707657 ], [ 137.003437828, 35.492707657 ], [ 137.003438828, 35.492707657 ], [ 137.003750828, 35.492707657 ] ] ] } },
{ "type": "Feature", "properties": { "A31a_301": "8505090072", "A31a_302": "川浦川", "A31a_303": "21", "A31a_304": "岐阜県", "A31a_305": 1 }, "geometry": { "type": "Polygon", "coordinates": [ [ [ 136.992500812, 35.492707654 ], [ 136.992188811, 35.492707654 ], [ 136.992188812, 35.492916654 ], [ 136.992500812, 35.492916654 ], [ 136.992500812, 35.492707654 ] ] ] } },
{ "type": "Feature", "properties": { "A31a_301": "8505090072", "A31a_302": "川浦川", "A31a_303": "21", "A31a_304": "岐阜県", "A31a_305": 1 }, "geometry": { "type": "Polygon", "coordinates": [ [ [ 136.999688824, 35.492499655 ], [ 136.999375824, 35.492499655 ], [ 136.999375824, 35.492707655 ], [ 136.999688825, 35.492707655 ], [ 136.999688824, 35.492499655 ] ] ] } },
{ "type": "Feature", "properties": { "A31a_301": "8505090072", "A31a_302": "川浦川", "A31a_303": "21", "A31a_304": "岐阜県", "A31a_305": 1 }, "geometry": { "type": "Polygon", "coordinates": [ [ [ 136.999688824, 35.492499655 ], [ 137.000000825, 35.492499656 ], [ 137.000000824, 35.492291656 ], [ 137.000313824, 35.492291656 ], [ 137.000625825, 35.492291656 ], [ 137.000937825, 35.492291656 ], [ 137.000938825, 35.492291656 ], [ 137.001250825, 35.492291656 ], [ 137.001563825, 35.492291656 ], [ 137.001875825, 35.492291656 ], [ 137.001875826, 35.492499656 ], [ 137.002187826, 35.492499656 ], [ 137.002188826, 35.492499656 ], [ 137.002500827, 35.492499657 ], [ 137.002500826, 35.492291657 ], [ 137.002188826, 35.492291656 ], [ 137.002188825, 35.492082657 ], [ 137.001875825, 35.492082656 ], [ 137.001563825, 35.492082656 ], [ 137.001250824, 35.492082656 ], [ 137.000938824, 35.492082656 ], [ 137.000938823, 35.491874656 ], [ 137.000625823, 35.491874656 ], [ 137.000625824, 35.492082656 ], [ 137.000313824, 35.492082656 ], [ 137.000000823, 35.492082656 ], [ 137.000000823, 35.491874656 ], [ 137.000313823, 35.491874656 ], [ 137.000313822, 35.491666656 ], [ 137.000000822, 35.491666656 ], [ 136.999688822, 35.491666655 ], [ 136.999688822, 35.491874655 ], [ 136.999375822, 35.491874655 ], [ 136.999375822, 35.492082655 ], [ 136.999375823, 35.492291655 ], [ 136.999688824, 35.492291655 ], [ 136.999688824, 35.492499655 ] ] ] } },
{ "type": "Feature", "properties": { "A31a_301": "8505090072", "A31a_302": "川浦川", "A31a_303": "21", "A31a_304": "岐阜県", "A31a_305": 1 }, "geometry": { "type": "Polygon", "coordinates": [ [ [ 136.985000792, 35.490416652 ], [ 136.985000792, 35.490624652 ], [ 136.985312793, 35.490624652 ], [ 136.985312792, 35.490416652 ], [ 136.985000792, 35.490416652 ] ] ] } },
{ "type": "Feature", "properties": { "A31a_301": "8505090072", "A31a_302": "川浦川", "A31a_303": "21", "A31a_304": "岐阜県", "A31a_305": 1 }, "geometry": { "type": "Polygon", "coordinates": [ [ [ 136.985000792, 35.490416652 ], [ 136.985000791, 35.490207652 ], [ 136.98468879, 35.490207652 ], [ 136.984688791, 35.490416652 ], [ 136.985000792, 35.490416652 ] ] ] } },
{ "type": "Feature", "properties": { "A31a_301": "8505090072", "A31a_302": "川浦川", "A31a_303": "21", "A31a_304": "岐阜県", "A31a_305": 1 }, "geometry": { "type": "Polygon", "coordinates": [ [ [ 136.965938737, 35.487499654 ], [ 136.966250738, 35.487499653 ], [ 136.966563739, 35.487499653 ], [ 136.96687574, 35.487499653 ], [ 136.96718774, 35.487499653 ], [ 136.96718874, 35.487499653 ], [ 136.967500741, 35.487499653 ], [ 136.967500741, 35.487291653 ], [ 136.967500741, 35.487082652 ], [ 136.967500741, 35.486874652 ], [ 136.967500741, 35.486666652 ], [ 136.967500741, 35.486457652 ], [ 136.967813742, 35.486457651 ], [ 136.967813741, 35.486249651 ], [ 136.967813741, 35.486041651 ], [ 136.967813741, 35.485832651 ], [ 136.967813741, 35.48562465 ], [ 136.968125742, 35.48562465 ], [ 136.968437743, 35.48562465 ], [ 136.968438743, 35.48562465 ], [ 136.968750744, 35.48562465 ], [ 136.969063744, 35.48562465 ], [ 136.969063744, 35.485416649 ], [ 136.969063744, 35.485207649 ], [ 136.969063744, 35.484999649 ], [ 136.968750743, 35.484999649 ], [ 136.968750743, 35.484791649 ], [ 136.968438742, 35.484791649 ], [ 136.968437742, 35.484791649 ], [ 136.968125741, 35.484791649 ], [ 136.968125741, 35.484582649 ], [ 136.96781374, 35.484582649 ], [ 136.967500739, 35.484582649 ], [ 136.967500739, 35.484374649 ], [ 136.967188738, 35.484374649 ], [ 136.967187738, 35.484374649 ], [ 136.966875737, 35.484374649 ], [ 136.966563737, 35.484374649 ], [ 136.966563736, 35.484166649 ], [ 136.966250736, 35.484166649 ], [ 136.965938735, 35.48416665 ], [ 136.965937735, 35.48416665 ], [ 136.965625734, 35.48416665 ], [ 136.965625734, 35.48437465 ], [ 136.965625734, 35.48458265 ], [ 136.965313733, 35.48458265 ], [ 136.965313733, 35.484791651 ], [ 136.965000732, 35.484791651 ], [ 136.965000733, 35.484999651 ], [ 136.965000733, 35.485207651 ], [ 136.965313734, 35.485207651 ], [ 136.965313734, 35.485416651 ], [ 136.965313734, 35.485624652 ], [ 136.965313734, 35.485832652 ], [ 136.965313734, 35.486041652 ], [ 136.965313734, 35.486249652 ], [ 136.965625735, 35.486249652 ], [ 136.965625735, 35.486457653 ], [ 136.965625735, 35.486666653 ], [ 136.965625735, 35.486874653 ], [ 136.965625736, 35.487082653 ], [ 136.965625736, 35.487291654 ], [ 136.965625736, 35.487499654 ], [ 136.965625736, 35.487707654 ], [ 136.965625736, 35.487916654 ], [ 136.965625736, 35.488124655 ], [ 136.965625736, 35.488332655 ], [ 136.965938737, 35.488332655 ], [ 136.965938737, 35.488124654 ], [ 136.965938737, 35.487916654 ], [ 136.965938737, 35.487707654 ], [ 136.965938737, 35.487499654 ] ] ] } },
{ "type": "Feature", "properties": { "A31a_301": "8505090072", "A31a_302": "川浦川", "A31a_303": "21", "A31a_304": "岐阜県", "A31a_305": 1 }, "geometry": { "type": "Polygon", "coordinates": [ [ [ 136.976875767, 35.487082648 ], [ 136.976562767, 35.487082648 ], [ 136.976562767, 35.487291649 ], [ 136.976562767, 35.487499649 ], [ 136.976562768, 35.487707649 ], [ 136.976875768, 35.487707649 ], [ 136.977187769, 35.487707649 ], [ 136.977188769, 35.487707649 ], [ 136.97750077, 35.487707649 ], [ 136.97781277, 35.487707649 ], [ 136.97781277, 35.487499649 ], [ 136.97781277, 35.487291649 ], [ 136.977500769, 35.487291649 ], [ 136.977188768, 35.487291649 ], [ 136.977188768, 35.487082648 ], [ 136.976875767, 35.487082648 ] ] ] } },
{ "type": "Feature", "properties": { "A31a_301": "8505090072", "A31a_302": "川浦川", "A31a_303": "21", "A31a_304": "岐阜県", "A31a_305": 1 }, "geometry": { "type": "Polygon", "coordinates": [ [ [ 136.971875752, 35.484999648 ], [ 136.971875752, 35.484791647 ], [ 136.971563751, 35.484791648 ], [ 136.97156375, 35.484582647 ], [ 136.97156375, 35.484374647 ], [ 136.971250749, 35.484374647 ], [ 136.97125075, 35.484582647 ], [ 136.970938749, 35.484582648 ], [ 136.970625748, 35.484582648 ], [ 136.970625748, 35.484791648 ], [ 136.970938749, 35.484791648 ], [ 136.97125075, 35.484791648 ], [ 136.97125075, 35.484999648 ], [ 136.971563751, 35.484999648 ], [ 136.971875752, 35.484999648 ] ] ] } },
{ "type": "Feature", "properties": { "A31a_301": "8505090072", "A31a_302": "川浦川", "A31a_303": "21", "A31a_304": "岐阜県", "A31a_305": 2 }, "geometry": { "type": "Polygon", "coordinates": [ [ [ 137.025938907, 35.508124662 ], [ 137.025938906, 35.507916662 ], [ 137.025625906, 35.507916662 ], [ 137.025625905, 35.507707662 ], [ 137.025625904, 35.507499662 ], [ 137.025313904, 35.507499662 ], [ 137.025313905, 35.507707662 ], [ 137.025313906, 35.507916662 ], [ 137.025313907, 35.508124661 ], [ 137.025313908, 35.508332661 ], [ 137.025313909, 35.508541661 ], [ 137.02531391, 35.508749661 ], [ 137.025313911, 35.508957661 ], [ 137.025625911, 35.508957661 ], [ 137.02562591, 35.508749661 ], [ 137.025625909, 35.508541661 ], [ 137.025625908, 35.508332662 ], [ 137.025625907, 35.508124662 ], [ 137.025938907, 35.508124662 ] ] ] } },
{ "type": "Feature", "properties": { "A31a_301": "8505090072", "A31a_302": "川浦川", "A31a_303": "21", "A31a_304": "岐阜県", "A31a_305": 2 }, "geometry": { "type": "Polygon", "coordinates": [ [ [ 136.999375829, 35.494166655 ], [ 136.999375828, 35.493957655 ], [ 136.999375827, 35.493749655 ], [ 136.999375827, 35.493541655 ], [ 136.999063826, 35.493541655 ], [ 136.999063827, 35.493749655 ], [ 136.999063827, 35.493957655 ], [ 136.999063828, 35.494166655 ], [ 136.999375829, 35.494166655 ] ] ] } },
{ "type": "Feature", "properties": { "A31a_301": "8505090072", "A31a_302": "川浦川", "A31a_303": "21", "A31a_304": "岐阜県", "A31a_305": 2 }, "geometry": { "type": "Polygon", "coordinates": [ [ [ 136.965625734, 35.48458265 ], [ 136.965625734, 35.48437465 ], [ 136.965625734, 35.48416665 ], [ 136.965313733, 35.48416665 ], [ 136.965000732, 35.48416665 ], [ 136.965000732, 35.48437465 ], [ 136.964687731, 35.48437465 ], [ 136.964687731, 35.484582651 ], [ 136.964687732, 35.484791651 ], [ 136.965000732, 35.484791651 ], [ 136.965313733, 35.484791651 ], [ 136.965313733, 35.48458265 ], [ 136.965625734, 35.48458265 ] ] ] } }
]
}
