{
"type": "FeatureCollection",
"name": "A31a-42-25_21_8505090104_20",
"crs": { "type": "name", "properties": { "name": "urn:ogc:def:crs:EPSG::6668" } },
"xy_coordinate_resolution": 1e-09,
"features": [
{ "type": "Feature", "properties": { "A31a_401": "8505090104", "A31a_402": "吉田川", "A31a_403": "21", "A31a_404": "岐阜県", "A31a_405": 2 }, "geometry": { "type": "Polygon", "coordinates": [ [ [ 136.9502778, 35.748 ], [ 136.9502778, 35.74777778 ], [ 136.95, 35.74777778 ], [ 136.9497222, 35.74777778 ], [ 136.9497222, 35.748 ], [ 136.9494444, 35.748 ], [ 136.9491667, 35.748 ], [ 136.9491667, 35.74777778 ], [ 136.9488889, 35.74777778 ], [ 136.9486111, 35.74777778 ], [ 136.9486111, 35.74755556 ], [ 136.9483333, 35.74755556 ], [ 136.9483333, 35.74777778 ], [ 136.9480556, 35.74777778 ], [ 136.9480556, 35.748 ], [ 136.9480556, 35.74822223 ], [ 136.9483333, 35.74822223 ], [ 136.9483333, 35.74844445 ], [ 136.9486111, 35.74844445 ], [ 136.9488889, 35.74844445 ], [ 136.9491667, 35.74844445 ], [ 136.9494444, 35.74844445 ], [ 136.9497222, 35.74844445 ], [ 136.95, 35.74844445 ], [ 136.9502778, 35.74844445 ], [ 136.9505556, 35.74844445 ], [ 136.9508333, 35.74844445 ], [ 136.9511111, 35.74844445 ], [ 136.9513889, 35.74844445 ], [ 136.9513889, 35.74822223 ], [ 136.9511111, 35.74822223 ], [ 136.9511111, 35.748 ], [ 136.9508333, 35.748 ], [ 136.9505556, 35.748 ], [ 136.9502778, 35.748 ] ] ] } },
{ "type": "Feature", "properties": { "A31a_401": "8505090104", "A31a_402": "吉田川", "A31a_403": "21", "A31a_404": "岐阜県", "A31a_405": 2 }, "geometry": { "type": "Polygon", "coordinates": [ [ [ 136.9525, 35.74777778 ], [ 136.9525, 35.74755556 ], [ 136.9522222, 35.74755556 ], [ 136.9519444, 35.74755556 ], [ 136.9519444, 35.74777778 ], [ 136.9516667, 35.74777778 ], [ 136.9516667, 35.748 ], [ 136.9516667, 35.74822223 ], [ 136.9516667, 35.74844445 ], [ 136.9519444, 35.74844445 ], [ 136.9522222, 35.74844445 ], [ 136.9525, 35.74844445 ], [ 136.9527778, 35.74844445 ], [ 136.9530556, 35.74844445 ], [ 136.9533333, 35.74844445 ], [ 136.9536111, 35.74844445 ], [ 136.9536111, 35.74822223 ], [ 136.9533333, 35.74822223 ], [ 136.9533333, 35.748 ], [ 136.9530556, 35.748 ], [ 136.9530556, 35.74777778 ], [ 136.9527778, 35.74777778 ], [ 136.9525, 35.74777778 ] ] ] } },
{ "type": "Feature", "properties": { "A31a_401": "8505090104", "A31a_402": "吉田川", "A31a_403": "21", "A31a_404": "岐阜県", "A31a_405": 2 }, "geometry": { "type": "Polygon", "coordinates": [ [ [ 136.9736111, 35.75511112 ], [ 136.9733333, 35.75511112 ], [ 136.9733333, 35.75488889 ], [ 136.9736111, 35.75488889 ], [ 136.9736111, 35.75511112 ], [ 136.9738889, 35.75511112 ], [ 136.9738889, 35.75488889 ], [ 136.9741667, 35.75488889 ], [ 136.9741667, 35.75466667 ], [ 136.9741667, 35.75444445 ], [ 136.9738889, 35.75444445 ], [ 136.9736111, 35.75444445 ], [ 136.9736111, 35.75422223 ], [ 136.9733333, 35.75422223 ], [ 136.9733333, 35.75400001 ], [ 136.9730556, 35.75400001 ], [ 136.9727778, 35.75400001 ], [ 136.9725, 35.75400001 ], [ 136.9725, 35.75377778 ], [ 136.9722222, 35.75377778 ], [ 136.9719444, 35.75377778 ], [ 136.9716667, 35.75377778 ], [ 136.9716667, 35.75355556 ], [ 136.9713889, 35.75355556 ], [ 136.9711111, 35.75355556 ], [ 136.9711111, 35.75333334 ], [ 136.9708333, 35.75333334 ], [ 136.9705556, 35.75333334 ], [ 136.9702778, 35.75333334 ], [ 136.9702778, 35.75311112 ], [ 136.97, 35.75311112 ], [ 136.9697222, 35.75311112 ], [ 136.9697222, 35.75288889 ], [ 136.9694444, 35.75288889 ], [ 136.9694444, 35.75266667 ], [ 136.9691667, 35.75266667 ], [ 136.9691667, 35.75244445 ], [ 136.9688889, 35.75244445 ], [ 136.9686111, 35.75244445 ], [ 136.9686111, 35.75222223 ], [ 136.9683333, 35.75222223 ], [ 136.9680556, 35.75222223 ], [ 136.9680556, 35.75200001 ], [ 136.9677778, 35.75200001 ], [ 136.9677778, 35.75177778 ], [ 136.9675, 35.75177778 ], [ 136.9672222, 35.75177778 ], [ 136.9669444, 35.75177778 ], [ 136.9669444, 35.75155556 ], [ 136.9666667, 35.75155556 ], [ 136.9663889, 35.75155556 ], [ 136.9661111, 35.75155556 ], [ 136.9661111, 35.75133334 ], [ 136.9658333, 35.75133334 ], [ 136.9655556, 35.75133334 ], [ 136.9655556, 35.75111112 ], [ 136.9652778, 35.75111112 ], [ 136.965, 35.75111112 ], [ 136.965, 35.75088889 ], [ 136.9647222, 35.75088889 ], [ 136.9644444, 35.75088889 ], [ 136.9644444, 35.75066667 ], [ 136.9641667, 35.75066667 ], [ 136.9638889, 35.75066667 ], [ 136.9638889, 35.75044445 ], [ 136.9636111, 35.75044445 ], [ 136.9636111, 35.75022223 ], [ 136.9636111, 35.75000001 ], [ 136.9633333, 35.75000001 ], [ 136.9633333, 35.74977778 ], [ 136.9630556, 35.74977778 ], [ 136.9630556, 35.75000001 ], [ 136.9627778, 35.75000001 ], [ 136.9625, 35.75000001 ], [ 136.9625, 35.74977778 ], [ 136.9622222, 35.74977778 ], [ 136.9622222, 35.74955556 ], [ 136.9619444, 35.74955556 ], [ 136.9616667, 35.74955556 ], [ 136.9613889, 35.74955556 ], [ 136.9611111, 35.74955556 ], [ 136.9608333, 35.74955556 ], [ 136.9605556, 35.74955556 ], [ 136.9602778, 35.74955556 ], [ 136.9602778, 35.74933334 ], [ 136.96, 35.74933334 ], [ 136.9597222, 35.74933334 ], [ 136.9597222, 35.74911112 ], [ 136.9594444, 35.74911112 ], [ 136.9591667, 35.74911112 ], [ 136.9588889, 35.74911112 ], [ 136.9586111, 35.74911112 ], [ 136.9583333, 35.74911112 ], [ 136.9583333, 35.74888889 ], [ 136.9580556, 35.74888889 ], [ 136.9580556, 35.74866667 ], [ 136.9577778, 35.74866667 ], [ 136.9575, 35.74866667 ], [ 136.9575, 35.74844445 ], [ 136.9572222, 35.74844445 ], [ 136.9569444, 35.74844445 ], [ 136.9566667, 35.74844445 ], [ 136.9566667, 35.74822223 ], [ 136.9563889, 35.74822223 ], [ 136.9561111, 35.74822223 ], [ 136.9561111, 35.748 ], [ 136.9558333, 35.748 ], [ 136.9555556, 35.748 ], [ 136.9555556, 35.74822223 ], [ 136.9552778, 35.74822223 ], [ 136.955, 35.74822223 ], [ 136.955, 35.74844445 ], [ 136.9547222, 35.74844445 ], [ 136.9547222, 35.74822223 ], [ 136.9544444, 35.74822223 ], [ 136.9541667, 35.74822223 ], [ 136.9538889, 35.74822223 ], [ 136.9538889, 35.74844445 ], [ 136.9541667, 35.74844445 ], [ 136.9544444, 35.74844445 ], [ 136.9544444, 35.74866667 ], [ 136.9547222, 35.74866667 ], [ 136.955, 35.74866667 ], [ 136.9552778, 35.74866667 ], [ 136.9552778, 35.74888889 ], [ 136.9555556, 35.74888889 ], [ 136.9558333, 35.74888889 ], [ 136.9558333, 35.74911112 ], [ 136.9561111, 35.74911112 ], [ 136.9563889, 35.74911112 ], [ 136.9563889, 35.74933334 ], [ 136.9566667, 35.74933334 ], [ 136.9569444, 35.74933334 ], [ 136.9569444, 35.74955556 ], [ 136.9566667, 35.74955556 ], [ 136.9563889, 35.74955556 ], [ 136.9561111, 35.74955556 ], [ 136.9561111, 35.74977778 ], [ 136.9558333, 35.74977778 ], [ 136.9558333, 35.74955556 ], [ 136.9558333, 35.74933334 ], [ 136.9555556, 35.74933334 ], [ 136.9552778, 35.74933334 ], [ 136.9552778, 35.74911112 ], [ 136.955, 35.74911112 ], [ 136.9547222, 35.74911112 ], [ 136.9544444, 35.74911112 ], [ 136.9541667, 35.74911112 ], [ 136.9538889, 35.74911112 ], [ 136.9536111, 35.74911112 ], [ 136.9533333, 35.74911112 ], [ 136.9530556, 35.74911112 ], [ 136.9530556, 35.74888889 ], [ 136.9527778, 35.74888889 ], [ 136.9525, 35.74888889 ], [ 136.9522222, 35.74888889 ], [ 136.9519444, 35.74888889 ], [ 136.9516667, 35.74888889 ], [ 136.9513889, 35.74888889 ], [ 136.9511111, 35.74888889 ], [ 136.9508333, 35.74888889 ], [ 136.9505556, 35.74888889 ], [ 136.9502778, 35.74888889 ], [ 136.95, 35.74888889 ], [ 136.9497222, 35.74888889 ], [ 136.9494444, 35.74888889 ], [ 136.9491667, 35.74888889 ], [ 136.9488889, 35.74888889 ], [ 136.9486111, 35.74888889 ], [ 136.9483333, 35.74888889 ], [ 136.9480556, 35.74888889 ], [ 136.9477778, 35.74888889 ], [ 136.9477778, 35.74911112 ], [ 136.9477778, 35.74933334 ], [ 136.9477778, 35.74955556 ], [ 136.9475, 35.74955556 ], [ 136.9475, 35.74977778 ], [ 136.9477778, 35.74977778 ], [ 136.9477778, 35.75000001 ], [ 136.9480556, 35.75000001 ], [ 136.9483333, 35.75000001 ], [ 136.9486111, 35.75000001 ], [ 136.9486111, 35.74977778 ], [ 136.9488889, 35.74977778 ], [ 136.9488889, 35.74955556 ], [ 136.9491667, 35.74955556 ], [ 136.9494444, 35.74955556 ], [ 136.9497222, 35.74955556 ], [ 136.9497222, 35.74933334 ], [ 136.95, 35.74933334 ], [ 136.95, 35.74955556 ], [ 136.9502778, 35.74955556 ], [ 136.9505556, 35.74955556 ], [ 136.9505556, 35.74933334 ], [ 136.9508333, 35.74933334 ], [ 136.9511111, 35.74933334 ], [ 136.9513889, 35.74933334 ], [ 136.9516667, 35.74933334 ], [ 136.9519444, 35.74933334 ], [ 136.9519444, 35.74955556 ], [ 136.9522222, 35.74955556 ], [ 136.9525, 35.74955556 ], [ 136.9527778, 35.74955556 ], [ 136.9530556, 35.74955556 ], [ 136.9533333, 35.74955556 ], [ 136.9536111, 35.74955556 ], [ 136.9536111, 35.74977778 ], [ 136.9538889, 35.74977778 ], [ 136.9541667, 35.74977778 ], [ 136.9544444, 35.74977778 ], [ 136.9547222, 35.74977778 ], [ 136.9547222, 35.75000001 ], [ 136.955, 35.75000001 ], [ 136.9552778, 35.75000001 ], [ 136.9552778, 35.75022223 ], [ 136.9552778, 35.75044445 ], [ 136.9555556, 35.75044445 ], [ 136.9555556, 35.75066667 ], [ 136.9558333, 35.75066667 ], [ 136.9558333, 35.75044445 ], [ 136.9561111, 35.75044445 ], [ 136.9561111, 35.75022223 ], [ 136.9563889, 35.75022223 ], [ 136.9566667, 35.75022223 ], [ 136.9566667, 35.75044445 ], [ 136.9569444, 35.75044445 ], [ 136.9569444, 35.75022223 ], [ 136.9572222, 35.75022223 ], [ 136.9575, 35.75022223 ], [ 136.9575, 35.75000001 ], [ 136.9575, 35.74977778 ], [ 136.9572222, 35.74977778 ], [ 136.9572222, 35.74955556 ], [ 136.9575, 35.74955556 ], [ 136.9575, 35.74977778 ], [ 136.9577778, 35.74977778 ], [ 136.9580556, 35.74977778 ], [ 136.9583333, 35.74977778 ], [ 136.9583333, 35.75000001 ], [ 136.9586111, 35.75000001 ], [ 136.9588889, 35.75000001 ], [ 136.9588889, 35.75022223 ], [ 136.9586111, 35.75022223 ], [ 136.9583333, 35.75022223 ], [ 136.9583333, 35.75044445 ], [ 136.9583333, 35.75066667 ], [ 136.9586111, 35.75066667 ], [ 136.9586111, 35.75088889 ], [ 136.9586111, 35.75111112 ], [ 136.9586111, 35.75133334 ], [ 136.9588889, 35.75133334 ], [ 136.9591667, 35.75133334 ], [ 136.9591667, 35.75111112 ], [ 136.9594444, 35.75111112 ], [ 136.9597222, 35.75111112 ], [ 136.96, 35.75111112 ], [ 136.96, 35.75133334 ], [ 136.9602778, 35.75133334 ], [ 136.9605556, 35.75133334 ], [ 136.9608333, 35.75133334 ], [ 136.9608333, 35.75155556 ], [ 136.9611111, 35.75155556 ], [ 136.9613889, 35.75155556 ], [ 136.9613889, 35.75177778 ], [ 136.9616667, 35.75177778 ], [ 136.9619444, 35.75177778 ], [ 136.9619444, 35.75200001 ], [ 136.9622222, 35.75200001 ], [ 136.9625, 35.75200001 ], [ 136.9625, 35.75222223 ], [ 136.9627778, 35.75222223 ], [ 136.9627778, 35.75244445 ], [ 136.9630556, 35.75244445 ], [ 136.9633333, 35.75244445 ], [ 136.9636111, 35.75244445 ], [ 136.9636111, 35.75266667 ], [ 136.9638889, 35.75266667 ], [ 136.9641667, 35.75266667 ], [ 136.9641667, 35.75288889 ], [ 136.9644444, 35.75288889 ], [ 136.9647222, 35.75288889 ], [ 136.9647222, 35.75311112 ], [ 136.965, 35.75311112 ], [ 136.9652778, 35.75311112 ], [ 136.9652778, 35.75333334 ], [ 136.9655556, 35.75333334 ], [ 136.9658333, 35.75333334 ], [ 136.9661111, 35.75333334 ], [ 136.9661111, 35.75355556 ], [ 136.9663889, 35.75355556 ], [ 136.9666667, 35.75355556 ], [ 136.9669444, 35.75355556 ], [ 136.9672222, 35.75355556 ], [ 136.9675, 35.75355556 ], [ 136.9675, 35.75377778 ], [ 136.9677778, 35.75377778 ], [ 136.9680556, 35.75377778 ], [ 136.9680556, 35.75400001 ], [ 136.9680556, 35.75422223 ], [ 136.9683333, 35.75422223 ], [ 136.9683333, 35.75444445 ], [ 136.9683333, 35.75466667 ], [ 136.9686111, 35.75466667 ], [ 136.9688889, 35.75466667 ], [ 136.9691667, 35.75466667 ], [ 136.9691667, 35.75488889 ], [ 136.9694444, 35.75488889 ], [ 136.9694444, 35.75511112 ], [ 136.9697222, 35.75511112 ], [ 136.9697222, 35.75533334 ], [ 136.97, 35.75533334 ], [ 136.9702778, 35.75533334 ], [ 136.9702778, 35.75555556 ], [ 136.9705556, 35.75555556 ], [ 136.9705556, 35.75533334 ], [ 136.9708333, 35.75533334 ], [ 136.9711111, 35.75533334 ], [ 136.9713889, 35.75533334 ], [ 136.9716667, 35.75533334 ], [ 136.9719444, 35.75533334 ], [ 136.9719444, 35.75555556 ], [ 136.9722222, 35.75555556 ], [ 136.9725, 35.75555556 ], [ 136.9727778, 35.75555556 ], [ 136.9727778, 35.75577778 ], [ 136.9727778, 35.75600001 ], [ 136.9727778, 35.75622223 ], [ 136.9730556, 35.75622223 ], [ 136.9733333, 35.75622223 ], [ 136.9733333, 35.75600001 ], [ 136.9733333, 35.75577778 ], [ 136.9736111, 35.75577778 ], [ 136.9736111, 35.75555556 ], [ 136.9736111, 35.75533334 ], [ 136.9736111, 35.75511112 ] ], [ [ 136.9722222, 35.75466667 ], [ 136.9722222, 35.75444445 ], [ 136.9725, 35.75444445 ], [ 136.9725, 35.75466667 ], [ 136.9722222, 35.75466667 ] ], [ [ 136.9713889, 35.75444445 ], [ 136.9713889, 35.75422223 ], [ 136.9716667, 35.75422223 ], [ 136.9719444, 35.75422223 ], [ 136.9719444, 35.75444445 ], [ 136.9716667, 35.75444445 ], [ 136.9713889, 35.75444445 ] ], [ [ 136.9702778, 35.75422223 ], [ 136.9702778, 35.75400001 ], [ 136.9705556, 35.75400001 ], [ 136.9705556, 35.75422223 ], [ 136.9702778, 35.75422223 ] ], [ [ 136.9683333, 35.75333334 ], [ 136.9683333, 35.75311112 ], [ 136.9686111, 35.75311112 ], [ 136.9686111, 35.75333334 ], [ 136.9683333, 35.75333334 ] ], [ [ 136.9669444, 35.75288889 ], [ 136.9669444, 35.75266667 ], [ 136.9672222, 35.75266667 ], [ 136.9675, 35.75266667 ], [ 136.9675, 35.75288889 ], [ 136.9672222, 35.75288889 ], [ 136.9669444, 35.75288889 ] ], [ [ 136.9652778, 35.75222223 ], [ 136.965, 35.75222223 ], [ 136.9647222, 35.75222223 ], [ 136.9647222, 35.75200001 ], [ 136.9644444, 35.75200001 ], [ 136.9641667, 35.75200001 ], [ 136.9638889, 35.75200001 ], [ 136.9638889, 35.75177778 ], [ 136.9636111, 35.75177778 ], [ 136.9633333, 35.75177778 ], [ 136.9633333, 35.75155556 ], [ 136.9630556, 35.75155556 ], [ 136.9627778, 35.75155556 ], [ 136.9627778, 35.75133334 ], [ 136.9625, 35.75133334 ], [ 136.9625, 35.75111112 ], [ 136.9622222, 35.75111112 ], [ 136.9622222, 35.75088889 ], [ 136.9619444, 35.75088889 ], [ 136.9619444, 35.75066667 ], [ 136.9622222, 35.75066667 ], [ 136.9622222, 35.75088889 ], [ 136.9625, 35.75088889 ], [ 136.9625, 35.75111112 ], [ 136.9627778, 35.75111112 ], [ 136.9630556, 35.75111112 ], [ 136.9630556, 35.75133334 ], [ 136.9633333, 35.75133334 ], [ 136.9636111, 35.75133334 ], [ 136.9636111, 35.75155556 ], [ 136.9638889, 35.75155556 ], [ 136.9641667, 35.75155556 ], [ 136.9641667, 35.75177778 ], [ 136.9644444, 35.75177778 ], [ 136.9647222, 35.75177778 ], [ 136.9647222, 35.75200001 ], [ 136.965, 35.75200001 ], [ 136.9652778, 35.75200001 ], [ 136.9652778, 35.75222223 ], [ 136.9655556, 35.75222223 ], [ 136.9658333, 35.75222223 ], [ 136.9661111, 35.75222223 ], [ 136.9661111, 35.75244445 ], [ 136.9663889, 35.75244445 ], [ 136.9666667, 35.75244445 ], [ 136.9666667, 35.75266667 ], [ 136.9663889, 35.75266667 ], [ 136.9661111, 35.75266667 ], [ 136.9658333, 35.75266667 ], [ 136.9658333, 35.75244445 ], [ 136.9655556, 35.75244445 ], [ 136.9652778, 35.75244445 ], [ 136.9652778, 35.75222223 ] ], [ [ 136.9611111, 35.75066667 ], [ 136.9611111, 35.75044445 ], [ 136.9613889, 35.75044445 ], [ 136.9616667, 35.75044445 ], [ 136.9616667, 35.75066667 ], [ 136.9613889, 35.75066667 ], [ 136.9611111, 35.75066667 ] ], [ [ 136.96, 35.75044445 ], [ 136.96, 35.75022223 ], [ 136.9602778, 35.75022223 ], [ 136.9605556, 35.75022223 ], [ 136.9605556, 35.75044445 ], [ 136.9602778, 35.75044445 ], [ 136.96, 35.75044445 ] ] ] } }
]
}
