{
"type": "FeatureCollection",
"name": "A31a-41-25_21_8505090255_10",
"crs": { "type": "name", "properties": { "name": "urn:ogc:def:crs:EPSG::6668" } },
"xy_coordinate_resolution": 1e-09,
"features": [
{ "type": "Feature", "properties": { "A31a_401": "8505090255", "A31a_402": "飛騨川", "A31a_403": "21", "A31a_404": "岐阜県", "A31a_405": 1 }, "geometry": { "type": "Polygon", "coordinates": [ [ [ 137.254688451, 35.783749543 ], [ 137.254688451, 35.783541213 ], [ 137.25468845, 35.783332872 ], [ 137.25468845, 35.783124542 ], [ 137.25468845, 35.782916212 ], [ 137.25468845, 35.782707872 ], [ 137.25437595, 35.782707872 ], [ 137.25437595, 35.782499542 ], [ 137.254375949, 35.782291212 ], [ 137.254375949, 35.782082871 ], [ 137.254375949, 35.781874541 ], [ 137.254375949, 35.781666211 ], [ 137.254688448, 35.781666211 ], [ 137.254688448, 35.781457871 ], [ 137.254688448, 35.781249541 ], [ 137.254375948, 35.781249541 ], [ 137.254063448, 35.781249541 ], [ 137.253750949, 35.781249541 ], [ 137.253750949, 35.781457871 ], [ 137.253750949, 35.781666211 ], [ 137.25343845, 35.781666211 ], [ 137.25343845, 35.781874542 ], [ 137.25343845, 35.782082872 ], [ 137.25343845, 35.782291212 ], [ 137.253438451, 35.782499542 ], [ 137.25375095, 35.782499542 ], [ 137.253750951, 35.782707872 ], [ 137.253750951, 35.782916212 ], [ 137.254063451, 35.782916212 ], [ 137.254063451, 35.783124542 ], [ 137.254063451, 35.783332873 ], [ 137.254063451, 35.783541213 ], [ 137.254375951, 35.783541213 ], [ 137.254375951, 35.783749543 ], [ 137.254375951, 35.783957873 ], [ 137.254688451, 35.783957873 ], [ 137.254688451, 35.783749543 ] ] ] } },
{ "type": "Feature", "properties": { "A31a_401": "8505090255", "A31a_402": "飛騨川", "A31a_403": "21", "A31a_404": "岐阜県", "A31a_405": 1 }, "geometry": { "type": "Polygon", "coordinates": [ [ [ 137.257500956, 35.792291217 ], [ 137.257500956, 35.792082877 ], [ 137.257500956, 35.791874547 ], [ 137.257500956, 35.791666217 ], [ 137.257500955, 35.791457877 ], [ 137.257813455, 35.791457876 ], [ 137.257813455, 35.791249546 ], [ 137.257813455, 35.791041216 ], [ 137.257813454, 35.790832876 ], [ 137.257813454, 35.790624546 ], [ 137.257813454, 35.790416216 ], [ 137.257813454, 35.790207876 ], [ 137.257500954, 35.790207876 ], [ 137.257500954, 35.789999546 ], [ 137.257500954, 35.789791215 ], [ 137.257188454, 35.789791216 ], [ 137.257188454, 35.789582875 ], [ 137.257188454, 35.789374545 ], [ 137.256875954, 35.789374545 ], [ 137.256875954, 35.789166215 ], [ 137.256875954, 35.788957875 ], [ 137.256563454, 35.788957875 ], [ 137.256563454, 35.788749545 ], [ 137.256563453, 35.788541215 ], [ 137.256563453, 35.788332875 ], [ 137.256563453, 35.788124545 ], [ 137.256250953, 35.788124545 ], [ 137.256250953, 35.787916215 ], [ 137.256250953, 35.787707875 ], [ 137.256250953, 35.787499544 ], [ 137.256250953, 35.787291214 ], [ 137.255938453, 35.787291214 ], [ 137.255938453, 35.787082874 ], [ 137.255938453, 35.786874544 ], [ 137.255625953, 35.786874544 ], [ 137.255313453, 35.786874544 ], [ 137.255313453, 35.787082875 ], [ 137.255313454, 35.787291215 ], [ 137.255625953, 35.787291215 ], [ 137.255625953, 35.787499545 ], [ 137.255625954, 35.787707875 ], [ 137.255625954, 35.787916215 ], [ 137.255938454, 35.787916215 ], [ 137.255938454, 35.788124545 ], [ 137.255938454, 35.788332875 ], [ 137.255938454, 35.788541215 ], [ 137.255938454, 35.788749545 ], [ 137.255625955, 35.788749546 ], [ 137.255625955, 35.788957876 ], [ 137.255625955, 35.789166216 ], [ 137.255625955, 35.789374546 ], [ 137.255625956, 35.789582876 ], [ 137.255625956, 35.789791216 ], [ 137.255625956, 35.789999546 ], [ 137.255625956, 35.790207877 ], [ 137.255625956, 35.790416217 ], [ 137.255938456, 35.790416217 ], [ 137.255938456, 35.790624547 ], [ 137.255938456, 35.790832877 ], [ 137.255938457, 35.791041217 ], [ 137.255938457, 35.791249547 ], [ 137.256250957, 35.791249547 ], [ 137.256250957, 35.791457877 ], [ 137.256563456, 35.791457877 ], [ 137.256563457, 35.791666217 ], [ 137.256875956, 35.791666217 ], [ 137.256875956, 35.791874547 ], [ 137.256875957, 35.792082877 ], [ 137.257188456, 35.792082877 ], [ 137.257188456, 35.792291217 ], [ 137.257500956, 35.792291217 ] ] ] } },
{ "type": "Feature", "properties": { "A31a_401": "8505090255", "A31a_402": "飛騨川", "A31a_403": "21", "A31a_404": "岐阜県", "A31a_405": 1 }, "geometry": { "type": "Polygon", "coordinates": [ [ [ 137.248125972, 35.798957884 ], [ 137.248125972, 35.798749554 ], [ 137.248438472, 35.798749554 ], [ 137.248750972, 35.798749554 ], [ 137.248750972, 35.798541224 ], [ 137.249063471, 35.798541224 ], [ 137.249375971, 35.798541224 ], [ 137.249375971, 35.798332884 ], [ 137.249688471, 35.798332884 ], [ 137.250000971, 35.798332884 ], [ 137.25000097, 35.798124554 ], [ 137.25031347, 35.798124554 ], [ 137.25062597, 35.798124554 ], [ 137.250625969, 35.797916224 ], [ 137.250938469, 35.797916224 ], [ 137.250938469, 35.797707883 ], [ 137.251250968, 35.797707883 ], [ 137.251250968, 35.797499553 ], [ 137.251563468, 35.797499553 ], [ 137.251563468, 35.797291223 ], [ 137.251875967, 35.797291223 ], [ 137.251875967, 35.797082883 ], [ 137.252188467, 35.797082882 ], [ 137.252188466, 35.796874552 ], [ 137.252500966, 35.796874552 ], [ 137.252500966, 35.796666222 ], [ 137.252500966, 35.796457882 ], [ 137.252813465, 35.796457882 ], [ 137.252813465, 35.796249551 ], [ 137.253125965, 35.796249551 ], [ 137.253438464, 35.796249551 ], [ 137.253750964, 35.796249551 ], [ 137.253750964, 35.796041221 ], [ 137.254063463, 35.796041221 ], [ 137.254063463, 35.795832881 ], [ 137.254375963, 35.79583288 ], [ 137.254375963, 35.79562455 ], [ 137.254688462, 35.79562455 ], [ 137.254688462, 35.79541622 ], [ 137.255000962, 35.79541622 ], [ 137.255313461, 35.79541622 ], [ 137.255313461, 35.795207879 ], [ 137.255625961, 35.795207879 ], [ 137.25562596, 35.794999549 ], [ 137.25562596, 35.794791219 ], [ 137.25593846, 35.794791219 ], [ 137.25593846, 35.794582879 ], [ 137.256250959, 35.794582879 ], [ 137.256250959, 35.794374549 ], [ 137.256250959, 35.794166218 ], [ 137.256563459, 35.794166218 ], [ 137.256563458, 35.793957878 ], [ 137.256563458, 35.793749548 ], [ 137.256875958, 35.793749548 ], [ 137.256875958, 35.793541218 ], [ 137.256875958, 35.793332878 ], [ 137.256875957, 35.793124548 ], [ 137.256563458, 35.793124548 ], [ 137.256563458, 35.792916218 ], [ 137.256563457, 35.792707878 ], [ 137.256563457, 35.792499547 ], [ 137.256250958, 35.792499548 ], [ 137.256250957, 35.792291218 ], [ 137.256250957, 35.792082877 ], [ 137.255938458, 35.792082878 ], [ 137.255938457, 35.791874547 ], [ 137.255938457, 35.791666217 ], [ 137.255625958, 35.791666218 ], [ 137.255625957, 35.791457877 ], [ 137.255625957, 35.791249547 ], [ 137.255313458, 35.791249547 ], [ 137.255313457, 35.791041217 ], [ 137.255313457, 35.790832877 ], [ 137.255313457, 35.790624547 ], [ 137.255000957, 35.790624547 ], [ 137.255000957, 35.790416217 ], [ 137.255000957, 35.790207877 ], [ 137.255000957, 35.789999547 ], [ 137.255000956, 35.789791217 ], [ 137.255000956, 35.789582876 ], [ 137.255000956, 35.789374546 ], [ 137.255000956, 35.789166216 ], [ 137.255000956, 35.788957876 ], [ 137.255000955, 35.788749546 ], [ 137.254688456, 35.788749546 ], [ 137.254688456, 35.788957876 ], [ 137.254688456, 35.789166216 ], [ 137.254375957, 35.789166216 ], [ 137.254375957, 35.789374547 ], [ 137.254375957, 35.789582877 ], [ 137.254375957, 35.789791217 ], [ 137.254063458, 35.789791217 ], [ 137.254063458, 35.789999547 ], [ 137.254063458, 35.790207877 ], [ 137.253750958, 35.790207877 ], [ 137.253750958, 35.790416217 ], [ 137.253750959, 35.790624548 ], [ 137.253750959, 35.790832878 ], [ 137.253750959, 35.791041218 ], [ 137.253750959, 35.791249548 ], [ 137.25343846, 35.791249548 ], [ 137.25343846, 35.791457878 ], [ 137.25343846, 35.791666218 ], [ 137.25343846, 35.791874549 ], [ 137.25343846, 35.792082879 ], [ 137.253125961, 35.792082879 ], [ 137.253125961, 35.792291219 ], [ 137.253125961, 35.792499549 ], [ 137.253125961, 35.792707879 ], [ 137.253125962, 35.792916219 ], [ 137.253125962, 35.793124549 ], [ 137.253125962, 35.79333288 ], [ 137.253125962, 35.79354122 ], [ 137.253125962, 35.79374955 ], [ 137.253125963, 35.79395788 ], [ 137.253125963, 35.79416622 ], [ 137.253125963, 35.79437455 ], [ 137.253125963, 35.79458288 ], [ 137.252813463, 35.79458288 ], [ 137.252813464, 35.794791221 ], [ 137.252813464, 35.794999551 ], [ 137.252813464, 35.795207881 ], [ 137.252500964, 35.795207881 ], [ 137.252500965, 35.795416221 ], [ 137.252500965, 35.795624551 ], [ 137.252188465, 35.795624551 ], [ 137.252188465, 35.795832882 ], [ 137.252188466, 35.796041222 ], [ 137.251875966, 35.796041222 ], [ 137.251875966, 35.796249552 ], [ 137.251875966, 35.796457882 ], [ 137.251563467, 35.796457882 ], [ 137.251563467, 35.796666222 ], [ 137.251563467, 35.796874553 ], [ 137.251250968, 35.796874553 ], [ 137.251250968, 35.797082883 ], [ 137.250938468, 35.797082883 ], [ 137.250938468, 35.797291223 ], [ 137.250625969, 35.797291223 ], [ 137.250625969, 35.797499554 ], [ 137.250313469, 35.797499554 ], [ 137.25000097, 35.797499554 ], [ 137.25000097, 35.797707884 ], [ 137.24968847, 35.797707884 ], [ 137.24968847, 35.797916224 ], [ 137.249375971, 35.797916224 ], [ 137.249063471, 35.797916224 ], [ 137.249063471, 35.798124554 ], [ 137.248750971, 35.798124554 ], [ 137.248750971, 35.798332884 ], [ 137.248438472, 35.798332884 ], [ 137.248125972, 35.798332884 ], [ 137.248125972, 35.798541224 ], [ 137.247813472, 35.798541224 ], [ 137.247813473, 35.798749554 ], [ 137.247500973, 35.798749554 ], [ 137.247500973, 35.798957884 ], [ 137.247813473, 35.798957884 ], [ 137.248125972, 35.798957884 ] ] ] } },
{ "type": "Feature", "properties": { "A31a_401": "8505090255", "A31a_402": "飛騨川", "A31a_403": "21", "A31a_404": "岐阜県", "A31a_405": 1 }, "geometry": { "type": "Polygon", "coordinates": [ [ [ 137.244688478, 35.805624553 ], [ 137.244688478, 35.805416223 ], [ 137.245000978, 35.805416223 ], [ 137.245000978, 35.805207883 ], [ 137.245313478, 35.805207883 ], [ 137.245313478, 35.804999553 ], [ 137.245313478, 35.804791224 ], [ 137.245625977, 35.804791224 ], [ 137.245625977, 35.804582884 ], [ 137.245938477, 35.804582884 ], [ 137.245938477, 35.804374554 ], [ 137.245938477, 35.804166224 ], [ 137.246250977, 35.804166224 ], [ 137.246250976, 35.803957884 ], [ 137.246563476, 35.803957884 ], [ 137.246563476, 35.803749554 ], [ 137.246875976, 35.803749554 ], [ 137.246875976, 35.803541224 ], [ 137.246875976, 35.803332884 ], [ 137.247188475, 35.803332884 ], [ 137.247188475, 35.803124554 ], [ 137.247500975, 35.803124554 ], [ 137.247500975, 35.802916224 ], [ 137.247500975, 35.802707884 ], [ 137.247813475, 35.802707884 ], [ 137.247813475, 35.802499554 ], [ 137.248125974, 35.802499554 ], [ 137.248125974, 35.802291224 ], [ 137.248125974, 35.802082885 ], [ 137.248438474, 35.802082885 ], [ 137.248438474, 35.801874555 ], [ 137.248438474, 35.801666225 ], [ 137.248438474, 35.801457885 ], [ 137.248438474, 35.801249555 ], [ 137.248750974, 35.801249555 ], [ 137.248750973, 35.801041225 ], [ 137.249063473, 35.801041225 ], [ 137.249375973, 35.801041225 ], [ 137.249375973, 35.800832885 ], [ 137.249688473, 35.800832885 ], [ 137.249688473, 35.800624555 ], [ 137.250000972, 35.800624555 ], [ 137.250000972, 35.800416225 ], [ 137.250313472, 35.800416225 ], [ 137.250313472, 35.800207885 ], [ 137.250625971, 35.800207885 ], [ 137.250625971, 35.799999555 ], [ 137.250938471, 35.799999555 ], [ 137.250938471, 35.800207885 ], [ 137.251250971, 35.800207885 ], [ 137.251250971, 35.800416225 ], [ 137.25156347, 35.800416224 ], [ 137.25156347, 35.800624554 ], [ 137.25187597, 35.800624554 ], [ 137.25218847, 35.800624554 ], [ 137.252188469, 35.800416224 ], [ 137.252500969, 35.800416224 ], [ 137.252813469, 35.800416224 ], [ 137.252813469, 35.800207884 ], [ 137.252813468, 35.799999554 ], [ 137.253125968, 35.799999553 ], [ 137.253125968, 35.799791223 ], [ 137.253438467, 35.799791223 ], [ 137.253438467, 35.799582883 ], [ 137.253750967, 35.799582883 ], [ 137.253750967, 35.799374553 ], [ 137.253750966, 35.799166223 ], [ 137.254063466, 35.799166222 ], [ 137.254375966, 35.799166222 ], [ 137.254375965, 35.798957882 ], [ 137.254375965, 35.798749552 ], [ 137.254688465, 35.798749552 ], [ 137.254688465, 35.798541222 ], [ 137.254688465, 35.798332882 ], [ 137.255000964, 35.798332881 ], [ 137.255000964, 35.798124551 ], [ 137.255313464, 35.798124551 ], [ 137.255313463, 35.797916221 ], [ 137.255313463, 35.797707881 ], [ 137.255625963, 35.797707881 ], [ 137.255625963, 35.797499551 ], [ 137.255625962, 35.79729122 ], [ 137.255938462, 35.79729122 ], [ 137.255938462, 35.79708288 ], [ 137.256250961, 35.79708288 ], [ 137.256250961, 35.79687455 ], [ 137.256250961, 35.79666622 ], [ 137.256563461, 35.79666622 ], [ 137.25687596, 35.796666219 ], [ 137.25718846, 35.796666219 ], [ 137.25750096, 35.796666219 ], [ 137.257500959, 35.796457879 ], [ 137.257500959, 35.796249549 ], [ 137.257500959, 35.796041219 ], [ 137.257813459, 35.796041219 ], [ 137.257813459, 35.795832878 ], [ 137.257813458, 35.795624548 ], [ 137.257813458, 35.795416218 ], [ 137.257813458, 35.795207878 ], [ 137.257813458, 35.794999548 ], [ 137.257813458, 35.794791218 ], [ 137.257813458, 35.794582878 ], [ 137.257813457, 35.794374548 ], [ 137.257813457, 35.794166218 ], [ 137.257500958, 35.794166218 ], [ 137.257500958, 35.794374548 ], [ 137.257188458, 35.794374548 ], [ 137.257188458, 35.794582878 ], [ 137.256875959, 35.794582878 ], [ 137.256875959, 35.794791218 ], [ 137.256875959, 35.794999549 ], [ 137.256563459, 35.794999549 ], [ 137.25656346, 35.795207879 ], [ 137.25625096, 35.795207879 ], [ 137.25625096, 35.795416219 ], [ 137.25593846, 35.795416219 ], [ 137.255938461, 35.795624549 ], [ 137.255625961, 35.79562455 ], [ 137.255313461, 35.79562455 ], [ 137.255313462, 35.79583288 ], [ 137.255000962, 35.79583288 ], [ 137.255000962, 35.79604122 ], [ 137.255000962, 35.79624955 ], [ 137.254688463, 35.79624955 ], [ 137.254688463, 35.796457881 ], [ 137.254375963, 35.796457881 ], [ 137.254375963, 35.796666221 ], [ 137.254375964, 35.796874551 ], [ 137.254375964, 35.797082881 ], [ 137.254375964, 35.797291221 ], [ 137.254063464, 35.797291221 ], [ 137.254063465, 35.797499551 ], [ 137.254063465, 35.797707882 ], [ 137.253750965, 35.797707882 ], [ 137.253750965, 35.797916222 ], [ 137.253438466, 35.797916222 ], [ 137.253438466, 35.798124552 ], [ 137.253125966, 35.798124552 ], [ 137.253125967, 35.798332883 ], [ 137.252813467, 35.798332883 ], [ 137.252813467, 35.798541223 ], [ 137.252500968, 35.798541223 ], [ 137.252500968, 35.798749553 ], [ 137.252188468, 35.798749553 ], [ 137.251875969, 35.798749554 ], [ 137.251875969, 35.798957884 ], [ 137.251563469, 35.798957884 ], [ 137.251563469, 35.799166224 ], [ 137.25125097, 35.799166224 ], [ 137.25093847, 35.799166224 ], [ 137.250625971, 35.799166225 ], [ 137.250313471, 35.799166225 ], [ 137.250313471, 35.799374555 ], [ 137.250000972, 35.799374555 ], [ 137.249688472, 35.799374555 ], [ 137.249688472, 35.799582885 ], [ 137.249375972, 35.799582885 ], [ 137.249063472, 35.799582885 ], [ 137.248750973, 35.799582885 ], [ 137.248750973, 35.799791225 ], [ 137.248438473, 35.799791225 ], [ 137.248125973, 35.799791225 ], [ 137.248125973, 35.799999555 ], [ 137.247813474, 35.799999555 ], [ 137.247500974, 35.799999555 ], [ 137.247500974, 35.800207885 ], [ 137.247188474, 35.800207885 ], [ 137.246875974, 35.800207885 ], [ 137.246563475, 35.800207885 ], [ 137.246250975, 35.800207885 ], [ 137.246250975, 35.800416225 ], [ 137.245938475, 35.800416225 ], [ 137.245625975, 35.800416224 ], [ 137.245625975, 35.800624554 ], [ 137.245313476, 35.800624554 ], [ 137.245313476, 35.800832884 ], [ 137.245000976, 35.800832884 ], [ 137.244688476, 35.800832884 ], [ 137.244688476, 35.801041224 ], [ 137.244375976, 35.801041224 ], [ 137.244375977, 35.801249554 ], [ 137.244063477, 35.801249554 ], [ 137.244063477, 35.801457884 ], [ 137.244063477, 35.801666224 ], [ 137.243750977, 35.801666224 ], [ 137.243750977, 35.801874554 ], [ 137.243750977, 35.802082884 ], [ 137.243438478, 35.802082884 ], [ 137.243438478, 35.802291224 ], [ 137.243438478, 35.802499554 ], [ 137.243438478, 35.802707884 ], [ 137.243438478, 35.802916224 ], [ 137.243125978, 35.802916224 ], [ 137.243125978, 35.803124554 ], [ 137.243125979, 35.803332884 ], [ 137.243125979, 35.803541223 ], [ 137.243125979, 35.803749553 ], [ 137.243125979, 35.803957883 ], [ 137.243125979, 35.804166223 ], [ 137.243125979, 35.804374553 ], [ 137.243125979, 35.804582883 ], [ 137.243125979, 35.804791223 ], [ 137.243125979, 35.804999553 ], [ 137.243125979, 35.805207883 ], [ 137.24312598, 35.805416223 ], [ 137.24312598, 35.805624553 ], [ 137.243438479, 35.805624553 ], [ 137.243750979, 35.805624553 ], [ 137.243750979, 35.805416223 ], [ 137.244063479, 35.805416223 ], [ 137.244063479, 35.805624553 ], [ 137.244375979, 35.805624553 ], [ 137.244688478, 35.805624553 ] ] ] } },
{ "type": "Feature", "properties": { "A31a_401": "8505090255", "A31a_402": "飛騨川", "A31a_403": "21", "A31a_404": "岐阜県", "A31a_405": 1 }, "geometry": { "type": "Polygon", "coordinates": [ [ [ 137.239063485, 35.808957883 ], [ 137.239063485, 35.808749553 ], [ 137.239375985, 35.808749553 ], [ 137.239375985, 35.808541223 ], [ 137.239688484, 35.808541223 ], [ 137.239688484, 35.808332883 ], [ 137.240000984, 35.808332883 ], [ 137.240000984, 35.808124553 ], [ 137.240000984, 35.807916223 ], [ 137.240313483, 35.807916223 ], [ 137.240313483, 35.807707883 ], [ 137.240313483, 35.807499553 ], [ 137.240625983, 35.807499553 ], [ 137.240625983, 35.807291223 ], [ 137.240625983, 35.807082883 ], [ 137.240938482, 35.807082883 ], [ 137.240938482, 35.806874553 ], [ 137.240938482, 35.806666223 ], [ 137.241250982, 35.806666223 ], [ 137.241250982, 35.806457883 ], [ 137.241250982, 35.806249553 ], [ 137.241563481, 35.806249553 ], [ 137.241563481, 35.806041223 ], [ 137.241563481, 35.805832883 ], [ 137.241875981, 35.805832883 ], [ 137.241875981, 35.805624553 ], [ 137.241875981, 35.805416223 ], [ 137.241875981, 35.805207883 ], [ 137.24187598, 35.804999553 ], [ 137.24187598, 35.804791223 ], [ 137.24218848, 35.804791223 ], [ 137.24218848, 35.804582883 ], [ 137.24218848, 35.804374553 ], [ 137.24218848, 35.804166223 ], [ 137.24218848, 35.803957883 ], [ 137.242188479, 35.803749553 ], [ 137.242188479, 35.803541223 ], [ 137.242188479, 35.803332883 ], [ 137.242188479, 35.803124553 ], [ 137.242188479, 35.802916223 ], [ 137.242500979, 35.802916224 ], [ 137.242500979, 35.802707884 ], [ 137.242500979, 35.802499554 ], [ 137.242500978, 35.802291224 ], [ 137.242188479, 35.802291224 ], [ 137.242188479, 35.802499554 ], [ 137.241875979, 35.802499553 ], [ 137.241875979, 35.802707883 ], [ 137.241875979, 35.802916223 ], [ 137.241563479, 35.802916223 ], [ 137.24156348, 35.803124553 ], [ 137.24156348, 35.803332883 ], [ 137.24125098, 35.803332883 ], [ 137.24125098, 35.803541223 ], [ 137.24093848, 35.803541223 ], [ 137.24093848, 35.803749553 ], [ 137.240625981, 35.803749553 ], [ 137.240625981, 35.803957883 ], [ 137.240625981, 35.804166223 ], [ 137.240313481, 35.804166223 ], [ 137.240313481, 35.804374553 ], [ 137.240000982, 35.804374553 ], [ 137.240000982, 35.804582883 ], [ 137.240000982, 35.804791223 ], [ 137.239688482, 35.804791223 ], [ 137.239688482, 35.804999553 ], [ 137.239375982, 35.804999553 ], [ 137.239375983, 35.805207883 ], [ 137.239375983, 35.805416223 ], [ 137.239063483, 35.805416223 ], [ 137.239063483, 35.805624553 ], [ 137.238750983, 35.805624553 ], [ 137.238750983, 35.805832883 ], [ 137.238750984, 35.806041223 ], [ 137.238438484, 35.806041223 ], [ 137.238438484, 35.806249553 ], [ 137.238438484, 35.806457883 ], [ 137.238438484, 35.806666223 ], [ 137.238125984, 35.806666223 ], [ 137.238125985, 35.806874553 ], [ 137.238125985, 35.807082883 ], [ 137.237813485, 35.807082883 ], [ 137.237813485, 35.807291223 ], [ 137.237813485, 35.807499553 ], [ 137.237500986, 35.807499553 ], [ 137.237500986, 35.807707883 ], [ 137.237500986, 35.807916223 ], [ 137.237500986, 35.808124553 ], [ 137.237188486, 35.808124553 ], [ 137.237188486, 35.808332883 ], [ 137.236875987, 35.808332883 ], [ 137.236875987, 35.808124553 ], [ 137.236563487, 35.808124553 ], [ 137.236250987, 35.808124553 ], [ 137.236250987, 35.808332883 ], [ 137.236250987, 35.808541223 ], [ 137.235938488, 35.808541223 ], [ 137.235938488, 35.808749553 ], [ 137.236250987, 35.808749553 ], [ 137.236250987, 35.808957883 ], [ 137.236250988, 35.809166223 ], [ 137.235938488, 35.809166223 ], [ 137.235938488, 35.809374552 ], [ 137.235625988, 35.809374552 ], [ 137.235625988, 35.809582882 ], [ 137.235625988, 35.809791222 ], [ 137.235625988, 35.809999552 ], [ 137.235625988, 35.810207882 ], [ 137.235313489, 35.810207882 ], [ 137.235313489, 35.810416222 ], [ 137.235313489, 35.810624552 ], [ 137.235625989, 35.810624552 ], [ 137.235938488, 35.810624552 ], [ 137.235938488, 35.810416222 ], [ 137.236250988, 35.810416222 ], [ 137.236250988, 35.810207882 ], [ 137.236563488, 35.810207882 ], [ 137.236563488, 35.809999552 ], [ 137.236875987, 35.809999552 ], [ 137.237188487, 35.809999552 ], [ 137.237188487, 35.809791222 ], [ 137.237500987, 35.809791222 ], [ 137.237500987, 35.809582882 ], [ 137.237813486, 35.809582882 ], [ 137.238125986, 35.809582882 ], [ 137.238125986, 35.809374552 ], [ 137.238438486, 35.809374552 ], [ 137.238438486, 35.809166222 ], [ 137.238750985, 35.809166222 ], [ 137.238750985, 35.808957883 ], [ 137.239063485, 35.808957883 ] ] ] } },
{ "type": "Feature", "properties": { "A31a_401": "8505090255", "A31a_402": "飛騨川", "A31a_403": "21", "A31a_404": "岐阜県", "A31a_405": 1 }, "geometry": { "type": "Polygon", "coordinates": [ [ [ 137.23562599, 35.814999551 ], [ 137.23562599, 35.814791221 ], [ 137.23593849, 35.814791221 ], [ 137.23593849, 35.814582881 ], [ 137.23593849, 35.814374551 ], [ 137.23593849, 35.814166221 ], [ 137.236250989, 35.814166221 ], [ 137.236250989, 35.813957881 ], [ 137.236250989, 35.813749551 ], [ 137.236563489, 35.813749551 ], [ 137.236563489, 35.813541221 ], [ 137.236563489, 35.813332881 ], [ 137.236563489, 35.813124551 ], [ 137.236563489, 35.812916221 ], [ 137.236875988, 35.812916221 ], [ 137.236875988, 35.812707881 ], [ 137.236875988, 35.812499551 ], [ 137.236875988, 35.812291222 ], [ 137.236875988, 35.812082882 ], [ 137.236875988, 35.811874552 ], [ 137.236875988, 35.811666222 ], [ 137.237188488, 35.811666222 ], [ 137.237188487, 35.811457882 ], [ 137.237188487, 35.811249552 ], [ 137.236875988, 35.811249552 ], [ 137.236563488, 35.811249552 ], [ 137.236250988, 35.811249552 ], [ 137.236250988, 35.811457882 ], [ 137.235938489, 35.811457882 ], [ 137.235625989, 35.811457882 ], [ 137.235625989, 35.811666222 ], [ 137.235313489, 35.811666222 ], [ 137.235313489, 35.811874552 ], [ 137.23500099, 35.811874552 ], [ 137.23500099, 35.812082882 ], [ 137.23468849, 35.812082882 ], [ 137.23468849, 35.812291222 ], [ 137.234375991, 35.812291222 ], [ 137.234375991, 35.812499552 ], [ 137.234375991, 35.812707882 ], [ 137.234375991, 35.812916222 ], [ 137.234375991, 35.813124552 ], [ 137.234375991, 35.813332882 ], [ 137.234375991, 35.813541221 ], [ 137.234375991, 35.813749551 ], [ 137.234375991, 35.813957881 ], [ 137.234375991, 35.814166221 ], [ 137.234688491, 35.814166221 ], [ 137.234688491, 35.814374551 ], [ 137.234688491, 35.814582881 ], [ 137.235000991, 35.814582881 ], [ 137.235000991, 35.814791221 ], [ 137.235313491, 35.814791221 ], [ 137.235313491, 35.814999551 ], [ 137.235313491, 35.815207881 ], [ 137.23562599, 35.815207881 ], [ 137.23562599, 35.814999551 ] ] ] } },
{ "type": "Feature", "properties": { "A31a_401": "8505090255", "A31a_402": "飛騨川", "A31a_403": "21", "A31a_404": "岐阜県", "A31a_405": 1 }, "geometry": { "type": "Polygon", "coordinates": [ [ [ 137.23875099, 35.820832878 ], [ 137.23875099, 35.820624548 ], [ 137.23843849, 35.820624548 ], [ 137.23843849, 35.820416219 ], [ 137.23843849, 35.820207879 ], [ 137.23812599, 35.820207879 ], [ 137.23812599, 35.819999549 ], [ 137.23812599, 35.819791219 ], [ 137.23812599, 35.819582879 ], [ 137.23812599, 35.819374549 ], [ 137.23812599, 35.819166219 ], [ 137.23781349, 35.819166219 ], [ 137.23781349, 35.818957879 ], [ 137.23750099, 35.818957879 ], [ 137.23750099, 35.818749549 ], [ 137.23750099, 35.818541219 ], [ 137.23718849, 35.818541219 ], [ 137.236875991, 35.81854122 ], [ 137.236875991, 35.818749549 ], [ 137.236875991, 35.818957879 ], [ 137.236875991, 35.819166219 ], [ 137.236875991, 35.819374549 ], [ 137.236875992, 35.819582879 ], [ 137.236875992, 35.819791219 ], [ 137.236875992, 35.819999549 ], [ 137.236875992, 35.820207879 ], [ 137.236875992, 35.820416219 ], [ 137.236563492, 35.820416219 ], [ 137.236563493, 35.820624549 ], [ 137.236563493, 35.820832879 ], [ 137.236563493, 35.821041219 ], [ 137.236563493, 35.821249549 ], [ 137.236250993, 35.821249549 ], [ 137.236250993, 35.821457879 ], [ 137.236250994, 35.821666219 ], [ 137.236250994, 35.821874549 ], [ 137.235938494, 35.821874549 ], [ 137.235938494, 35.822082879 ], [ 137.235938494, 35.822291218 ], [ 137.235625995, 35.822291219 ], [ 137.235625995, 35.822499548 ], [ 137.235625995, 35.822707878 ], [ 137.235313495, 35.822707878 ], [ 137.235313495, 35.822916218 ], [ 137.235313496, 35.823124548 ], [ 137.235313496, 35.823332878 ], [ 137.235000996, 35.823332878 ], [ 137.235000996, 35.823541218 ], [ 137.235000996, 35.823749548 ], [ 137.234688497, 35.823749548 ], [ 137.234688497, 35.823957878 ], [ 137.234688497, 35.824166218 ], [ 137.234375997, 35.824166218 ], [ 137.234375998, 35.824374548 ], [ 137.234375998, 35.824582878 ], [ 137.234375998, 35.824791218 ], [ 137.234063498, 35.824791218 ], [ 137.234063498, 35.824999548 ], [ 137.234063498, 35.825207878 ], [ 137.233750999, 35.825207878 ], [ 137.233750999, 35.825416218 ], [ 137.233750999, 35.825624548 ], [ 137.233438499, 35.825624548 ], [ 137.233438499, 35.825832878 ], [ 137.233438499, 35.826041218 ], [ 137.233126, 35.826041218 ], [ 137.233126, 35.826249548 ], [ 137.233126, 35.826457877 ], [ 137.233126, 35.826666217 ], [ 137.2328135, 35.826666217 ], [ 137.232813501, 35.826874547 ], [ 137.232813501, 35.827082877 ], [ 137.232813501, 35.827291217 ], [ 137.232501001, 35.827291217 ], [ 137.232501001, 35.827499547 ], [ 137.232501001, 35.827707877 ], [ 137.232501001, 35.827916217 ], [ 137.232501001, 35.828124547 ], [ 137.232501002, 35.828332877 ], [ 137.232813501, 35.828332876 ], [ 137.232813501, 35.828124547 ], [ 137.233126001, 35.828124546 ], [ 137.233126001, 35.827916217 ], [ 137.2334385, 35.827916216 ], [ 137.2334385, 35.827707877 ], [ 137.2334385, 35.827499547 ], [ 137.233751, 35.827499547 ], [ 137.233751, 35.827291217 ], [ 137.234063499, 35.827291217 ], [ 137.234063499, 35.827082877 ], [ 137.234063499, 35.826874547 ], [ 137.234375999, 35.826874547 ], [ 137.234375999, 35.826666217 ], [ 137.234688498, 35.826666217 ], [ 137.234688498, 35.826457877 ], [ 137.234688498, 35.826249547 ], [ 137.235000998, 35.826249547 ], [ 137.235000998, 35.826041217 ], [ 137.235313497, 35.826041217 ], [ 137.235313497, 35.825832877 ], [ 137.235625997, 35.825832877 ], [ 137.235625997, 35.825624547 ], [ 137.235625997, 35.825416217 ], [ 137.235938496, 35.825416217 ], [ 137.235938496, 35.825207877 ], [ 137.236250996, 35.825207877 ], [ 137.236250996, 35.824999548 ], [ 137.236563495, 35.824999547 ], [ 137.236563495, 35.824791218 ], [ 137.236875995, 35.824791217 ], [ 137.236875995, 35.824582878 ], [ 137.237188495, 35.824582877 ], [ 137.237188494, 35.824374548 ], [ 137.237500994, 35.824374547 ], [ 137.237500994, 35.824166218 ], [ 137.237813493, 35.824166217 ], [ 137.237813493, 35.823957878 ], [ 137.238125993, 35.823957877 ], [ 137.238125993, 35.823749548 ], [ 137.238438492, 35.823749547 ], [ 137.238438492, 35.823541218 ], [ 137.238438492, 35.823332878 ], [ 137.238438492, 35.823124548 ], [ 137.238438492, 35.822916218 ], [ 137.238438492, 35.822707878 ], [ 137.238438492, 35.822499548 ], [ 137.238750991, 35.822499548 ], [ 137.238750991, 35.822291218 ], [ 137.238750991, 35.822082878 ], [ 137.238750991, 35.821874548 ], [ 137.238750991, 35.821666218 ], [ 137.238750991, 35.821457878 ], [ 137.23875099, 35.821249548 ], [ 137.23875099, 35.821041218 ], [ 137.23875099, 35.820832878 ] ] ] } },
{ "type": "Feature", "properties": { "A31a_401": "8505090255", "A31a_402": "飛騨川", "A31a_403": "21", "A31a_404": "岐阜県", "A31a_405": 1 }, "geometry": { "type": "Polygon", "coordinates": [ [ [ 137.232501004, 35.834166213 ], [ 137.232501004, 35.833957873 ], [ 137.232501004, 35.833749544 ], [ 137.232813504, 35.833749543 ], [ 137.232813504, 35.833541214 ], [ 137.232813503, 35.833332874 ], [ 137.233126003, 35.833332874 ], [ 137.233438503, 35.833332873 ], [ 137.233751002, 35.833332873 ], [ 137.233751002, 35.833124543 ], [ 137.233751002, 35.832916214 ], [ 137.233751002, 35.832707874 ], [ 137.234063502, 35.832707874 ], [ 137.234063501, 35.832499544 ], [ 137.234063501, 35.832291214 ], [ 137.234376001, 35.832291214 ], [ 137.234376001, 35.832082874 ], [ 137.234376001, 35.831874544 ], [ 137.234376001, 35.831666214 ], [ 137.2346885, 35.831666214 ], [ 137.2346885, 35.831457874 ], [ 137.2346885, 35.831249544 ], [ 137.2346885, 35.831041214 ], [ 137.235001, 35.831041214 ], [ 137.235001, 35.830832874 ], [ 137.235000999, 35.830624544 ], [ 137.2346885, 35.830624545 ], [ 137.2346885, 35.830416215 ], [ 137.2346885, 35.830207875 ], [ 137.2346885, 35.829999545 ], [ 137.2346885, 35.829791215 ], [ 137.234688499, 35.829582875 ], [ 137.234688499, 35.829374545 ], [ 137.234688499, 35.829166215 ], [ 137.234688499, 35.828957876 ], [ 137.234688499, 35.828749546 ], [ 137.235000999, 35.828749546 ], [ 137.235000999, 35.828541216 ], [ 137.235313498, 35.828541216 ], [ 137.235313498, 35.828332876 ], [ 137.235313498, 35.828124546 ], [ 137.235313498, 35.827916216 ], [ 137.235625998, 35.827916216 ], [ 137.235625998, 35.827707876 ], [ 137.235625997, 35.827499546 ], [ 137.235313498, 35.827499546 ], [ 137.235000998, 35.827499546 ], [ 137.235000998, 35.827707876 ], [ 137.234688499, 35.827707876 ], [ 137.234688499, 35.827916216 ], [ 137.234688499, 35.828124546 ], [ 137.234375999, 35.828124546 ], [ 137.234375999, 35.828332876 ], [ 137.234375999, 35.828541216 ], [ 137.2340635, 35.828541216 ], [ 137.2340635, 35.828749546 ], [ 137.233751, 35.828749546 ], [ 137.233751, 35.828957876 ], [ 137.233438501, 35.828957876 ], [ 137.233438501, 35.829166216 ], [ 137.233126001, 35.829166216 ], [ 137.232813502, 35.829166216 ], [ 137.232813502, 35.829374546 ], [ 137.232813502, 35.829582876 ], [ 137.232501002, 35.829582876 ], [ 137.232501002, 35.829791216 ], [ 137.232188503, 35.829791216 ], [ 137.232188503, 35.829999546 ], [ 137.231876003, 35.829999546 ], [ 137.231876003, 35.830207876 ], [ 137.231876003, 35.830416216 ], [ 137.231563504, 35.830416216 ], [ 137.231563504, 35.830624546 ], [ 137.231563504, 35.830832876 ], [ 137.231563504, 35.831041215 ], [ 137.231563504, 35.831249545 ], [ 137.231563504, 35.831457875 ], [ 137.231563504, 35.831666215 ], [ 137.231563504, 35.831874545 ], [ 137.231563505, 35.832082875 ], [ 137.231563505, 35.832291215 ], [ 137.231563505, 35.832499545 ], [ 137.231563505, 35.832707875 ], [ 137.231563505, 35.832916215 ], [ 137.231563505, 35.833124544 ], [ 137.231563505, 35.833332874 ], [ 137.231563505, 35.833541214 ], [ 137.231563505, 35.833749544 ], [ 137.231563505, 35.833957874 ], [ 137.231876005, 35.833957874 ], [ 137.231876005, 35.834166214 ], [ 137.232188505, 35.834166213 ], [ 137.232501004, 35.834166213 ] ] ] } },
{ "type": "Feature", "properties": { "A31a_401": "8505090255", "A31a_402": "飛騨川", "A31a_403": "21", "A31a_404": "岐阜県", "A31a_405": 1 }, "geometry": { "type": "Polygon", "coordinates": [ [ [ 137.231251007, 35.836666212 ], [ 137.231251007, 35.836457872 ], [ 137.230938508, 35.836457873 ], [ 137.230938507, 35.836249543 ], [ 137.230938507, 35.836041213 ], [ 137.230626008, 35.836041213 ], [ 137.230626008, 35.835832873 ], [ 137.230626008, 35.835624543 ], [ 137.230313508, 35.835624543 ], [ 137.230313508, 35.835416213 ], [ 137.230313508, 35.835207874 ], [ 137.230001008, 35.835207874 ], [ 137.230001008, 35.835416214 ], [ 137.229688509, 35.835416214 ], [ 137.229688509, 35.835624544 ], [ 137.229376009, 35.835624544 ], [ 137.229376009, 35.835832874 ], [ 137.22937601, 35.836041213 ], [ 137.22906351, 35.836041214 ], [ 137.22906351, 35.836249543 ], [ 137.22906351, 35.836457873 ], [ 137.22906351, 35.836666213 ], [ 137.22906351, 35.836874543 ], [ 137.229063511, 35.837082873 ], [ 137.229063511, 35.837291213 ], [ 137.229063511, 35.837499543 ], [ 137.229063511, 35.837707873 ], [ 137.229063511, 35.837916212 ], [ 137.229063511, 35.838124542 ], [ 137.229063511, 35.838332872 ], [ 137.229063511, 35.838541212 ], [ 137.229063511, 35.838749542 ], [ 137.228751012, 35.838749542 ], [ 137.228751012, 35.838957872 ], [ 137.228751012, 35.839166212 ], [ 137.228438513, 35.839166212 ], [ 137.228438513, 35.839374542 ], [ 137.228438513, 35.839582872 ], [ 137.228438513, 35.839791211 ], [ 137.228126013, 35.839791212 ], [ 137.228126014, 35.839999541 ], [ 137.228126014, 35.840207871 ], [ 137.227813514, 35.840207871 ], [ 137.227813514, 35.840416211 ], [ 137.227813514, 35.840624541 ], [ 137.227813515, 35.840832871 ], [ 137.227813515, 35.841041211 ], [ 137.227813515, 35.841249541 ], [ 137.227813515, 35.841457871 ], [ 137.227813515, 35.84166621 ], [ 137.227813515, 35.84187454 ], [ 137.227813515, 35.84208287 ], [ 137.227813515, 35.84229121 ], [ 137.228126015, 35.84229121 ], [ 137.228438514, 35.84229121 ], [ 137.228438514, 35.84208287 ], [ 137.228438514, 35.84187454 ], [ 137.228751014, 35.84187454 ], [ 137.228751014, 35.84166621 ], [ 137.229063513, 35.84166621 ], [ 137.229376013, 35.84166621 ], [ 137.229376013, 35.84145787 ], [ 137.229376012, 35.84124954 ], [ 137.229688512, 35.84124954 ], [ 137.229688512, 35.84104121 ], [ 137.230001011, 35.84104121 ], [ 137.230001011, 35.84083287 ], [ 137.230001011, 35.84062454 ], [ 137.230313511, 35.84062454 ], [ 137.230313511, 35.84041621 ], [ 137.23031351, 35.84020787 ], [ 137.23062601, 35.84020787 ], [ 137.23062601, 35.83999954 ], [ 137.23062601, 35.83979121 ], [ 137.230938509, 35.83979121 ], [ 137.230938509, 35.83958287 ], [ 137.230938509, 35.839374541 ], [ 137.230938509, 35.839166211 ], [ 137.230938509, 35.838957871 ], [ 137.231251008, 35.838957871 ], [ 137.231251008, 35.838749541 ], [ 137.231251008, 35.838541211 ], [ 137.231251008, 35.838332871 ], [ 137.231251008, 35.838124541 ], [ 137.231251008, 35.837916211 ], [ 137.231251008, 35.837707872 ], [ 137.231251008, 35.837499542 ], [ 137.231251008, 35.837291212 ], [ 137.231251007, 35.837082872 ], [ 137.231251007, 35.836874542 ], [ 137.231251007, 35.836666212 ] ] ] } },
{ "type": "Feature", "properties": { "A31a_401": "8505090255", "A31a_402": "飛騨川", "A31a_403": "21", "A31a_404": "岐阜県", "A31a_405": 1 }, "geometry": { "type": "Polygon", "coordinates": [ [ [ 137.22343853, 35.853541202 ], [ 137.22343853, 35.853332862 ], [ 137.22343853, 35.853124532 ], [ 137.223438529, 35.852916202 ], [ 137.223751029, 35.852916202 ], [ 137.223751029, 35.852707862 ], [ 137.223751029, 35.852499532 ], [ 137.223751028, 35.852291202 ], [ 137.223751028, 35.852082862 ], [ 137.224063528, 35.852082862 ], [ 137.224063528, 35.851874532 ], [ 137.224063528, 35.851666203 ], [ 137.224063527, 35.851457863 ], [ 137.224063527, 35.851249533 ], [ 137.224376027, 35.851249533 ], [ 137.224376027, 35.851041203 ], [ 137.224376027, 35.850832863 ], [ 137.224376026, 35.850624533 ], [ 137.224688526, 35.850624533 ], [ 137.224688526, 35.850416203 ], [ 137.224688526, 35.850207863 ], [ 137.224688525, 35.849999533 ], [ 137.224688525, 35.849791204 ], [ 137.224688525, 35.849582864 ], [ 137.224688525, 35.849374534 ], [ 137.224688525, 35.849166204 ], [ 137.225001024, 35.849166204 ], [ 137.225001024, 35.848957864 ], [ 137.225001024, 35.848749535 ], [ 137.225001024, 35.848541205 ], [ 137.225313523, 35.848541205 ], [ 137.225313523, 35.848332865 ], [ 137.225313523, 35.848124535 ], [ 137.225626023, 35.848124535 ], [ 137.225626023, 35.847916205 ], [ 137.225626022, 35.847707865 ], [ 137.225938522, 35.847707865 ], [ 137.226251021, 35.847707865 ], [ 137.226251021, 35.847499535 ], [ 137.226563521, 35.847499535 ], [ 137.226563521, 35.847291206 ], [ 137.22687602, 35.847291205 ], [ 137.22687602, 35.847082866 ], [ 137.22687602, 35.846874536 ], [ 137.227188519, 35.846874536 ], [ 137.227188519, 35.846666206 ], [ 137.227188519, 35.846457866 ], [ 137.227501018, 35.846457866 ], [ 137.227501018, 35.846249536 ], [ 137.227501018, 35.846041206 ], [ 137.227813518, 35.846041206 ], [ 137.227813518, 35.845832867 ], [ 137.228126017, 35.845832866 ], [ 137.228126017, 35.845624537 ], [ 137.228438516, 35.845624537 ], [ 137.228751016, 35.845624536 ], [ 137.228751016, 35.845416207 ], [ 137.229063515, 35.845416207 ], [ 137.229063515, 35.845207867 ], [ 137.229063515, 35.844999537 ], [ 137.229376014, 35.844999537 ], [ 137.229376014, 35.844791207 ], [ 137.229376014, 35.844582867 ], [ 137.229688514, 35.844582867 ], [ 137.229688514, 35.844374537 ], [ 137.229688514, 35.844166207 ], [ 137.229688513, 35.843957868 ], [ 137.229688513, 35.843749538 ], [ 137.229688513, 35.843541208 ], [ 137.229688513, 35.843332868 ], [ 137.230001013, 35.843332868 ], [ 137.230313512, 35.843332868 ], [ 137.230313512, 35.843124538 ], [ 137.230626011, 35.843124538 ], [ 137.230626011, 35.842916208 ], [ 137.230626011, 35.842707868 ], [ 137.230626011, 35.842499538 ], [ 137.230938511, 35.842499538 ], [ 137.230938511, 35.842291209 ], [ 137.23093851, 35.842082869 ], [ 137.230626011, 35.842082869 ], [ 137.230626011, 35.841874539 ], [ 137.230313511, 35.841874539 ], [ 137.230001012, 35.841874539 ], [ 137.230001012, 35.842082869 ], [ 137.229688512, 35.842082869 ], [ 137.229688512, 35.842291209 ], [ 137.229376013, 35.842291209 ], [ 137.229376013, 35.842499539 ], [ 137.229063514, 35.842499539 ], [ 137.229063514, 35.842707869 ], [ 137.229063514, 35.842916209 ], [ 137.228751014, 35.842916209 ], [ 137.228751014, 35.843124539 ], [ 137.228438515, 35.843124539 ], [ 137.228438515, 35.843332869 ], [ 137.228438515, 35.843541208 ], [ 137.228126016, 35.843541209 ], [ 137.228126016, 35.843749538 ], [ 137.227813516, 35.843749538 ], [ 137.227813516, 35.843957868 ], [ 137.227501017, 35.843957868 ], [ 137.227501017, 35.844166208 ], [ 137.227501017, 35.844374538 ], [ 137.227188518, 35.844374538 ], [ 137.227188518, 35.844582868 ], [ 137.226876018, 35.844582868 ], [ 137.226876018, 35.844791208 ], [ 137.226876019, 35.844999538 ], [ 137.226563519, 35.844999538 ], [ 137.226563519, 35.845207868 ], [ 137.22625102, 35.845207868 ], [ 137.22625102, 35.845416207 ], [ 137.22593852, 35.845416208 ], [ 137.225938521, 35.845624537 ], [ 137.225938521, 35.845832867 ], [ 137.225626021, 35.845832867 ], [ 137.225626021, 35.846041207 ], [ 137.225313522, 35.846041207 ], [ 137.225313522, 35.846249537 ], [ 137.225313522, 35.846457867 ], [ 137.225001023, 35.846457867 ], [ 137.225001023, 35.846666207 ], [ 137.224688523, 35.846666207 ], [ 137.224688523, 35.846874537 ], [ 137.224688524, 35.847082866 ], [ 137.224688524, 35.847291206 ], [ 137.224688524, 35.847499536 ], [ 137.224376024, 35.847499536 ], [ 137.224376024, 35.847707866 ], [ 137.224376025, 35.847916206 ], [ 137.224376025, 35.848124535 ], [ 137.224063525, 35.848124536 ], [ 137.224063525, 35.848332865 ], [ 137.224063525, 35.848541205 ], [ 137.224063526, 35.848749535 ], [ 137.224063526, 35.848957865 ], [ 137.223751026, 35.848957865 ], [ 137.223751026, 35.849166205 ], [ 137.223751027, 35.849374534 ], [ 137.223751027, 35.849582864 ], [ 137.223438527, 35.849582864 ], [ 137.223438527, 35.849791204 ], [ 137.223438527, 35.849999534 ], [ 137.223438528, 35.850207864 ], [ 137.223438528, 35.850416204 ], [ 137.223126028, 35.850416204 ], [ 137.223126028, 35.850624534 ], [ 137.223126028, 35.850832864 ], [ 137.223126029, 35.851041203 ], [ 137.222813529, 35.851041204 ], [ 137.222813529, 35.851249533 ], [ 137.222813529, 35.851457863 ], [ 137.22281353, 35.851666203 ], [ 137.22281353, 35.851874533 ], [ 137.22250103, 35.851874533 ], [ 137.22250103, 35.852082863 ], [ 137.22250103, 35.852291203 ], [ 137.222501031, 35.852499533 ], [ 137.222501031, 35.852707862 ], [ 137.222501031, 35.852916202 ], [ 137.222501031, 35.853124532 ], [ 137.222501031, 35.853332862 ], [ 137.222813531, 35.853332862 ], [ 137.222813531, 35.853541202 ], [ 137.222813531, 35.853749532 ], [ 137.222813531, 35.853957861 ], [ 137.222813531, 35.854166201 ], [ 137.222813531, 35.854374531 ], [ 137.223126031, 35.854374531 ], [ 137.22343853, 35.854374531 ], [ 137.22343853, 35.854166201 ], [ 137.22343853, 35.853957861 ], [ 137.22343853, 35.853749531 ], [ 137.22343853, 35.853541202 ] ] ] } },
{ "type": "Feature", "properties": { "A31a_401": "8505090255", "A31a_402": "飛騨川", "A31a_403": "21", "A31a_404": "岐阜県", "A31a_405": 1 }, "geometry": { "type": "Polygon", "coordinates": [ [ [ 137.220626038, 35.858957858 ], [ 137.220626038, 35.858749528 ], [ 137.220626038, 35.858541199 ], [ 137.220626037, 35.858332859 ], [ 137.220938537, 35.858332859 ], [ 137.220938537, 35.858124529 ], [ 137.220938537, 35.857916199 ], [ 137.220938536, 35.857707859 ], [ 137.220938536, 35.857499529 ], [ 137.221251036, 35.857499529 ], [ 137.221251036, 35.857291199 ], [ 137.221251036, 35.85708286 ], [ 137.221563535, 35.857082859 ], [ 137.221563535, 35.85687453 ], [ 137.221563535, 35.8566662 ], [ 137.221563535, 35.85645786 ], [ 137.221876034, 35.85645786 ], [ 137.221876034, 35.85624953 ], [ 137.221876034, 35.8560412 ], [ 137.221876034, 35.85583286 ], [ 137.221876034, 35.855624531 ], [ 137.221876033, 35.855416201 ], [ 137.221876033, 35.855207861 ], [ 137.222188533, 35.855207861 ], [ 137.222188533, 35.854999531 ], [ 137.221876033, 35.854999531 ], [ 137.221876033, 35.854791201 ], [ 137.221876033, 35.854582861 ], [ 137.221876033, 35.854374531 ], [ 137.221876033, 35.854166202 ], [ 137.221563533, 35.854166202 ], [ 137.221563533, 35.853957862 ], [ 137.221563533, 35.853749532 ], [ 137.221251033, 35.853749532 ], [ 137.221251033, 35.853541202 ], [ 137.221251033, 35.853332862 ], [ 137.221251033, 35.853124533 ], [ 137.221251033, 35.852916203 ], [ 137.221251033, 35.852707863 ], [ 137.221251033, 35.852499533 ], [ 137.221251032, 35.852291203 ], [ 137.221251032, 35.852082863 ], [ 137.221251032, 35.851874534 ], [ 137.221251032, 35.851666204 ], [ 137.221251032, 35.851457864 ], [ 137.221251032, 35.851249534 ], [ 137.221563531, 35.851249534 ], [ 137.221563531, 35.851041204 ], [ 137.221563531, 35.850832864 ], [ 137.221563531, 35.850624534 ], [ 137.221563531, 35.850416205 ], [ 137.221251031, 35.850416205 ], [ 137.221251031, 35.850624535 ], [ 137.220938532, 35.850624535 ], [ 137.220938532, 35.850832864 ], [ 137.220626032, 35.850832865 ], [ 137.220626033, 35.851041204 ], [ 137.220626033, 35.851249534 ], [ 137.220313533, 35.851249534 ], [ 137.220313533, 35.851457864 ], [ 137.220001034, 35.851457864 ], [ 137.220001034, 35.851666204 ], [ 137.219688534, 35.851666204 ], [ 137.219688535, 35.851874534 ], [ 137.219688535, 35.852082864 ], [ 137.219376035, 35.852082864 ], [ 137.219376035, 35.852291204 ], [ 137.219376035, 35.852499534 ], [ 137.219063536, 35.852499534 ], [ 137.219063536, 35.852707864 ], [ 137.219063536, 35.852916204 ], [ 137.219063536, 35.853124533 ], [ 137.219063536, 35.853332863 ], [ 137.219063537, 35.853541203 ], [ 137.219376036, 35.853541203 ], [ 137.219376036, 35.853749533 ], [ 137.219688536, 35.853749533 ], [ 137.219688536, 35.853957862 ], [ 137.219688536, 35.854166202 ], [ 137.219688536, 35.854374532 ], [ 137.219688536, 35.854582862 ], [ 137.219376037, 35.854582862 ], [ 137.219376037, 35.854791202 ], [ 137.219376037, 35.854999532 ], [ 137.219376037, 35.855207862 ], [ 137.219376037, 35.855416201 ], [ 137.219376037, 35.855624531 ], [ 137.219376038, 35.855832861 ], [ 137.219376038, 35.856041201 ], [ 137.219376038, 35.856249531 ], [ 137.219376038, 35.856457861 ], [ 137.219376038, 35.8566662 ], [ 137.219376038, 35.85687453 ], [ 137.219063539, 35.85687453 ], [ 137.219063539, 35.85708286 ], [ 137.219063539, 35.8572912 ], [ 137.219063539, 35.85749953 ], [ 137.21875104, 35.85749953 ], [ 137.21875104, 35.85770786 ], [ 137.21875104, 35.8579162 ], [ 137.21875104, 35.858124529 ], [ 137.21875104, 35.858332859 ], [ 137.21875104, 35.858541199 ], [ 137.21906354, 35.858541199 ], [ 137.21906354, 35.858749529 ], [ 137.21937604, 35.858749529 ], [ 137.219688539, 35.858749529 ], [ 137.219688539, 35.858957858 ], [ 137.219688539, 35.859166198 ], [ 137.21968854, 35.859374528 ], [ 137.21968854, 35.859582858 ], [ 137.21968854, 35.859791197 ], [ 137.21937604, 35.859791198 ], [ 137.219376041, 35.859999527 ], [ 137.219376041, 35.860207857 ], [ 137.219376041, 35.860416197 ], [ 137.219376041, 35.860624527 ], [ 137.219063542, 35.860624527 ], [ 137.219063542, 35.860832857 ], [ 137.219063542, 35.861041196 ], [ 137.219063542, 35.861249526 ], [ 137.218751043, 35.861249526 ], [ 137.218751043, 35.861457856 ], [ 137.218751043, 35.861666196 ], [ 137.218438544, 35.861666196 ], [ 137.218438544, 35.861874526 ], [ 137.218438544, 35.862082855 ], [ 137.218126044, 35.862082856 ], [ 137.218126045, 35.862291195 ], [ 137.218126045, 35.862499525 ], [ 137.218126045, 35.862707855 ], [ 137.217813545, 35.862707855 ], [ 137.217813546, 35.862916195 ], [ 137.217813546, 35.863124525 ], [ 137.217501046, 35.863124525 ], [ 137.217501047, 35.863332854 ], [ 137.217501047, 35.863541194 ], [ 137.217188547, 35.863541194 ], [ 137.217188547, 35.863749524 ], [ 137.217188548, 35.863957854 ], [ 137.217501047, 35.863957854 ], [ 137.217501047, 35.863749524 ], [ 137.217813546, 35.863749524 ], [ 137.217813546, 35.863541194 ], [ 137.218126046, 35.863541194 ], [ 137.218126046, 35.863332854 ], [ 137.218438545, 35.863332854 ], [ 137.218438545, 35.863124524 ], [ 137.218751044, 35.863124524 ], [ 137.218751044, 35.862916195 ], [ 137.219063544, 35.862916195 ], [ 137.219063543, 35.862707855 ], [ 137.219376043, 35.862707855 ], [ 137.219376043, 35.862499525 ], [ 137.219376043, 35.862291195 ], [ 137.219688542, 35.862291195 ], [ 137.219688542, 35.862082855 ], [ 137.219688542, 35.861874525 ], [ 137.220001041, 35.861874525 ], [ 137.220001041, 35.861666196 ], [ 137.220001041, 35.861457856 ], [ 137.220001041, 35.861249526 ], [ 137.22000104, 35.861041196 ], [ 137.22031354, 35.861041196 ], [ 137.22031354, 35.860832856 ], [ 137.22031354, 35.860624527 ], [ 137.220313539, 35.860416197 ], [ 137.220313539, 35.860207857 ], [ 137.220313539, 35.859999527 ], [ 137.220313539, 35.859791197 ], [ 137.220313539, 35.859582858 ], [ 137.220313539, 35.859374528 ], [ 137.220313539, 35.859166198 ], [ 137.220313538, 35.858957858 ], [ 137.220626038, 35.858957858 ] ] ] } },
{ "type": "Feature", "properties": { "A31a_401": "8505090255", "A31a_402": "飛騨川", "A31a_403": "21", "A31a_404": "岐阜県", "A31a_405": 1 }, "geometry": { "type": "Polygon", "coordinates": [ [ [ 137.207188574, 35.873124516 ], [ 137.207188574, 35.872916186 ], [ 137.207501073, 35.872916186 ], [ 137.207501073, 35.872707846 ], [ 137.207813573, 35.872707846 ], [ 137.207813573, 35.872499516 ], [ 137.208126072, 35.872499516 ], [ 137.208126072, 35.872291187 ], [ 137.208126072, 35.872082847 ], [ 137.208438571, 35.872082847 ], [ 137.208438571, 35.871874517 ], [ 137.20875107, 35.871874517 ], [ 137.20875107, 35.871666187 ], [ 137.209063569, 35.871666187 ], [ 137.209063569, 35.871457847 ], [ 137.209063569, 35.871249518 ], [ 137.209376068, 35.871249518 ], [ 137.209376068, 35.871041188 ], [ 137.209376068, 35.870832848 ], [ 137.209688567, 35.870832848 ], [ 137.209688567, 35.870624518 ], [ 137.210001067, 35.870624518 ], [ 137.210001067, 35.870416188 ], [ 137.210001066, 35.870207849 ], [ 137.210313566, 35.870207849 ], [ 137.210313566, 35.869999519 ], [ 137.210313565, 35.869791189 ], [ 137.210626065, 35.869791189 ], [ 137.210626065, 35.869582849 ], [ 137.210626064, 35.86937452 ], [ 137.210626064, 35.86916619 ], [ 137.210938564, 35.86916619 ], [ 137.210938563, 35.86895785 ], [ 137.210938563, 35.86874952 ], [ 137.210938563, 35.86854119 ], [ 137.210938563, 35.868332851 ], [ 137.210938563, 35.868124521 ], [ 137.210938562, 35.867916191 ], [ 137.210938562, 35.867707851 ], [ 137.210938562, 35.867499521 ], [ 137.210938562, 35.867291192 ], [ 137.211251061, 35.867291192 ], [ 137.211251061, 35.867082852 ], [ 137.211251061, 35.866874522 ], [ 137.21156356, 35.866874522 ], [ 137.21156356, 35.866666192 ], [ 137.21156356, 35.866457852 ], [ 137.21156356, 35.866249523 ], [ 137.211563559, 35.866041193 ], [ 137.21125106, 35.866041193 ], [ 137.21093856, 35.866041193 ], [ 137.210626061, 35.866041193 ], [ 137.210626061, 35.866249523 ], [ 137.210626061, 35.866457852 ], [ 137.210313562, 35.866457852 ], [ 137.210313562, 35.866666192 ], [ 137.210001063, 35.866666192 ], [ 137.210001063, 35.866874522 ], [ 137.209688564, 35.866874522 ], [ 137.209688564, 35.867082852 ], [ 137.209688564, 35.867291192 ], [ 137.209376065, 35.867291192 ], [ 137.209376065, 35.867499521 ], [ 137.209063565, 35.867499521 ], [ 137.209063565, 35.867707851 ], [ 137.209063566, 35.867916191 ], [ 137.208751066, 35.867916191 ], [ 137.208751066, 35.868124521 ], [ 137.208751067, 35.868332851 ], [ 137.208438567, 35.868332851 ], [ 137.208438567, 35.86854119 ], [ 137.208438568, 35.86874952 ], [ 137.208126068, 35.86874952 ], [ 137.208126068, 35.86895785 ], [ 137.207813569, 35.86895785 ], [ 137.207813569, 35.86916619 ], [ 137.207813569, 35.86937452 ], [ 137.20750107, 35.86937452 ], [ 137.20750107, 35.869582849 ], [ 137.20750107, 35.869791189 ], [ 137.207188571, 35.869791189 ], [ 137.207188571, 35.869999519 ], [ 137.207188571, 35.870207849 ], [ 137.207188572, 35.870416188 ], [ 137.207188572, 35.870624518 ], [ 137.206876072, 35.870624518 ], [ 137.206876072, 35.870832848 ], [ 137.206876073, 35.871041188 ], [ 137.206876073, 35.871249518 ], [ 137.206563573, 35.871249518 ], [ 137.206563574, 35.871457847 ], [ 137.206563574, 35.871666187 ], [ 137.206563574, 35.871874517 ], [ 137.206563574, 35.872082847 ], [ 137.206251075, 35.872082847 ], [ 137.206251075, 35.872291187 ], [ 137.206251075, 35.872499516 ], [ 137.206251075, 35.872707846 ], [ 137.206251076, 35.872916186 ], [ 137.206251076, 35.873124516 ], [ 137.206563575, 35.873124516 ], [ 137.206563576, 35.873332846 ], [ 137.206876075, 35.873332846 ], [ 137.207188574, 35.873332846 ], [ 137.207188574, 35.873124516 ] ] ] } },
{ "type": "Feature", "properties": { "A31a_401": "8505090255", "A31a_402": "飛騨川", "A31a_403": "21", "A31a_404": "岐阜県", "A31a_405": 1 }, "geometry": { "type": "Polygon", "coordinates": [ [ [ 137.210313573, 35.87770784 ], [ 137.210313573, 35.877499511 ], [ 137.210626073, 35.877499511 ], [ 137.210626072, 35.877291181 ], [ 137.210626072, 35.877082841 ], [ 137.210626072, 35.876874511 ], [ 137.210626072, 35.876666182 ], [ 137.210626072, 35.876457842 ], [ 137.210626071, 35.876249512 ], [ 137.210938571, 35.876249512 ], [ 137.210938571, 35.876041182 ], [ 137.21093857, 35.875832843 ], [ 137.21125107, 35.875832843 ], [ 137.21125107, 35.875624513 ], [ 137.211251069, 35.875416183 ], [ 137.211251069, 35.875207844 ], [ 137.211563569, 35.875207844 ], [ 137.211563568, 35.874999514 ], [ 137.211563568, 35.874791184 ], [ 137.211251069, 35.874791184 ], [ 137.210938569, 35.874791184 ], [ 137.21062607, 35.874791184 ], [ 137.21062607, 35.874582844 ], [ 137.210626069, 35.874374515 ], [ 137.210626069, 35.874166185 ], [ 137.21031357, 35.874166185 ], [ 137.21031357, 35.873957845 ], [ 137.210313569, 35.873749515 ], [ 137.210626069, 35.873749515 ], [ 137.210938568, 35.873749515 ], [ 137.210938568, 35.873541185 ], [ 137.210938568, 35.873332846 ], [ 137.211251067, 35.873332846 ], [ 137.211251067, 35.873124516 ], [ 137.211563566, 35.873124516 ], [ 137.211563566, 35.872916186 ], [ 137.211876066, 35.872916186 ], [ 137.211876065, 35.872707846 ], [ 137.212188565, 35.872707846 ], [ 137.212188565, 35.872499516 ], [ 137.212501064, 35.872499516 ], [ 137.212501064, 35.872291187 ], [ 137.212813563, 35.872291186 ], [ 137.213126063, 35.872291186 ], [ 137.213126063, 35.872082847 ], [ 137.213438562, 35.872082846 ], [ 137.213438562, 35.871874517 ], [ 137.213438562, 35.871666187 ], [ 137.213751061, 35.871666187 ], [ 137.213751061, 35.871457847 ], [ 137.21406356, 35.871457847 ], [ 137.21406356, 35.871249517 ], [ 137.21406356, 35.871041187 ], [ 137.214376059, 35.871041187 ], [ 137.214376059, 35.870832847 ], [ 137.214688558, 35.870832847 ], [ 137.214688558, 35.870624518 ], [ 137.214688558, 35.870416188 ], [ 137.215001057, 35.870416188 ], [ 137.215001057, 35.870207848 ], [ 137.215313557, 35.870207848 ], [ 137.215313556, 35.869999518 ], [ 137.215313556, 35.869791188 ], [ 137.215313556, 35.869582848 ], [ 137.215626055, 35.869582848 ], [ 137.215938555, 35.869582848 ], [ 137.215938555, 35.869374519 ], [ 137.215938554, 35.869166189 ], [ 137.216251054, 35.869166189 ], [ 137.216251054, 35.868957849 ], [ 137.216563553, 35.868957849 ], [ 137.216563553, 35.868749519 ], [ 137.216876052, 35.868749519 ], [ 137.216876052, 35.868541189 ], [ 137.216876052, 35.868332849 ], [ 137.217188551, 35.868332849 ], [ 137.217188551, 35.86812452 ], [ 137.217501051, 35.868124519 ], [ 137.217501051, 35.86791619 ], [ 137.21750105, 35.86770785 ], [ 137.21781355, 35.86770785 ], [ 137.21781355, 35.86749952 ], [ 137.217813549, 35.86729119 ], [ 137.217813549, 35.867082851 ], [ 137.218126049, 35.86708285 ], [ 137.218126049, 35.866874521 ], [ 137.218438548, 35.866874521 ], [ 137.218751047, 35.866874521 ], [ 137.219063547, 35.866874521 ], [ 137.219063547, 35.866666191 ], [ 137.219376046, 35.866666191 ], [ 137.219376046, 35.866457851 ], [ 137.219688545, 35.866457851 ], [ 137.220001045, 35.866457851 ], [ 137.220001045, 35.866249521 ], [ 137.220001045, 35.866041191 ], [ 137.220313544, 35.866041191 ], [ 137.220313544, 35.865832851 ], [ 137.220626043, 35.865832851 ], [ 137.220938543, 35.865832851 ], [ 137.220938543, 35.865624521 ], [ 137.221251042, 35.865624521 ], [ 137.221251042, 35.865416192 ], [ 137.221563541, 35.865416191 ], [ 137.221563541, 35.865207852 ], [ 137.221876041, 35.865207852 ], [ 137.22187604, 35.864999522 ], [ 137.22187604, 35.864791192 ], [ 137.22187604, 35.864582852 ], [ 137.22218854, 35.864582852 ], [ 137.222188539, 35.864374522 ], [ 137.222501039, 35.864374522 ], [ 137.222501039, 35.864166193 ], [ 137.222501039, 35.863957853 ], [ 137.222501038, 35.863749523 ], [ 137.222813538, 35.863749523 ], [ 137.222813538, 35.863541193 ], [ 137.222813538, 35.863332853 ], [ 137.222813537, 35.863124523 ], [ 137.222813537, 35.862916194 ], [ 137.223126037, 35.862916194 ], [ 137.223126037, 35.862707854 ], [ 137.223126036, 35.862499524 ], [ 137.223126036, 35.862291194 ], [ 137.223126036, 35.862082854 ], [ 137.223438536, 35.862082854 ], [ 137.223438535, 35.861874525 ], [ 137.223438535, 35.861666195 ], [ 137.223751035, 35.861666195 ], [ 137.223751035, 35.861457855 ], [ 137.223751035, 35.861249525 ], [ 137.223751034, 35.861041195 ], [ 137.223751034, 35.860832856 ], [ 137.224063534, 35.860832855 ], [ 137.224063534, 35.860624526 ], [ 137.224063533, 35.860416196 ], [ 137.224063533, 35.860207856 ], [ 137.224063533, 35.859999526 ], [ 137.224063533, 35.859791197 ], [ 137.224063533, 35.859582857 ], [ 137.224376032, 35.859582857 ], [ 137.224376032, 35.859374527 ], [ 137.224376032, 35.859166197 ], [ 137.224688532, 35.859166197 ], [ 137.224688531, 35.858957857 ], [ 137.224688531, 35.858749527 ], [ 137.224688531, 35.858541198 ], [ 137.224688531, 35.858332858 ], [ 137.224688531, 35.858124528 ], [ 137.224688531, 35.857916198 ], [ 137.224688531, 35.857707858 ], [ 137.22468853, 35.857499528 ], [ 137.224376031, 35.857499528 ], [ 137.224376031, 35.857291199 ], [ 137.224376031, 35.857082859 ], [ 137.224376031, 35.856874529 ], [ 137.224063531, 35.856874529 ], [ 137.224063531, 35.856666199 ], [ 137.223751031, 35.856666199 ], [ 137.223438532, 35.856666199 ], [ 137.223438532, 35.856874529 ], [ 137.223126033, 35.856874529 ], [ 137.222813533, 35.856874529 ], [ 137.222813533, 35.857082859 ], [ 137.222813533, 35.857291199 ], [ 137.222813533, 35.857499529 ], [ 137.222813534, 35.857707859 ], [ 137.222813534, 35.857916199 ], [ 137.222813534, 35.858124528 ], [ 137.222813534, 35.858332858 ], [ 137.222501034, 35.858332858 ], [ 137.222501035, 35.858541198 ], [ 137.222501035, 35.858749528 ], [ 137.222501035, 35.858957858 ], [ 137.222501035, 35.859166197 ], [ 137.222501035, 35.859374527 ], [ 137.222188536, 35.859374527 ], [ 137.222188536, 35.859582857 ], [ 137.222188536, 35.859791197 ], [ 137.222188536, 35.859999527 ], [ 137.222188536, 35.860207857 ], [ 137.221876037, 35.860207857 ], [ 137.221876037, 35.860416196 ], [ 137.221876037, 35.860624526 ], [ 137.221876037, 35.860832856 ], [ 137.221876037, 35.861041196 ], [ 137.221876038, 35.861249526 ], [ 137.221876038, 35.861457855 ], [ 137.221563538, 35.861457855 ], [ 137.221563538, 35.861666195 ], [ 137.221251039, 35.861666195 ], [ 137.221251039, 35.861874525 ], [ 137.221251039, 35.862082855 ], [ 137.22093854, 35.862082855 ], [ 137.22093854, 35.862291195 ], [ 137.22062604, 35.862291195 ], [ 137.220626041, 35.862499525 ], [ 137.220313541, 35.862499525 ], [ 137.220313541, 35.862707854 ], [ 137.220313541, 35.862916194 ], [ 137.220001042, 35.862916194 ], [ 137.220001042, 35.863124524 ], [ 137.219688543, 35.863124524 ], [ 137.219688543, 35.863332854 ], [ 137.219376043, 35.863332854 ], [ 137.219376044, 35.863541194 ], [ 137.219376044, 35.863749524 ], [ 137.219063544, 35.863749524 ], [ 137.219063544, 35.863957853 ], [ 137.218751045, 35.863957854 ], [ 137.218751045, 35.864166193 ], [ 137.218438546, 35.864166193 ], [ 137.218438546, 35.864374523 ], [ 137.218438546, 35.864582853 ], [ 137.218126047, 35.864582853 ], [ 137.218126047, 35.864791193 ], [ 137.217813547, 35.864791193 ], [ 137.217501048, 35.864791193 ], [ 137.217501048, 35.864999523 ], [ 137.217188549, 35.864999523 ], [ 137.217188549, 35.865207853 ], [ 137.216876049, 35.865207853 ], [ 137.21656355, 35.865207853 ], [ 137.21656355, 35.865416193 ], [ 137.216251051, 35.865416193 ], [ 137.216251051, 35.865624522 ], [ 137.215938551, 35.865624522 ], [ 137.215938551, 35.865832852 ], [ 137.215626052, 35.865832852 ], [ 137.215313553, 35.865832852 ], [ 137.215313553, 35.866041192 ], [ 137.215001053, 35.866041192 ], [ 137.215001054, 35.866249522 ], [ 137.214688554, 35.866249522 ], [ 137.214376055, 35.866249522 ], [ 137.214376055, 35.866457852 ], [ 137.214063555, 35.866457852 ], [ 137.214063556, 35.866666192 ], [ 137.213751056, 35.866666192 ], [ 137.213751056, 35.866874522 ], [ 137.213751057, 35.867082852 ], [ 137.213438557, 35.867082852 ], [ 137.213438557, 35.867291191 ], [ 137.213438557, 35.867499521 ], [ 137.213438558, 35.867707851 ], [ 137.213438558, 35.867916191 ], [ 137.213126058, 35.867916191 ], [ 137.213126059, 35.868124521 ], [ 137.213126059, 35.86833285 ], [ 137.213126059, 35.86854119 ], [ 137.21281356, 35.86854119 ], [ 137.21281356, 35.86874952 ], [ 137.21281356, 35.86895785 ], [ 137.21281356, 35.86916619 ], [ 137.212501061, 35.86916619 ], [ 137.212501061, 35.86937452 ], [ 137.212501061, 35.869582849 ], [ 137.212188562, 35.869582849 ], [ 137.212188562, 35.869791189 ], [ 137.212188562, 35.869999519 ], [ 137.211876063, 35.869999519 ], [ 137.211876063, 35.870207849 ], [ 137.211876063, 35.870416188 ], [ 137.211563564, 35.870416188 ], [ 137.211563564, 35.870624518 ], [ 137.211563564, 35.870832848 ], [ 137.211251065, 35.870832848 ], [ 137.211251065, 35.871041188 ], [ 137.211251065, 35.871249518 ], [ 137.210938566, 35.871249518 ], [ 137.210938566, 35.871457847 ], [ 137.210626066, 35.871457847 ], [ 137.210626067, 35.871666187 ], [ 137.210626067, 35.871874517 ], [ 137.210313567, 35.871874517 ], [ 137.210313568, 35.872082847 ], [ 137.210001068, 35.872082847 ], [ 137.210001068, 35.872291187 ], [ 137.210001069, 35.872499516 ], [ 137.209688569, 35.872499516 ], [ 137.209688569, 35.872707846 ], [ 137.20937607, 35.872707846 ], [ 137.20937607, 35.872916186 ], [ 137.20937607, 35.873124516 ], [ 137.209063571, 35.873124516 ], [ 137.209063571, 35.873332846 ], [ 137.208751072, 35.873332846 ], [ 137.208751072, 35.873541185 ], [ 137.208751072, 35.873749515 ], [ 137.208438573, 35.873749515 ], [ 137.208438573, 35.873957845 ], [ 137.208126073, 35.873957845 ], [ 137.208126074, 35.874166185 ], [ 137.207813574, 35.874166185 ], [ 137.207813574, 35.874374515 ], [ 137.207813575, 35.874582844 ], [ 137.207501075, 35.874582844 ], [ 137.207501075, 35.874791184 ], [ 137.207501076, 35.874999514 ], [ 137.207501076, 35.875207844 ], [ 137.207188576, 35.875207844 ], [ 137.207188577, 35.875416183 ], [ 137.207188577, 35.875624513 ], [ 137.207188577, 35.875832843 ], [ 137.207188577, 35.876041182 ], [ 137.207188578, 35.876249512 ], [ 137.207188578, 35.876457842 ], [ 137.207188578, 35.876666182 ], [ 137.206876079, 35.876666182 ], [ 137.206876079, 35.876874511 ], [ 137.206876079, 35.877082841 ], [ 137.206876079, 35.877291181 ], [ 137.20687608, 35.877499511 ], [ 137.20687608, 35.87770784 ], [ 137.20687608, 35.87791618 ], [ 137.207188579, 35.87791618 ], [ 137.207501079, 35.87791618 ], [ 137.207813578, 35.87791618 ], [ 137.208126078, 35.87791618 ], [ 137.208438577, 35.87791618 ], [ 137.208751077, 35.87791618 ], [ 137.209063576, 35.87791618 ], [ 137.209376075, 35.87791618 ], [ 137.209688575, 35.87791618 ], [ 137.210001074, 35.87791618 ], [ 137.210313574, 35.87791618 ], [ 137.210313573, 35.87770784 ] ] ] } },
{ "type": "Feature", "properties": { "A31a_401": "8505090255", "A31a_402": "飛騨川", "A31a_403": "21", "A31a_404": "岐阜県", "A31a_405": 1 }, "geometry": { "type": "Polygon", "coordinates": [ [ [ 137.204063648, 35.916249433 ], [ 137.204063648, 35.916041104 ], [ 137.204376147, 35.916041104 ], [ 137.204376147, 35.915832765 ], [ 137.204376146, 35.915624436 ], [ 137.204376146, 35.915416107 ], [ 137.204376145, 35.915207768 ], [ 137.204376145, 35.914999439 ], [ 137.204376144, 35.91479111 ], [ 137.204063645, 35.91479111 ], [ 137.204063645, 35.914582771 ], [ 137.204063644, 35.914374442 ], [ 137.204063644, 35.914166113 ], [ 137.204063643, 35.913957774 ], [ 137.204063643, 35.913749444 ], [ 137.204063642, 35.913541115 ], [ 137.204063642, 35.913332776 ], [ 137.204063641, 35.913124447 ], [ 137.204063641, 35.912916118 ], [ 137.20406364, 35.912707779 ], [ 137.20406364, 35.91249945 ], [ 137.20406364, 35.912291121 ], [ 137.204063639, 35.912082782 ], [ 137.204063639, 35.911874453 ], [ 137.204063638, 35.911666124 ], [ 137.204063638, 35.911457785 ], [ 137.204063637, 35.911249456 ], [ 137.204063637, 35.911041127 ], [ 137.204063636, 35.910832787 ], [ 137.204063636, 35.910624458 ], [ 137.203751137, 35.910624459 ], [ 137.203438637, 35.910624459 ], [ 137.203126138, 35.910624459 ], [ 137.203126138, 35.910832788 ], [ 137.203126139, 35.911041127 ], [ 137.203438638, 35.911041127 ], [ 137.203438639, 35.911249456 ], [ 137.203438639, 35.911457785 ], [ 137.203438639, 35.911666124 ], [ 137.20343864, 35.911874453 ], [ 137.20343864, 35.912082782 ], [ 137.203438641, 35.912291121 ], [ 137.203438641, 35.91249945 ], [ 137.203438642, 35.912707779 ], [ 137.203438642, 35.912916118 ], [ 137.203438643, 35.913124447 ], [ 137.203438643, 35.913332776 ], [ 137.203438644, 35.913541116 ], [ 137.203438644, 35.913749445 ], [ 137.203438645, 35.913957774 ], [ 137.203751144, 35.913957774 ], [ 137.203751144, 35.914166113 ], [ 137.203438645, 35.914166113 ], [ 137.203438646, 35.914374442 ], [ 137.203438646, 35.914582771 ], [ 137.203751145, 35.914582771 ], [ 137.203751146, 35.91479111 ], [ 137.203751146, 35.914999439 ], [ 137.203751147, 35.915207768 ], [ 137.203751147, 35.915416107 ], [ 137.203751148, 35.915624436 ], [ 137.203751148, 35.915832765 ], [ 137.203751149, 35.916041104 ], [ 137.203751149, 35.916249433 ], [ 137.20375115, 35.916457762 ], [ 137.20375115, 35.916666101 ], [ 137.20375115, 35.91687443 ], [ 137.20406365, 35.916874431 ], [ 137.204063649, 35.916666101 ], [ 137.204063649, 35.916457762 ], [ 137.204063648, 35.916249433 ] ] ] } },
{ "type": "Feature", "properties": { "A31a_401": "8505090255", "A31a_402": "飛騨川", "A31a_403": "21", "A31a_404": "岐阜県", "A31a_405": 1 }, "geometry": { "type": "Polygon", "coordinates": [ [ [ 137.201563663, 35.919999416 ], [ 137.201563662, 35.919791087 ], [ 137.201876161, 35.919791087 ], [ 137.201876161, 35.919582748 ], [ 137.20187616, 35.919374419 ], [ 137.20218866, 35.919374419 ], [ 137.202188659, 35.91916609 ], [ 137.202188659, 35.918957751 ], [ 137.202501158, 35.918957751 ], [ 137.202501157, 35.918749422 ], [ 137.202501157, 35.918541093 ], [ 137.202501157, 35.918332754 ], [ 137.202501156, 35.918124425 ], [ 137.202813655, 35.918124425 ], [ 137.202813655, 35.917916096 ], [ 137.202813654, 35.917707756 ], [ 137.202813654, 35.917499427 ], [ 137.202813653, 35.917291098 ], [ 137.202813653, 35.917082759 ], [ 137.202813653, 35.91687443 ], [ 137.202813652, 35.916666101 ], [ 137.202813652, 35.916457762 ], [ 137.202813651, 35.916249433 ], [ 137.20312615, 35.916249433 ], [ 137.20312615, 35.916041104 ], [ 137.20312615, 35.915832765 ], [ 137.203126149, 35.915624436 ], [ 137.203126149, 35.915416107 ], [ 137.203126148, 35.915207768 ], [ 137.203438647, 35.915207768 ], [ 137.203438647, 35.914999439 ], [ 137.203126148, 35.914999439 ], [ 137.203126147, 35.91479111 ], [ 137.203126147, 35.914582771 ], [ 137.203126146, 35.914374442 ], [ 137.203126146, 35.914166113 ], [ 137.203126145, 35.913957774 ], [ 137.203126145, 35.913749445 ], [ 137.203126144, 35.913541116 ], [ 137.203126144, 35.913332777 ], [ 137.203126143, 35.913124447 ], [ 137.202813644, 35.913124448 ], [ 137.202813644, 35.912916119 ], [ 137.202813643, 35.912707779 ], [ 137.202813643, 35.91249945 ], [ 137.202813642, 35.912291121 ], [ 137.202813642, 35.912082782 ], [ 137.202813641, 35.911874453 ], [ 137.202813641, 35.911666124 ], [ 137.202501141, 35.911666124 ], [ 137.202501141, 35.911457785 ], [ 137.20250114, 35.911249456 ], [ 137.20250114, 35.911041127 ], [ 137.20250114, 35.910832788 ], [ 137.202501139, 35.910624459 ], [ 137.202501139, 35.91041613 ], [ 137.202188639, 35.91041613 ], [ 137.202188639, 35.910207791 ], [ 137.202188638, 35.909999462 ], [ 137.202188638, 35.909791133 ], [ 137.202188637, 35.909582794 ], [ 137.202188637, 35.909374465 ], [ 137.201876138, 35.909374466 ], [ 137.201876137, 35.909166137 ], [ 137.201876137, 35.908957798 ], [ 137.201876136, 35.908749469 ], [ 137.201876136, 35.90854114 ], [ 137.201563636, 35.90854114 ], [ 137.201563636, 35.908332801 ], [ 137.201563635, 35.908124471 ], [ 137.201563635, 35.907916141 ], [ 137.201563635, 35.907707802 ], [ 137.201563634, 35.907499472 ], [ 137.201563634, 35.907291142 ], [ 137.201251135, 35.907291143 ], [ 137.201251134, 35.907082803 ], [ 137.201251134, 35.906874473 ], [ 137.201251134, 35.906666144 ], [ 137.201251133, 35.906457804 ], [ 137.201563633, 35.906457804 ], [ 137.201563632, 35.906249474 ], [ 137.201563632, 35.906041144 ], [ 137.201563632, 35.905832804 ], [ 137.201563631, 35.905624475 ], [ 137.201563631, 35.905416145 ], [ 137.20187613, 35.905416145 ], [ 137.20187613, 35.905207805 ], [ 137.20187613, 35.904999476 ], [ 137.201876129, 35.904791146 ], [ 137.202188629, 35.904791146 ], [ 137.202188628, 35.904582806 ], [ 137.202188628, 35.904374476 ], [ 137.202188628, 35.904166147 ], [ 137.202501127, 35.904166146 ], [ 137.202501127, 35.903957807 ], [ 137.202501126, 35.903749477 ], [ 137.202501126, 35.903541147 ], [ 137.202813625, 35.903541147 ], [ 137.202813625, 35.903332808 ], [ 137.202813625, 35.903124478 ], [ 137.202813624, 35.902916148 ], [ 137.203126124, 35.902916148 ], [ 137.203126123, 35.902707808 ], [ 137.203126123, 35.902499479 ], [ 137.203126123, 35.902291149 ], [ 137.203126122, 35.902082809 ], [ 137.203438622, 35.902082809 ], [ 137.203438621, 35.90187448 ], [ 137.203438621, 35.90166615 ], [ 137.203438621, 35.90145781 ], [ 137.20343862, 35.901249481 ], [ 137.20343862, 35.901041151 ], [ 137.20343862, 35.900832811 ], [ 137.203438619, 35.900624482 ], [ 137.203438619, 35.900416152 ], [ 137.203438618, 35.900207812 ], [ 137.203438618, 35.899999483 ], [ 137.203438618, 35.899791153 ], [ 137.203438617, 35.899582813 ], [ 137.203438617, 35.899374483 ], [ 137.203438617, 35.899166154 ], [ 137.203438616, 35.898957814 ], [ 137.203438616, 35.898749484 ], [ 137.203438616, 35.898541155 ], [ 137.203438615, 35.898332815 ], [ 137.203438615, 35.898124485 ], [ 137.203438615, 35.897916155 ], [ 137.203438614, 35.897707816 ], [ 137.203438614, 35.897499486 ], [ 137.203438614, 35.897291156 ], [ 137.203438613, 35.897082816 ], [ 137.203438613, 35.896874487 ], [ 137.203438613, 35.896666157 ], [ 137.203751112, 35.896666157 ], [ 137.203751112, 35.896457817 ], [ 137.203751111, 35.896249488 ], [ 137.203751111, 35.896041158 ], [ 137.20406361, 35.896041158 ], [ 137.20406361, 35.895832818 ], [ 137.20406361, 35.895624488 ], [ 137.204063609, 35.895416159 ], [ 137.204376109, 35.895416158 ], [ 137.204376108, 35.895207819 ], [ 137.204376108, 35.894999489 ], [ 137.204688607, 35.894999489 ], [ 137.204688607, 35.894791159 ], [ 137.204688607, 35.89458282 ], [ 137.205001106, 35.894582819 ], [ 137.205001106, 35.89437449 ], [ 137.205001105, 35.89416616 ], [ 137.205001105, 35.89395782 ], [ 137.205313604, 35.89395782 ], [ 137.205313604, 35.89374949 ], [ 137.205313604, 35.893541161 ], [ 137.205626103, 35.893541161 ], [ 137.205626103, 35.893332821 ], [ 137.205626102, 35.893124491 ], [ 137.205938602, 35.893124491 ], [ 137.205938601, 35.892916161 ], [ 137.206251101, 35.892916161 ], [ 137.2062511, 35.892707822 ], [ 137.2062511, 35.892499492 ], [ 137.2062511, 35.892291162 ], [ 137.206251099, 35.892082822 ], [ 137.206251099, 35.891874493 ], [ 137.206563598, 35.891874493 ], [ 137.206563598, 35.891666163 ], [ 137.206563598, 35.891457823 ], [ 137.206563597, 35.891249493 ], [ 137.206563597, 35.891041164 ], [ 137.206876097, 35.891041164 ], [ 137.206876096, 35.890832824 ], [ 137.206876096, 35.890624494 ], [ 137.206876096, 35.890416164 ], [ 137.206876095, 35.890207825 ], [ 137.207188595, 35.890207825 ], [ 137.207188595, 35.889999495 ], [ 137.207188594, 35.889791165 ], [ 137.207188594, 35.889582825 ], [ 137.207188594, 35.889374496 ], [ 137.207501093, 35.889374496 ], [ 137.207501093, 35.889166166 ], [ 137.207501092, 35.888957826 ], [ 137.207501092, 35.888749496 ], [ 137.207501092, 35.888541167 ], [ 137.207501092, 35.888332827 ], [ 137.207813591, 35.888332827 ], [ 137.207813591, 35.888124497 ], [ 137.20781359, 35.887916167 ], [ 137.20781359, 35.887707827 ], [ 137.20781359, 35.887499498 ], [ 137.20781359, 35.887291168 ], [ 137.208126089, 35.887291168 ], [ 137.208126089, 35.887082828 ], [ 137.208126088, 35.886874498 ], [ 137.208126088, 35.886666169 ], [ 137.208126088, 35.886457829 ], [ 137.208126088, 35.886249499 ], [ 137.208126087, 35.886041169 ], [ 137.208126087, 35.88583283 ], [ 137.208438586, 35.88583283 ], [ 137.208438586, 35.8856245 ], [ 137.208126087, 35.8856245 ], [ 137.208126087, 35.88541617 ], [ 137.208126086, 35.88520783 ], [ 137.208126086, 35.884999501 ], [ 137.208126086, 35.884791171 ], [ 137.208126085, 35.884582831 ], [ 137.208126085, 35.884374502 ], [ 137.208126085, 35.884166172 ], [ 137.208126085, 35.883957832 ], [ 137.207813585, 35.883957832 ], [ 137.207813585, 35.883749502 ], [ 137.207813585, 35.883541173 ], [ 137.207813584, 35.883332833 ], [ 137.207813584, 35.883124503 ], [ 137.207501085, 35.883124503 ], [ 137.207501085, 35.882916173 ], [ 137.207501084, 35.882707834 ], [ 137.207501084, 35.882499504 ], [ 137.207501084, 35.882291174 ], [ 137.207501084, 35.882082834 ], [ 137.207188584, 35.882082834 ], [ 137.207188584, 35.881874505 ], [ 137.207188584, 35.881666175 ], [ 137.207188583, 35.881457835 ], [ 137.207188583, 35.881249506 ], [ 137.206876084, 35.881249506 ], [ 137.206876084, 35.881041176 ], [ 137.206876083, 35.880832836 ], [ 137.206563584, 35.880832836 ], [ 137.206563584, 35.880624506 ], [ 137.206563583, 35.880416177 ], [ 137.206563583, 35.880207837 ], [ 137.206251084, 35.880207837 ], [ 137.206251084, 35.879999507 ], [ 137.206251083, 35.879791178 ], [ 137.205938584, 35.879791178 ], [ 137.205938584, 35.879582838 ], [ 137.205938583, 35.879374508 ], [ 137.205626084, 35.879374508 ], [ 137.205626084, 35.879166178 ], [ 137.205313584, 35.879166178 ], [ 137.205001085, 35.879166178 ], [ 137.205001085, 35.879374508 ], [ 137.204688586, 35.879374508 ], [ 137.204688586, 35.879582838 ], [ 137.204688586, 35.879791178 ], [ 137.204376087, 35.879791178 ], [ 137.204376087, 35.879999507 ], [ 137.204376087, 35.880207837 ], [ 137.204063588, 35.880207837 ], [ 137.204063588, 35.880416177 ], [ 137.204063589, 35.880624506 ], [ 137.204063589, 35.880832836 ], [ 137.204063589, 35.881041176 ], [ 137.20375109, 35.881041176 ], [ 137.20375109, 35.881249506 ], [ 137.20375109, 35.881457835 ], [ 137.20375109, 35.881666175 ], [ 137.203751091, 35.881874505 ], [ 137.203751091, 35.882082834 ], [ 137.203751091, 35.882291174 ], [ 137.203751091, 35.882499504 ], [ 137.203751092, 35.882707834 ], [ 137.203751092, 35.882916173 ], [ 137.203751092, 35.883124503 ], [ 137.203751092, 35.883332833 ], [ 137.203751093, 35.883541173 ], [ 137.203751093, 35.883749502 ], [ 137.203751093, 35.883957832 ], [ 137.203438594, 35.883957832 ], [ 137.203438594, 35.884166172 ], [ 137.203438595, 35.884374502 ], [ 137.203438595, 35.884582831 ], [ 137.203438595, 35.884791171 ], [ 137.203126096, 35.884791171 ], [ 137.203126096, 35.884999501 ], [ 137.203126096, 35.885207831 ], [ 137.203126097, 35.885416171 ], [ 137.203126097, 35.8856245 ], [ 137.203126097, 35.88583283 ], [ 137.203126097, 35.88604117 ], [ 137.203126098, 35.8862495 ], [ 137.203126098, 35.886457829 ], [ 137.203126098, 35.886666169 ], [ 137.203126098, 35.886874499 ], [ 137.203126099, 35.887082829 ], [ 137.203126099, 35.887291168 ], [ 137.2028136, 35.887291169 ], [ 137.2028136, 35.887499498 ], [ 137.2028136, 35.887707828 ], [ 137.2028136, 35.887916168 ], [ 137.202813601, 35.888124498 ], [ 137.202813601, 35.888332827 ], [ 137.202813601, 35.888541167 ], [ 137.202813602, 35.888749497 ], [ 137.202501102, 35.888749497 ], [ 137.202501102, 35.888957827 ], [ 137.202501103, 35.889166167 ], [ 137.202188603, 35.889166167 ], [ 137.202188604, 35.889374496 ], [ 137.202188604, 35.889582826 ], [ 137.202188604, 35.889791166 ], [ 137.201876105, 35.889791166 ], [ 137.201876105, 35.889999496 ], [ 137.201876105, 35.890207826 ], [ 137.201876106, 35.890416165 ], [ 137.201876106, 35.890624495 ], [ 137.202188605, 35.890624495 ], [ 137.202188606, 35.890832825 ], [ 137.202188606, 35.891041165 ], [ 137.202188606, 35.891249494 ], [ 137.202188606, 35.891457824 ], [ 137.202188607, 35.891666164 ], [ 137.201876107, 35.891666164 ], [ 137.201876108, 35.891874494 ], [ 137.201876108, 35.892082823 ], [ 137.201876108, 35.892291163 ], [ 137.201876109, 35.892499493 ], [ 137.201876109, 35.892707823 ], [ 137.201876109, 35.892916162 ], [ 137.20187611, 35.893124492 ], [ 137.20187611, 35.893332822 ], [ 137.20187611, 35.893541162 ], [ 137.201876111, 35.893749491 ], [ 137.201876111, 35.893957821 ], [ 137.201876112, 35.894166161 ], [ 137.201876112, 35.89437449 ], [ 137.201876112, 35.89458282 ], [ 137.201876113, 35.89479116 ], [ 137.201876113, 35.89499949 ], [ 137.201876113, 35.895207819 ], [ 137.201563614, 35.895207819 ], [ 137.201563614, 35.895416159 ], [ 137.201563615, 35.895624489 ], [ 137.201563615, 35.895832819 ], [ 137.201563615, 35.896041158 ], [ 137.201563616, 35.896249488 ], [ 137.201563616, 35.896457818 ], [ 137.201563616, 35.896666157 ], [ 137.201563617, 35.896874487 ], [ 137.201563617, 35.897082817 ], [ 137.201563617, 35.897291157 ], [ 137.201251118, 35.897291157 ], [ 137.201251118, 35.897499486 ], [ 137.201251119, 35.897707816 ], [ 137.201251119, 35.897916156 ], [ 137.201251119, 35.898124486 ], [ 137.20125112, 35.898332815 ], [ 137.20125112, 35.898541155 ], [ 137.20125112, 35.898749485 ], [ 137.200938621, 35.898749485 ], [ 137.200938621, 35.898957815 ], [ 137.200938622, 35.899166154 ], [ 137.200938622, 35.899374484 ], [ 137.200938622, 35.899582814 ], [ 137.200938623, 35.899791153 ], [ 137.200938623, 35.899999483 ], [ 137.200626124, 35.899999483 ], [ 137.200313624, 35.899999483 ], [ 137.200001125, 35.899999483 ], [ 137.199688626, 35.899999483 ], [ 137.199688626, 35.900207813 ], [ 137.199688626, 35.900416152 ], [ 137.199688627, 35.900624482 ], [ 137.199688627, 35.900832812 ], [ 137.199376128, 35.900832811 ], [ 137.199376128, 35.901041151 ], [ 137.199376128, 35.901249481 ], [ 137.199376129, 35.90145781 ], [ 137.199376129, 35.90166615 ], [ 137.199376129, 35.90187448 ], [ 137.19937613, 35.902082809 ], [ 137.19937613, 35.902291149 ], [ 137.19937613, 35.902499479 ], [ 137.199376131, 35.902707809 ], [ 137.199376131, 35.902916148 ], [ 137.199376132, 35.903124478 ], [ 137.199063632, 35.903124477 ], [ 137.199063633, 35.903332807 ], [ 137.199063633, 35.903541147 ], [ 137.199063633, 35.903749476 ], [ 137.199063634, 35.903957806 ], [ 137.199376133, 35.903957807 ], [ 137.199688632, 35.903957807 ], [ 137.200001132, 35.903957808 ], [ 137.200313631, 35.903957808 ], [ 137.200313631, 35.904166148 ], [ 137.200313632, 35.904374477 ], [ 137.200313632, 35.904582807 ], [ 137.200313632, 35.904791147 ], [ 137.200313633, 35.904999476 ], [ 137.200313633, 35.905207806 ], [ 137.200313633, 35.905416146 ], [ 137.200001134, 35.905416146 ], [ 137.200001134, 35.905624476 ], [ 137.200001135, 35.905832806 ], [ 137.199688635, 35.905832805 ], [ 137.199688636, 35.906041145 ], [ 137.199688636, 35.906249474 ], [ 137.199688636, 35.906457804 ], [ 137.199688637, 35.906666144 ], [ 137.199376137, 35.906666143 ], [ 137.199376138, 35.906874473 ], [ 137.199376138, 35.907082802 ], [ 137.199376139, 35.907291142 ], [ 137.199376139, 35.907499472 ], [ 137.199376139, 35.907707802 ], [ 137.19937614, 35.907916141 ], [ 137.19937614, 35.908124471 ], [ 137.199688639, 35.908124472 ], [ 137.19968864, 35.908332801 ], [ 137.19968864, 35.90854114 ], [ 137.199688641, 35.908749469 ], [ 137.20000114, 35.90874947 ], [ 137.20000114, 35.908957799 ], [ 137.200001141, 35.909166138 ], [ 137.200001141, 35.909374467 ], [ 137.200313641, 35.909374467 ], [ 137.200313641, 35.909582796 ], [ 137.200313642, 35.909791135 ], [ 137.200313642, 35.909999464 ], [ 137.200626141, 35.909999463 ], [ 137.200626142, 35.910207792 ], [ 137.200626142, 35.910416131 ], [ 137.200938642, 35.910416131 ], [ 137.200938642, 35.91062446 ], [ 137.200938643, 35.910832789 ], [ 137.200938643, 35.911041128 ], [ 137.201251143, 35.911041128 ], [ 137.201251143, 35.911249457 ], [ 137.201251144, 35.911457786 ], [ 137.201563643, 35.911457786 ], [ 137.201563643, 35.911666125 ], [ 137.201563644, 35.911874454 ], [ 137.201563644, 35.912082783 ], [ 137.201876144, 35.912082783 ], [ 137.201876144, 35.912291122 ], [ 137.201876145, 35.912499451 ], [ 137.201876145, 35.91270778 ], [ 137.202188644, 35.91270778 ], [ 137.202188645, 35.912916119 ], [ 137.202188645, 35.913124448 ], [ 137.201876146, 35.913124448 ], [ 137.201563647, 35.913124448 ], [ 137.201563647, 35.913332777 ], [ 137.201251148, 35.913332777 ], [ 137.201251148, 35.913541116 ], [ 137.201563648, 35.913541116 ], [ 137.201563648, 35.913749445 ], [ 137.201876148, 35.913749445 ], [ 137.201876148, 35.913957774 ], [ 137.201876148, 35.914166113 ], [ 137.201876149, 35.914374442 ], [ 137.202188648, 35.914374442 ], [ 137.202188649, 35.914582771 ], [ 137.202188649, 35.91479111 ], [ 137.202501149, 35.91479111 ], [ 137.202813648, 35.91479111 ], [ 137.202813648, 35.914999439 ], [ 137.202813649, 35.915207768 ], [ 137.202813649, 35.915416107 ], [ 137.20281365, 35.915624436 ], [ 137.20250115, 35.915624436 ], [ 137.202501151, 35.915832765 ], [ 137.202501151, 35.916041104 ], [ 137.202501152, 35.916249433 ], [ 137.202501152, 35.916457762 ], [ 137.202188653, 35.916457762 ], [ 137.202188653, 35.916666101 ], [ 137.202188654, 35.91687443 ], [ 137.201876155, 35.91687443 ], [ 137.201876155, 35.917082759 ], [ 137.201876156, 35.917291098 ], [ 137.201563656, 35.917291098 ], [ 137.201563657, 35.917499427 ], [ 137.201251157, 35.917499427 ], [ 137.201251158, 35.917707756 ], [ 137.201251158, 35.917916095 ], [ 137.200938659, 35.917916095 ], [ 137.20093866, 35.918124424 ], [ 137.20062616, 35.918124424 ], [ 137.200626161, 35.918332753 ], [ 137.200626161, 35.918541092 ], [ 137.200626162, 35.918749421 ], [ 137.200313662, 35.918749421 ], [ 137.200313663, 35.91895775 ], [ 137.200313663, 35.919166089 ], [ 137.200313664, 35.919374418 ], [ 137.200626163, 35.919374418 ], [ 137.200626164, 35.919582747 ], [ 137.200938663, 35.919582747 ], [ 137.200938663, 35.919791086 ], [ 137.200626164, 35.919791086 ], [ 137.200626165, 35.919999415 ], [ 137.200626165, 35.920207744 ], [ 137.200938664, 35.920207744 ], [ 137.201251164, 35.920207745 ], [ 137.201563663, 35.920207745 ], [ 137.201563663, 35.919999416 ] ] ] } },
{ "type": "Feature", "properties": { "A31a_401": "8505090255", "A31a_402": "飛騨川", "A31a_403": "21", "A31a_404": "岐阜県", "A31a_405": 1 }, "geometry": { "type": "Polygon", "coordinates": [ [ [ 137.202813666, 35.922916073 ], [ 137.202813666, 35.922707734 ], [ 137.203126165, 35.922707734 ], [ 137.203126165, 35.922499405 ], [ 137.203126164, 35.922291076 ], [ 137.203126164, 35.922082737 ], [ 137.202813664, 35.922082737 ], [ 137.202813664, 35.921874408 ], [ 137.202813663, 35.921666079 ], [ 137.202813663, 35.92145774 ], [ 137.202501164, 35.921457739 ], [ 137.202501163, 35.92124941 ], [ 137.202501163, 35.921041081 ], [ 137.202501162, 35.920832742 ], [ 137.202188663, 35.920832742 ], [ 137.201876164, 35.920832742 ], [ 137.201876164, 35.921041081 ], [ 137.201876165, 35.92124941 ], [ 137.201876165, 35.921457739 ], [ 137.201876166, 35.921666078 ], [ 137.201876166, 35.921874407 ], [ 137.201876167, 35.922082736 ], [ 137.201876167, 35.922291075 ], [ 137.201876167, 35.922499404 ], [ 137.201876168, 35.922707733 ], [ 137.201876168, 35.922916072 ], [ 137.201876169, 35.923124401 ], [ 137.201876169, 35.923332731 ], [ 137.20187617, 35.92354107 ], [ 137.202188669, 35.92354107 ], [ 137.202501168, 35.92354107 ], [ 137.202813668, 35.92354107 ], [ 137.202813667, 35.923332731 ], [ 137.202813667, 35.923124402 ], [ 137.202813666, 35.922916073 ] ] ] } },
{ "type": "Feature", "properties": { "A31a_401": "8505090255", "A31a_402": "飛騨川", "A31a_403": "21", "A31a_404": "岐阜県", "A31a_405": 1 }, "geometry": { "type": "Polygon", "coordinates": [ [ [ 137.216251139, 35.925416068 ], [ 137.216251139, 35.925207729 ], [ 137.216563638, 35.925207729 ], [ 137.216876137, 35.925207729 ], [ 137.217188636, 35.925207729 ], [ 137.217188636, 35.9249994 ], [ 137.217501135, 35.9249994 ], [ 137.217813634, 35.9249994 ], [ 137.218126133, 35.9249994 ], [ 137.218126133, 35.924791071 ], [ 137.218438632, 35.924791071 ], [ 137.218751132, 35.924791071 ], [ 137.218751131, 35.924582732 ], [ 137.218751131, 35.924374402 ], [ 137.21875113, 35.924166073 ], [ 137.218438631, 35.924166073 ], [ 137.218438631, 35.923957734 ], [ 137.218126131, 35.923957734 ], [ 137.217813632, 35.923957734 ], [ 137.217501133, 35.923957734 ], [ 137.217501132, 35.923749405 ], [ 137.217188633, 35.923749405 ], [ 137.216876134, 35.923749405 ], [ 137.216563635, 35.923749405 ], [ 137.216563634, 35.923541076 ], [ 137.216251135, 35.923541076 ], [ 137.215938636, 35.923541076 ], [ 137.215626137, 35.923541076 ], [ 137.215313637, 35.923541076 ], [ 137.215001138, 35.923541076 ], [ 137.214688639, 35.923541076 ], [ 137.21437614, 35.923541076 ], [ 137.21406364, 35.923541076 ], [ 137.214063641, 35.923749405 ], [ 137.213751142, 35.923749405 ], [ 137.213438642, 35.923749405 ], [ 137.213438643, 35.923957734 ], [ 137.213126144, 35.923957734 ], [ 137.213126144, 35.924166073 ], [ 137.213126144, 35.924374402 ], [ 137.213126145, 35.924582732 ], [ 137.212813646, 35.924582732 ], [ 137.212501146, 35.924582732 ], [ 137.212501147, 35.924791071 ], [ 137.212501147, 35.9249994 ], [ 137.212813646, 35.9249994 ], [ 137.213126146, 35.9249994 ], [ 137.213126146, 35.925207729 ], [ 137.213438645, 35.925207729 ], [ 137.213751145, 35.925207729 ], [ 137.214063644, 35.925207729 ], [ 137.214063644, 35.925416068 ], [ 137.214376144, 35.925416068 ], [ 137.214688643, 35.925416068 ], [ 137.215001142, 35.925416068 ], [ 137.215313641, 35.925416068 ], [ 137.215626141, 35.925416068 ], [ 137.21593864, 35.925416068 ], [ 137.216251139, 35.925416068 ] ] ] } },
{ "type": "Feature", "properties": { "A31a_401": "8505090255", "A31a_402": "飛騨川", "A31a_403": "21", "A31a_404": "岐阜県", "A31a_405": 1 }, "geometry": { "type": "Polygon", "coordinates": [ [ [ 137.225938624, 35.929166055 ], [ 137.225938623, 35.928957715 ], [ 137.225626124, 35.928957715 ], [ 137.225626124, 35.928749386 ], [ 137.225313625, 35.928749386 ], [ 137.225313624, 35.928541057 ], [ 137.225001125, 35.928541057 ], [ 137.225001124, 35.928332718 ], [ 137.224688625, 35.928332718 ], [ 137.224688625, 35.928124388 ], [ 137.224376126, 35.928124388 ], [ 137.224376125, 35.927916059 ], [ 137.224376125, 35.92770772 ], [ 137.224063625, 35.92770772 ], [ 137.224063625, 35.927499391 ], [ 137.224063624, 35.927291061 ], [ 137.223751125, 35.927291061 ], [ 137.223751125, 35.927082722 ], [ 137.223438625, 35.927082722 ], [ 137.223438625, 35.926874393 ], [ 137.223126126, 35.926874393 ], [ 137.223126125, 35.926666064 ], [ 137.222813626, 35.926666064 ], [ 137.222813626, 35.926457724 ], [ 137.222501126, 35.926457724 ], [ 137.222501126, 35.926249395 ], [ 137.222501125, 35.926041066 ], [ 137.222188626, 35.926041066 ], [ 137.222188626, 35.925832727 ], [ 137.221876126, 35.925832727 ], [ 137.221876126, 35.925624398 ], [ 137.221876125, 35.925416068 ], [ 137.221563626, 35.925416068 ], [ 137.221563626, 35.925207729 ], [ 137.221251126, 35.925207729 ], [ 137.221251126, 35.9249994 ], [ 137.220938627, 35.9249994 ], [ 137.220626127, 35.9249994 ], [ 137.220313628, 35.9249994 ], [ 137.220001129, 35.9249994 ], [ 137.220001129, 35.925207729 ], [ 137.21968863, 35.925207729 ], [ 137.219376131, 35.925207729 ], [ 137.219063632, 35.925207729 ], [ 137.219063632, 35.925416068 ], [ 137.218751133, 35.925416068 ], [ 137.218438634, 35.925416068 ], [ 137.218438634, 35.925624397 ], [ 137.218126135, 35.925624397 ], [ 137.217813636, 35.925624397 ], [ 137.217501137, 35.925624397 ], [ 137.217501137, 35.925832727 ], [ 137.217188638, 35.925832727 ], [ 137.216876139, 35.925832727 ], [ 137.216876139, 35.926041066 ], [ 137.21687614, 35.926249395 ], [ 137.21687614, 35.926457724 ], [ 137.216876141, 35.926666063 ], [ 137.21718864, 35.926666063 ], [ 137.217501139, 35.926666063 ], [ 137.21750114, 35.926874392 ], [ 137.217813639, 35.926874392 ], [ 137.218126138, 35.926874392 ], [ 137.218126139, 35.927082722 ], [ 137.218438638, 35.927082722 ], [ 137.218751137, 35.927082722 ], [ 137.218751138, 35.927291061 ], [ 137.219063637, 35.927291061 ], [ 137.219063637, 35.92749939 ], [ 137.219376137, 35.92749939 ], [ 137.219688636, 35.92749939 ], [ 137.219688636, 35.927707719 ], [ 137.220001136, 35.927707719 ], [ 137.220313635, 35.927707719 ], [ 137.220313635, 35.927916059 ], [ 137.220626135, 35.927916059 ], [ 137.220938634, 35.927916059 ], [ 137.221251133, 35.927916059 ], [ 137.221563632, 35.927916059 ], [ 137.221876131, 35.927916059 ], [ 137.222188631, 35.927916059 ], [ 137.22250113, 35.927916059 ], [ 137.222813629, 35.927916059 ], [ 137.223126128, 35.927916059 ], [ 137.223438627, 35.927916059 ], [ 137.223751127, 35.927916059 ], [ 137.223751127, 35.928124388 ], [ 137.223751128, 35.928332718 ], [ 137.223751128, 35.928541057 ], [ 137.223751129, 35.928749386 ], [ 137.223751129, 35.928957715 ], [ 137.22375113, 35.929166054 ], [ 137.224063629, 35.929166055 ], [ 137.224376128, 35.929166055 ], [ 137.224688627, 35.929166055 ], [ 137.225001126, 35.929166055 ], [ 137.225313626, 35.929166055 ], [ 137.225313626, 35.929374384 ], [ 137.225626125, 35.929374384 ], [ 137.225938624, 35.929374384 ], [ 137.226251124, 35.929374384 ], [ 137.226251123, 35.929166055 ], [ 137.225938624, 35.929166055 ] ] ] } },
{ "type": "Feature", "properties": { "A31a_401": "8505090255", "A31a_402": "飛騨川", "A31a_403": "21", "A31a_404": "岐阜県", "A31a_405": 1 }, "geometry": { "type": "Polygon", "coordinates": [ [ [ 137.247813574, 35.933749373 ], [ 137.247813573, 35.933541044 ], [ 137.248126073, 35.933541044 ], [ 137.248126072, 35.933332705 ], [ 137.248438571, 35.933332705 ], [ 137.248438571, 35.933124375 ], [ 137.24843857, 35.932916046 ], [ 137.248126071, 35.932916046 ], [ 137.248126071, 35.932707706 ], [ 137.24812607, 35.932499377 ], [ 137.247813571, 35.932499377 ], [ 137.247813571, 35.932291047 ], [ 137.24781357, 35.932082708 ], [ 137.247501071, 35.932082708 ], [ 137.247501071, 35.931874378 ], [ 137.24750107, 35.931666049 ], [ 137.247188571, 35.931666049 ], [ 137.247188571, 35.93145771 ], [ 137.24718857, 35.93124938 ], [ 137.246876071, 35.93124938 ], [ 137.246563572, 35.93124938 ], [ 137.246563572, 35.931041051 ], [ 137.246251073, 35.931041051 ], [ 137.246251073, 35.93124938 ], [ 137.245938574, 35.93124938 ], [ 137.245626075, 35.93124938 ], [ 137.245626075, 35.931457709 ], [ 137.245313576, 35.931457709 ], [ 137.245313577, 35.931666049 ], [ 137.245001078, 35.931666049 ], [ 137.245001078, 35.931874378 ], [ 137.244688579, 35.931874378 ], [ 137.24437608, 35.931874378 ], [ 137.24437608, 35.932082707 ], [ 137.244376081, 35.932291047 ], [ 137.24468858, 35.932291047 ], [ 137.245001079, 35.932291047 ], [ 137.245313578, 35.932291047 ], [ 137.245313578, 35.932499376 ], [ 137.245626078, 35.932499376 ], [ 137.245626078, 35.932707706 ], [ 137.245938577, 35.932707706 ], [ 137.245938578, 35.932916045 ], [ 137.246251077, 35.932916045 ], [ 137.246251077, 35.933124375 ], [ 137.246563576, 35.933124375 ], [ 137.246563577, 35.933332704 ], [ 137.246876076, 35.933332704 ], [ 137.246876076, 35.933541044 ], [ 137.247188575, 35.933541044 ], [ 137.247188576, 35.933749373 ], [ 137.247501075, 35.933749373 ], [ 137.247813574, 35.933749373 ] ] ] } }
]
}
