{
"type": "FeatureCollection",
"name": "A31a-42-25_21_8505090098_20",
"crs": { "type": "name", "properties": { "name": "urn:ogc:def:crs:EPSG::6668" } },
"xy_coordinate_resolution": 1e-09,
"features": [
{ "type": "Feature", "properties": { "A31a_401": "8505090098", "A31a_402": "板取川", "A31a_403": "21", "A31a_404": "岐阜県", "A31a_405": 2 }, "geometry": { "type": "Polygon", "coordinates": [ [ [ 136.9066667, 35.56733333 ], [ 136.9063889, 35.56733333 ], [ 136.9063889, 35.56755556 ], [ 136.9063889, 35.56777778 ], [ 136.9066667, 35.56777778 ], [ 136.9069444, 35.56777778 ], [ 136.9072222, 35.56777778 ], [ 136.9075, 35.56777778 ], [ 136.9077778, 35.56777778 ], [ 136.9077778, 35.568 ], [ 136.9080556, 35.568 ], [ 136.9080556, 35.56822222 ], [ 136.9083333, 35.56822222 ], [ 136.9083333, 35.56844445 ], [ 136.9086111, 35.56844445 ], [ 136.9086111, 35.56866667 ], [ 136.9088889, 35.56866667 ], [ 136.9091667, 35.56866667 ], [ 136.9091667, 35.56888889 ], [ 136.9094444, 35.56888889 ], [ 136.9097222, 35.56888889 ], [ 136.91, 35.56888889 ], [ 136.91, 35.56866667 ], [ 136.91, 35.56844445 ], [ 136.9097222, 35.56844445 ], [ 136.9097222, 35.56822222 ], [ 136.9097222, 35.568 ], [ 136.9094444, 35.568 ], [ 136.9094444, 35.56777778 ], [ 136.9091667, 35.56777778 ], [ 136.9091667, 35.56755556 ], [ 136.9088889, 35.56755556 ], [ 136.9088889, 35.56733333 ], [ 136.9086111, 35.56733333 ], [ 136.9083333, 35.56733333 ], [ 136.9080556, 35.56733333 ], [ 136.9077778, 35.56733333 ], [ 136.9075, 35.56733333 ], [ 136.9072222, 35.56733333 ], [ 136.9069444, 35.56733333 ], [ 136.9066667, 35.56733333 ] ] ] } },
{ "type": "Feature", "properties": { "A31a_401": "8505090098", "A31a_402": "板取川", "A31a_403": "21", "A31a_404": "岐阜県", "A31a_405": 2 }, "geometry": { "type": "Polygon", "coordinates": [ [ [ 136.9061111, 35.568 ], [ 136.9058333, 35.568 ], [ 136.9058333, 35.56822222 ], [ 136.9061111, 35.56822222 ], [ 136.9061111, 35.56844445 ], [ 136.9063889, 35.56844445 ], [ 136.9063889, 35.56866667 ], [ 136.9063889, 35.56888889 ], [ 136.9066667, 35.56888889 ], [ 136.9066667, 35.56911111 ], [ 136.9069444, 35.56911111 ], [ 136.9069444, 35.56933333 ], [ 136.9072222, 35.56933333 ], [ 136.9072222, 35.56955556 ], [ 136.9072222, 35.56977778 ], [ 136.9075, 35.56977778 ], [ 136.9075, 35.57 ], [ 136.9077778, 35.57 ], [ 136.9077778, 35.57022222 ], [ 136.9080556, 35.57022222 ], [ 136.9080556, 35.57044445 ], [ 136.9083333, 35.57044445 ], [ 136.9083333, 35.57066667 ], [ 136.9086111, 35.57066667 ], [ 136.9086111, 35.57088889 ], [ 136.9088889, 35.57088889 ], [ 136.9091667, 35.57088889 ], [ 136.9091667, 35.57111111 ], [ 136.9094444, 35.57111111 ], [ 136.9094444, 35.57133333 ], [ 136.9097222, 35.57133333 ], [ 136.91, 35.57133333 ], [ 136.91, 35.57155556 ], [ 136.9102778, 35.57155556 ], [ 136.9105556, 35.57155556 ], [ 136.9105556, 35.57177778 ], [ 136.9108333, 35.57177778 ], [ 136.9111111, 35.57177778 ], [ 136.9113889, 35.57177778 ], [ 136.9116667, 35.57177778 ], [ 136.9119444, 35.57177778 ], [ 136.9122222, 35.57177778 ], [ 136.9125, 35.57177778 ], [ 136.9127778, 35.57177778 ], [ 136.9130556, 35.57177778 ], [ 136.9130556, 35.57155556 ], [ 136.9127778, 35.57155556 ], [ 136.9125, 35.57155556 ], [ 136.9122222, 35.57155556 ], [ 136.9122222, 35.57133333 ], [ 136.9119444, 35.57133333 ], [ 136.9116667, 35.57133333 ], [ 136.9116667, 35.57111111 ], [ 136.9113889, 35.57111111 ], [ 136.9111111, 35.57111111 ], [ 136.9111111, 35.57088889 ], [ 136.9108333, 35.57088889 ], [ 136.9108333, 35.57066667 ], [ 136.9105556, 35.57066667 ], [ 136.9105556, 35.57044445 ], [ 136.9102778, 35.57044445 ], [ 136.9102778, 35.57022222 ], [ 136.91, 35.57022222 ], [ 136.91, 35.57 ], [ 136.9097222, 35.57 ], [ 136.9094444, 35.57 ], [ 136.9094444, 35.56977778 ], [ 136.9091667, 35.56977778 ], [ 136.9091667, 35.56955556 ], [ 136.9088889, 35.56955556 ], [ 136.9088889, 35.56933333 ], [ 136.9086111, 35.56933333 ], [ 136.9086111, 35.56911111 ], [ 136.9083333, 35.56911111 ], [ 136.9083333, 35.56888889 ], [ 136.9080556, 35.56888889 ], [ 136.9077778, 35.56888889 ], [ 136.9077778, 35.56866667 ], [ 136.9075, 35.56866667 ], [ 136.9075, 35.56844445 ], [ 136.9072222, 35.56844445 ], [ 136.9069444, 35.56844445 ], [ 136.9069444, 35.56822222 ], [ 136.9066667, 35.56822222 ], [ 136.9063889, 35.56822222 ], [ 136.9063889, 35.568 ], [ 136.9061111, 35.568 ] ] ] } },
{ "type": "Feature", "properties": { "A31a_401": "8505090098", "A31a_402": "板取川", "A31a_403": "21", "A31a_404": "岐阜県", "A31a_405": 2 }, "geometry": { "type": "Polygon", "coordinates": [ [ [ 136.8977778, 35.576 ], [ 136.8977778, 35.57577778 ], [ 136.8980556, 35.57577778 ], [ 136.8980556, 35.57555556 ], [ 136.8980556, 35.57533333 ], [ 136.8983333, 35.57533333 ], [ 136.8983333, 35.57511111 ], [ 136.8983333, 35.57488889 ], [ 136.8983333, 35.57466667 ], [ 136.8983333, 35.57444445 ], [ 136.8986111, 35.57444445 ], [ 136.8986111, 35.57422222 ], [ 136.8983333, 35.57422222 ], [ 136.8980556, 35.57422222 ], [ 136.8980556, 35.57444445 ], [ 136.8977778, 35.57444445 ], [ 136.8977778, 35.57466667 ], [ 136.8975, 35.57466667 ], [ 136.8975, 35.57488889 ], [ 136.8972222, 35.57488889 ], [ 136.8972222, 35.57511111 ], [ 136.8969444, 35.57511111 ], [ 136.8969444, 35.57533333 ], [ 136.8972222, 35.57533333 ], [ 136.8972222, 35.57555556 ], [ 136.8972222, 35.57577778 ], [ 136.8972222, 35.576 ], [ 136.8972222, 35.57622222 ], [ 136.8972222, 35.57644445 ], [ 136.8972222, 35.57666667 ], [ 136.8972222, 35.57688889 ], [ 136.8972222, 35.57711111 ], [ 136.8972222, 35.57733333 ], [ 136.8972222, 35.57755556 ], [ 136.8975, 35.57755556 ], [ 136.8975, 35.57777778 ], [ 136.8975, 35.578 ], [ 136.8977778, 35.578 ], [ 136.8977778, 35.57777778 ], [ 136.8977778, 35.57755556 ], [ 136.8977778, 35.57733333 ], [ 136.8977778, 35.57711111 ], [ 136.8977778, 35.57688889 ], [ 136.8977778, 35.57666667 ], [ 136.8977778, 35.57644445 ], [ 136.8977778, 35.57622222 ], [ 136.8977778, 35.576 ] ] ] } }
]
}
