{
"type": "FeatureCollection",
"name": "A31a-42-25_21_8505090012_20",
"crs": { "type": "name", "properties": { "name": "urn:ogc:def:crs:EPSG::6668" } },
"xy_coordinate_resolution": 1e-09,
"features": [
{ "type": "Feature", "properties": { "A31a_401": "8505090012", "A31a_402": "桑原川", "A31a_403": "21", "A31a_404": "岐阜県", "A31a_405": 2 }, "geometry": { "type": "Polygon", "coordinates": [ [ [ 136.68628484, 35.299727432 ], [ 136.686176071, 35.298826396 ], [ 136.686077689, 35.297933064 ], [ 136.685994208, 35.297004633 ], [ 136.68589897, 35.296086341 ], [ 136.685543422, 35.29532676 ], [ 136.685004131, 35.294523716 ], [ 136.684515645, 35.293703743 ], [ 136.68422832, 35.292821465 ], [ 136.683987919, 35.291902952 ], [ 136.683890246, 35.290971757 ], [ 136.68374305, 35.290027382 ], [ 136.683640382, 35.289159362 ], [ 136.683799721, 35.288241453 ], [ 136.684010058, 35.287362602 ], [ 136.684232173, 35.286500296 ], [ 136.684407554, 35.285535661 ], [ 136.684706716, 35.284676545 ], [ 136.684805096, 35.283850886 ], [ 136.68465332, 35.282929751 ], [ 136.68465421, 35.282044925 ], [ 136.684653178, 35.281117269 ], [ 136.68489556, 35.280273432 ], [ 136.684712527, 35.279364252 ], [ 136.684343818, 35.278651582 ], [ 136.683670268, 35.277910559 ], [ 136.683075555, 35.277118371 ], [ 136.68254245, 35.276259625 ], [ 136.682654638, 35.275141753 ], [ 136.682821853, 35.274116054 ], [ 136.682594723, 35.273172977 ], [ 136.682357877, 35.272263849 ], [ 136.682131643, 35.271400469 ], [ 136.681923809, 35.270538514 ], [ 136.681589136, 35.269662798 ], [ 136.681262711, 35.268803883 ], [ 136.680936834, 35.267945509 ], [ 136.680610838, 35.267077759 ], [ 136.680292308, 35.266236091 ], [ 136.679958326, 35.265371822 ], [ 136.679643762, 35.264521063 ], [ 136.679314577, 35.263645272 ], [ 136.678987198, 35.262771832 ], [ 136.678629994, 35.261869421 ], [ 136.678323077, 35.261017698 ], [ 136.678004912, 35.260168362 ], [ 136.677700346, 35.259364966 ], [ 136.677399863, 35.258561948 ], [ 136.677061973, 35.257664569 ], [ 136.676735847, 35.256786709 ], [ 136.676388022, 35.255885501 ], [ 136.676075008, 35.25503032 ], [ 136.675781677, 35.254158811 ], [ 136.67552996, 35.253301985 ], [ 136.675268628, 35.252417171 ], [ 136.675041006, 35.251534658 ], [ 136.674760073, 35.250625243 ], [ 136.674509558, 35.249768148 ], [ 136.674290935, 35.248898831 ], [ 136.674030109, 35.248054765 ], [ 136.673798792, 35.247247781 ], [ 136.673565832, 35.246443404 ], [ 136.673327654, 35.245633505 ], [ 136.67326975, 35.244659004 ], [ 136.673232789, 35.243863178 ], [ 136.673012972, 35.243808641 ], [ 136.673039964, 35.244603977 ], [ 136.673137778, 35.245677536 ], [ 136.673368355, 35.24648515 ], [ 136.673688985, 35.247270142 ], [ 136.673924665, 35.248074801 ], [ 136.67412824, 35.24892846 ], [ 136.674401038, 35.249786819 ], [ 136.674656537, 35.250644204 ], [ 136.674887701, 35.251569375 ], [ 136.675170428, 35.252437598 ], [ 136.675428486, 35.253324021 ], [ 136.675692908, 35.254178375 ], [ 136.675981777, 35.255052931 ], [ 136.676298779, 35.255908129 ], [ 136.676649416, 35.256808807 ], [ 136.676977723, 35.257685594 ], [ 136.677316517, 35.258583428 ], [ 136.677612191, 35.259387058 ], [ 136.677920482, 35.260188846 ], [ 136.678180169, 35.261054444 ], [ 136.678543923, 35.261891162 ], [ 136.678899855, 35.262794018 ], [ 136.679229867, 35.263666568 ], [ 136.679429951, 35.264573752 ], [ 136.679867085, 35.265393452 ], [ 136.680197247, 35.266259599 ], [ 136.680513963, 35.26710126 ], [ 136.680838686, 35.267969456 ], [ 136.681163469, 35.268828817 ], [ 136.681440302, 35.26970286 ], [ 136.681718004, 35.270584118 ], [ 136.682004136, 35.271421144 ], [ 136.682247785, 35.272283061 ], [ 136.68248335, 35.273193898 ], [ 136.682713838, 35.274105615 ], [ 136.682545164, 35.27513257 ], [ 136.682439969, 35.276278868 ], [ 136.682991207, 35.277167978 ], [ 136.683588457, 35.277960537 ], [ 136.68426652, 35.278704915 ], [ 136.68461381, 35.279374948 ], [ 136.684801678, 35.280279008 ], [ 136.684548915, 35.28111496 ], [ 136.684557806, 35.282047335 ], [ 136.68455928, 35.282930909 ], [ 136.684698249, 35.283855508 ], [ 136.684608392, 35.284665786 ], [ 136.684304254, 35.285522808 ], [ 136.684038208, 35.286484737 ], [ 136.683865653, 35.287338677 ], [ 136.68364504, 35.288222084 ], [ 136.683470144, 35.289148134 ], [ 136.683621508, 35.29004664 ], [ 136.683720119, 35.290987125 ], [ 136.683895456, 35.291911599 ], [ 136.684150204, 35.292842159 ], [ 136.684391296, 35.293751929 ], [ 136.684860718, 35.294590217 ], [ 136.68546259, 35.295361779 ], [ 136.685796989, 35.296093418 ], [ 136.685884797, 35.297010418 ], [ 136.686001374, 35.297939883 ], [ 136.686101743, 35.298834485 ], [ 136.68619775, 35.299730963 ], [ 136.686191137, 35.300558428 ], [ 136.685823324, 35.301439629 ], [ 136.685462709, 35.302313917 ], [ 136.685124075, 35.303150788 ], [ 136.68485207, 35.304007756 ], [ 136.684297931, 35.304720259 ], [ 136.683739172, 35.305613313 ], [ 136.683634891, 35.306509533 ], [ 136.683337914, 35.307351433 ], [ 136.682945943, 35.308227209 ], [ 136.682557721, 35.309020511 ], [ 136.68248941, 35.309128869 ], [ 136.682613344, 35.309154247 ], [ 136.68266099, 35.309043372 ], [ 136.683013321, 35.308245329 ], [ 136.683455476, 35.307380481 ], [ 136.683750621, 35.306526223 ], [ 136.683855773, 35.305605215 ], [ 136.684384528, 35.304754863 ], [ 136.684950219, 35.304036635 ], [ 136.68522096, 35.303163254 ], [ 136.685555092, 35.302335921 ], [ 136.685917781, 35.301463625 ], [ 136.686273023, 35.300576243 ], [ 136.68628484, 35.299727432 ] ] ] } },
{ "type": "Feature", "properties": { "A31a_401": "8505090012", "A31a_402": "桑原川", "A31a_403": "21", "A31a_404": "岐阜県", "A31a_405": 2 }, "geometry": { "type": "Polygon", "coordinates": [ [ [ 136.686584566, 35.299715461 ], [ 136.68658845, 35.298781246 ], [ 136.686470778, 35.297897845 ], [ 136.686417054, 35.296982333 ], [ 136.686322579, 35.296056742 ], [ 136.685964666, 35.295144348 ], [ 136.685480467, 35.29430276 ], [ 136.685025667, 35.293505911 ], [ 136.684713441, 35.292692951 ], [ 136.684466551, 35.291858434 ], [ 136.684396176, 35.290926177 ], [ 136.684232478, 35.289949733 ], [ 136.684152722, 35.28919305 ], [ 136.684311784, 35.288305521 ], [ 136.684460934, 35.287437333 ], [ 136.684686626, 35.286536636 ], [ 136.684892598, 35.285596373 ], [ 136.685168874, 35.284727068 ], [ 136.685328436, 35.283828359 ], [ 136.685124779, 35.282923877 ], [ 136.685127967, 35.282033109 ], [ 136.685117458, 35.281127683 ], [ 136.685355159, 35.280246504 ], [ 136.685172621, 35.279314158 ], [ 136.684694606, 35.278409934 ], [ 136.684043279, 35.277682524 ], [ 136.683460251, 35.276891827 ], [ 136.683001109, 35.276173653 ], [ 136.683108384, 35.275179628 ], [ 136.683295765, 35.274161852 ], [ 136.68304801, 35.273087975 ], [ 136.682809761, 35.272185153 ], [ 136.682598281, 35.271324988 ], [ 136.682490652, 35.27041277 ], [ 136.682057971, 35.269536663 ], [ 136.681729494, 35.268686666 ], [ 136.681400324, 35.267832337 ], [ 136.681090026, 35.266961405 ], [ 136.680832156, 35.266102132 ], [ 136.680549245, 35.26523176 ], [ 136.68015327, 35.264395549 ], [ 136.679789776, 35.263525933 ], [ 136.679438069, 35.262657354 ], [ 136.679112906, 35.261747411 ], [ 136.678825699, 35.260888376 ], [ 136.678463726, 35.260057255 ], [ 136.678153461, 35.259251314 ], [ 136.677851358, 35.258445765 ], [ 136.677510535, 35.257552793 ], [ 136.677188782, 35.256670535 ], [ 136.676867272, 35.255764116 ], [ 136.676642365, 35.254892976 ], [ 136.676335157, 35.254037008 ], [ 136.676019258, 35.253195518 ], [ 136.675772684, 35.252312569 ], [ 136.675565537, 35.251415806 ], [ 136.675275659, 35.250530966 ], [ 136.675024379, 35.249679369 ], [ 136.674776564, 35.248810385 ], [ 136.674560761, 35.247954333 ], [ 136.674354624, 35.24713438 ], [ 136.674138293, 35.246322228 ], [ 136.673928407, 35.245493965 ], [ 136.673821271, 35.24479107 ], [ 136.674243456, 35.24411386 ], [ 136.674142371, 35.244088746 ], [ 136.673667958, 35.244754385 ], [ 136.673721377, 35.245542074 ], [ 136.673959329, 35.246360085 ], [ 136.674188463, 35.247168232 ], [ 136.674421019, 35.24798072 ], [ 136.674670399, 35.248829697 ], [ 136.674921395, 35.249697161 ], [ 136.675171306, 35.250550015 ], [ 136.675407149, 35.251451764 ], [ 136.675662596, 35.252335382 ], [ 136.675910977, 35.25321906 ], [ 136.676448372, 35.254939971 ], [ 136.676756876, 35.255792067 ], [ 136.677099446, 35.256693433 ], [ 136.677427012, 35.257573641 ], [ 136.67776901, 35.258466979 ], [ 136.678070934, 35.259272076 ], [ 136.678378207, 35.260077915 ], [ 136.678690872, 35.260923081 ], [ 136.679027107, 35.261769153 ], [ 136.679355901, 35.262678209 ], [ 136.679684548, 35.263552375 ], [ 136.680017811, 35.264428902 ], [ 136.680339439, 35.265281491 ], [ 136.680660739, 35.266144626 ], [ 136.680977445, 35.26698872 ], [ 136.681299634, 35.267856905 ], [ 136.681622353, 35.268713552 ], [ 136.681949909, 35.26956571 ], [ 136.682284847, 35.270458375 ], [ 136.682490559, 35.271342407 ], [ 136.682712648, 35.272202074 ], [ 136.682946168, 35.273107041 ], [ 136.683188566, 35.274151507 ], [ 136.683004528, 35.275171009 ], [ 136.682900807, 35.276192454 ], [ 136.68337008, 35.276944927 ], [ 136.683961467, 35.277732593 ], [ 136.684618128, 35.278462549 ], [ 136.685070094, 35.27932529 ], [ 136.685253931, 35.280252411 ], [ 136.685018362, 35.281125485 ], [ 136.685025758, 35.282035677 ], [ 136.68502548, 35.282925104 ], [ 136.685168347, 35.283835294 ], [ 136.685070369, 35.284716308 ], [ 136.684765468, 35.28558045 ], [ 136.684586833, 35.286528665 ], [ 136.684360194, 35.287420704 ], [ 136.684213103, 35.288293137 ], [ 136.684004421, 35.289183263 ], [ 136.684097502, 35.289971101 ], [ 136.68422614, 35.290941455 ], [ 136.684310574, 35.291872958 ], [ 136.684569201, 35.292731232 ], [ 136.684851416, 35.293573462 ], [ 136.685308137, 35.294382669 ], [ 136.685829099, 35.295203129 ], [ 136.686223865, 35.296063653 ], [ 136.686318983, 35.296987443 ], [ 136.68639782, 35.297904406 ], [ 136.686455042, 35.298795862 ], [ 136.686500742, 35.299718824 ], [ 136.686485249, 35.300622251 ], [ 136.686128151, 35.301517108 ], [ 136.685774269, 35.302388178 ], [ 136.685501095, 35.303199077 ], [ 136.685171682, 35.304101794 ], [ 136.684626937, 35.304851839 ], [ 136.684184517, 35.305582457 ], [ 136.684043516, 35.306568681 ], [ 136.683694671, 35.307439493 ], [ 136.683237633, 35.308305905 ], [ 136.682831832, 35.309081378 ], [ 136.682771159, 35.309186521 ], [ 136.682895095, 35.309211809 ], [ 136.682935101, 35.309104329 ], [ 136.683305012, 35.308324025 ], [ 136.683780715, 35.307460752 ], [ 136.68413079, 35.30658129 ], [ 136.684310373, 35.305573764 ], [ 136.684711543, 35.304885713 ], [ 136.685250727, 35.304125098 ], [ 136.685581939, 35.303209406 ], [ 136.68585669, 35.302407799 ], [ 136.686214185, 35.301538997 ], [ 136.686570305, 35.300640709 ], [ 136.686584566, 35.299715461 ] ] ] } }
]
}
