{
"type": "FeatureCollection",
"name": "A31a-30-25_21_8505090098_20",
"crs": { "type": "name", "properties": { "name": "urn:ogc:def:crs:EPSG::6668" } },
"xy_coordinate_resolution": 1e-09,
"features": [
{ "type": "Feature", "properties": { "A31a_301": "8505090098", "A31a_302": "板取川", "A31a_303": "21", "A31a_304": "岐阜県", "A31a_305": 1 }, "geometry": { "type": "Polygon", "coordinates": [ [ [ 136.899722694, 35.569333022 ], [ 136.899722695, 35.569555251 ], [ 136.899444894, 35.569555251 ], [ 136.899444894, 35.56977747 ], [ 136.899167193, 35.56977747 ], [ 136.899167194, 35.56999969 ], [ 136.899167194, 35.570221909 ], [ 136.898889393, 35.570221909 ], [ 136.898889394, 35.570444128 ], [ 136.898611593, 35.570444128 ], [ 136.898611593, 35.570666357 ], [ 136.898611593, 35.570888577 ], [ 136.898333793, 35.570888577 ], [ 136.898333793, 35.571110796 ], [ 136.898333793, 35.571333015 ], [ 136.898333794, 35.571555245 ], [ 136.898056093, 35.571555244 ], [ 136.898056093, 35.571777464 ], [ 136.898056093, 35.571999683 ], [ 136.897778293, 35.571999683 ], [ 136.897778293, 35.572221902 ], [ 136.897778293, 35.572444122 ], [ 136.897500493, 35.572444122 ], [ 136.897500493, 35.572666351 ], [ 136.897500493, 35.57288857 ], [ 136.897500493, 35.57311079 ], [ 136.897222693, 35.573110789 ], [ 136.897222693, 35.573333009 ], [ 136.897222693, 35.573555238 ], [ 136.897222694, 35.573777457 ], [ 136.897222694, 35.573999677 ], [ 136.897222694, 35.574221896 ], [ 136.897222695, 35.574444115 ], [ 136.897222695, 35.574666345 ], [ 136.897222695, 35.574888564 ], [ 136.897222696, 35.575110783 ], [ 136.897222696, 35.575333003 ], [ 136.897222696, 35.575555232 ], [ 136.897500497, 35.575555232 ], [ 136.897500497, 35.575777452 ], [ 136.897222696, 35.575777452 ], [ 136.897222697, 35.575999671 ], [ 136.897222697, 35.576221891 ], [ 136.897500498, 35.576221891 ], [ 136.897500498, 35.57644411 ], [ 136.897500498, 35.576666339 ], [ 136.897500499, 35.576888559 ], [ 136.897500499, 35.577110778 ], [ 136.897500499, 35.577332998 ], [ 136.8975005, 35.577555227 ], [ 136.8975005, 35.577777446 ], [ 136.8975005, 35.577999666 ], [ 136.897778301, 35.577999666 ], [ 136.897778301, 35.577777447 ], [ 136.8977783, 35.577555227 ], [ 136.8977783, 35.577332998 ], [ 136.8977783, 35.577110778 ], [ 136.897778299, 35.576888559 ], [ 136.897778299, 35.57666634 ], [ 136.897778299, 35.57644411 ], [ 136.897778298, 35.576221891 ], [ 136.897778298, 35.575999671 ], [ 136.898056099, 35.575999671 ], [ 136.898056099, 35.575777452 ], [ 136.898056098, 35.575555233 ], [ 136.898333799, 35.575555233 ], [ 136.898333799, 35.575333003 ], [ 136.898333798, 35.575110784 ], [ 136.898333798, 35.574888565 ], [ 136.898333798, 35.574666345 ], [ 136.898333798, 35.574444116 ], [ 136.898611598, 35.574444116 ], [ 136.898611598, 35.574221897 ], [ 136.898611598, 35.573999677 ], [ 136.898611597, 35.573777458 ], [ 136.898611597, 35.573555239 ], [ 136.898611597, 35.573333009 ], [ 136.898611596, 35.57311079 ], [ 136.898611596, 35.572888571 ], [ 136.898611596, 35.572666351 ], [ 136.898889397, 35.572666352 ], [ 136.898889396, 35.572444122 ], [ 136.898889396, 35.572221903 ], [ 136.898889396, 35.571999684 ], [ 136.898889395, 35.571777464 ], [ 136.898889395, 35.571555245 ], [ 136.899167196, 35.571555245 ], [ 136.899167196, 35.571333016 ], [ 136.899167195, 35.571110796 ], [ 136.899167195, 35.570888577 ], [ 136.899167195, 35.570666358 ], [ 136.899444895, 35.570666358 ], [ 136.899444895, 35.570444128 ], [ 136.899444895, 35.570221909 ], [ 136.899444895, 35.56999969 ], [ 136.899722695, 35.56999969 ], [ 136.899722695, 35.569777471 ], [ 136.900000496, 35.569777471 ], [ 136.900000496, 35.569555251 ], [ 136.900278297, 35.569555251 ], [ 136.900278296, 35.569333022 ], [ 136.900000495, 35.569333022 ], [ 136.899722694, 35.569333022 ] ] ] } },
{ "type": "Feature", "properties": { "A31a_301": "8505090098", "A31a_302": "板取川", "A31a_303": "21", "A31a_304": "岐阜県", "A31a_305": 1 }, "geometry": { "type": "Polygon", "coordinates": [ [ [ 136.8988894, 35.574888565 ], [ 136.8988894, 35.575110784 ], [ 136.899167201, 35.575110784 ], [ 136.8991672, 35.574888565 ], [ 136.8988894, 35.574888565 ] ] ] } },
{ "type": "Feature", "properties": { "A31a_301": "8505090098", "A31a_302": "板取川", "A31a_303": "21", "A31a_304": "岐阜県", "A31a_305": 1 }, "geometry": { "type": "Polygon", "coordinates": [ [ [ 136.898611602, 35.577110779 ], [ 136.898611602, 35.577332998 ], [ 136.898611602, 35.577555228 ], [ 136.898333802, 35.577555227 ], [ 136.898333802, 35.577777447 ], [ 136.898333802, 35.577999666 ], [ 136.898333803, 35.578221886 ], [ 136.898611603, 35.578221886 ], [ 136.898611604, 35.578444105 ], [ 136.898889404, 35.578444105 ], [ 136.898889405, 35.578666335 ], [ 136.898889405, 35.578888554 ], [ 136.899167206, 35.578888554 ], [ 136.899167206, 35.579110774 ], [ 136.899444907, 35.579110774 ], [ 136.899722708, 35.579110774 ], [ 136.899722708, 35.579332993 ], [ 136.899444907, 35.579332993 ], [ 136.899444907, 35.579555223 ], [ 136.899444908, 35.579777442 ], [ 136.899722708, 35.579777442 ], [ 136.899722709, 35.579999662 ], [ 136.899722709, 35.580221881 ], [ 136.90000051, 35.580221881 ], [ 136.90000051, 35.5804441 ], [ 136.90000051, 35.58066633 ], [ 136.900278311, 35.58066633 ], [ 136.900278312, 35.580888549 ], [ 136.900278312, 35.581110769 ], [ 136.900278312, 35.581332988 ], [ 136.900278313, 35.581555218 ], [ 136.900278313, 35.581777437 ], [ 136.900278313, 35.581999656 ], [ 136.900278313, 35.582221876 ], [ 136.900278314, 35.582444095 ], [ 136.900278314, 35.582666325 ], [ 136.900278314, 35.582888544 ], [ 136.900556115, 35.582888544 ], [ 136.900556115, 35.582666325 ], [ 136.900556115, 35.582444095 ], [ 136.900833816, 35.582444095 ], [ 136.900833815, 35.582221876 ], [ 136.900833815, 35.581999656 ], [ 136.900556114, 35.581999656 ], [ 136.900556114, 35.581777437 ], [ 136.900556113, 35.581555218 ], [ 136.900556113, 35.581332988 ], [ 136.900556113, 35.581110769 ], [ 136.900556113, 35.580888549 ], [ 136.900556112, 35.58066633 ], [ 136.900833813, 35.58066633 ], [ 136.901111614, 35.58066633 ], [ 136.901111614, 35.5804441 ], [ 136.901389415, 35.5804441 ], [ 136.901667216, 35.5804441 ], [ 136.901944917, 35.5804441 ], [ 136.901944917, 35.580221881 ], [ 136.901667216, 35.580221881 ], [ 136.901389415, 35.580221881 ], [ 136.901389414, 35.579999662 ], [ 136.901389414, 35.579777442 ], [ 136.901389414, 35.579555223 ], [ 136.901667215, 35.579555223 ], [ 136.901667214, 35.579332993 ], [ 136.901389413, 35.579332993 ], [ 136.901389413, 35.579110774 ], [ 136.901111612, 35.579110774 ], [ 136.901111612, 35.578888555 ], [ 136.900833811, 35.578888555 ], [ 136.90055611, 35.578888555 ], [ 136.900278309, 35.578888555 ], [ 136.900278309, 35.578666335 ], [ 136.900000508, 35.578666335 ], [ 136.899722707, 35.578666335 ], [ 136.899722707, 35.578444106 ], [ 136.899722706, 35.578221886 ], [ 136.899444906, 35.578221886 ], [ 136.899444905, 35.577999667 ], [ 136.899167205, 35.577999667 ], [ 136.899167204, 35.577777447 ], [ 136.898889404, 35.577777447 ], [ 136.898889403, 35.577555228 ], [ 136.898889403, 35.577332998 ], [ 136.899167204, 35.577332998 ], [ 136.899167203, 35.577110779 ], [ 136.898889403, 35.577110779 ], [ 136.898611602, 35.577110779 ] ], [ [ 136.90027831, 35.579777442 ], [ 136.900556111, 35.579777442 ], [ 136.900833812, 35.579777442 ], [ 136.900833812, 35.579999662 ], [ 136.900833813, 35.580221881 ], [ 136.900556112, 35.580221881 ], [ 136.900278311, 35.580221881 ], [ 136.90027831, 35.579999662 ], [ 136.90027831, 35.579777442 ] ], [ [ 136.900000509, 35.579332993 ], [ 136.90027831, 35.579332993 ], [ 136.90027831, 35.579555223 ], [ 136.90027831, 35.579777442 ], [ 136.900000509, 35.579777442 ], [ 136.900000509, 35.579555223 ], [ 136.900000509, 35.579332993 ] ] ] } },
{ "type": "Feature", "properties": { "A31a_301": "8505090098", "A31a_302": "板取川", "A31a_303": "21", "A31a_304": "岐阜県", "A31a_305": 1 }, "geometry": { "type": "Polygon", "coordinates": [ [ [ 136.906111614, 35.567333027 ], [ 136.906111615, 35.567555256 ], [ 136.906389416, 35.567555256 ], [ 136.906667217, 35.567555256 ], [ 136.906667216, 35.567333027 ], [ 136.906389415, 35.567333027 ], [ 136.906111614, 35.567333027 ] ] ] } },
{ "type": "Feature", "properties": { "A31a_301": "8505090098", "A31a_302": "板取川", "A31a_303": "21", "A31a_304": "岐阜県", "A31a_305": 1 }, "geometry": { "type": "Polygon", "coordinates": [ [ [ 136.907222719, 35.567555256 ], [ 136.907222719, 35.567777475 ], [ 136.90750052, 35.567777475 ], [ 136.90750052, 35.567555256 ], [ 136.907222719, 35.567555256 ] ] ] } },
{ "type": "Feature", "properties": { "A31a_301": "8505090098", "A31a_302": "板取川", "A31a_303": "21", "A31a_304": "岐阜県", "A31a_305": 1 }, "geometry": { "type": "Polygon", "coordinates": [ [ [ 136.913333844, 35.569555249 ], [ 136.913333844, 35.569777468 ], [ 136.913611645, 35.569777468 ], [ 136.913889447, 35.569777468 ], [ 136.913889446, 35.569555249 ], [ 136.913611645, 35.569555249 ], [ 136.913333844, 35.569555249 ] ] ] } },
{ "type": "Feature", "properties": { "A31a_301": "8505090098", "A31a_302": "板取川", "A31a_303": "21", "A31a_304": "岐阜県", "A31a_305": 1 }, "geometry": { "type": "Polygon", "coordinates": [ [ [ 136.914167248, 35.569555249 ], [ 136.914167248, 35.569777468 ], [ 136.914444949, 35.569777468 ], [ 136.914444949, 35.569555248 ], [ 136.914167248, 35.569555249 ] ] ] } },
{ "type": "Feature", "properties": { "A31a_301": "8505090098", "A31a_302": "板取川", "A31a_303": "21", "A31a_304": "岐阜県", "A31a_305": 1 }, "geometry": { "type": "Polygon", "coordinates": [ [ [ 136.911389436, 35.56955525 ], [ 136.911389436, 35.569777469 ], [ 136.911111635, 35.569777469 ], [ 136.911111636, 35.569999689 ], [ 136.911389437, 35.569999688 ], [ 136.911389437, 35.570221908 ], [ 136.911667238, 35.570221908 ], [ 136.911944939, 35.570221908 ], [ 136.911944939, 35.569999688 ], [ 136.911944938, 35.569777469 ], [ 136.911944938, 35.56955525 ], [ 136.911667237, 35.56955525 ], [ 136.911389436, 35.56955525 ] ] ] } },
{ "type": "Feature", "properties": { "A31a_301": "8505090098", "A31a_302": "板取川", "A31a_303": "21", "A31a_304": "岐阜県", "A31a_305": 1 }, "geometry": { "type": "Polygon", "coordinates": [ [ [ 136.911389438, 35.571333015 ], [ 136.911389439, 35.571555244 ], [ 136.91166724, 35.571555244 ], [ 136.911667239, 35.571333015 ], [ 136.911389438, 35.571333015 ] ] ] } },
{ "type": "Feature", "properties": { "A31a_301": "8505090098", "A31a_302": "板取川", "A31a_303": "21", "A31a_304": "岐阜県", "A31a_305": 1 }, "geometry": { "type": "Polygon", "coordinates": [ [ [ 136.911111637, 35.571110796 ], [ 136.911111637, 35.571333015 ], [ 136.911389438, 35.571333015 ], [ 136.911389438, 35.571110795 ], [ 136.911111637, 35.571110796 ] ] ] } },
{ "type": "Feature", "properties": { "A31a_301": "8505090098", "A31a_302": "板取川", "A31a_303": "21", "A31a_304": "岐阜県", "A31a_305": 1 }, "geometry": { "type": "Polygon", "coordinates": [ [ [ 136.911111639, 35.572444122 ], [ 136.911111639, 35.572666351 ], [ 136.911111639, 35.572888571 ], [ 136.91138944, 35.572888571 ], [ 136.91138944, 35.572666351 ], [ 136.91138944, 35.572444122 ], [ 136.911111639, 35.572444122 ] ] ] } },
{ "type": "Feature", "properties": { "A31a_301": "8505090098", "A31a_302": "板取川", "A31a_303": "21", "A31a_304": "岐阜県", "A31a_305": 1 }, "geometry": { "type": "Polygon", "coordinates": [ [ [ 136.913889446, 35.569333019 ], [ 136.913889446, 35.569555249 ], [ 136.914167248, 35.569555249 ], [ 136.914167247, 35.569333019 ], [ 136.913889446, 35.569333019 ] ] ] } },
{ "type": "Feature", "properties": { "A31a_301": "8505090098", "A31a_302": "板取川", "A31a_303": "21", "A31a_304": "岐阜県", "A31a_305": 1 }, "geometry": { "type": "Polygon", "coordinates": [ [ [ 136.900278296, 35.569110803 ], [ 136.900278296, 35.569333022 ], [ 136.900556097, 35.569333022 ], [ 136.900556097, 35.569110803 ], [ 136.900278296, 35.569110803 ] ] ] } },
{ "type": "Feature", "properties": { "A31a_301": "8505090098", "A31a_302": "板取川", "A31a_303": "21", "A31a_304": "岐阜県", "A31a_305": 1 }, "geometry": { "type": "Polygon", "coordinates": [ [ [ 136.904167208, 35.567555257 ], [ 136.904167208, 35.567777476 ], [ 136.903889407, 35.567777476 ], [ 136.903611606, 35.567777476 ], [ 136.903611606, 35.567999695 ], [ 136.903333805, 35.567999695 ], [ 136.903056104, 35.567999695 ], [ 136.903056105, 35.568221915 ], [ 136.902778304, 35.568221915 ], [ 136.902500503, 35.568221915 ], [ 136.902500503, 35.568444134 ], [ 136.902500503, 35.568666364 ], [ 136.902222702, 35.568666364 ], [ 136.901944901, 35.568666364 ], [ 136.901944902, 35.568888583 ], [ 136.901944902, 35.569110802 ], [ 136.901667201, 35.569110802 ], [ 136.901667201, 35.569333022 ], [ 136.9013894, 35.569333022 ], [ 136.901111599, 35.569333022 ], [ 136.900833798, 35.569333022 ], [ 136.900833798, 35.569555251 ], [ 136.900833799, 35.569777471 ], [ 136.900833799, 35.56999969 ], [ 136.900556098, 35.56999969 ], [ 136.900556098, 35.570221909 ], [ 136.900278297, 35.570221909 ], [ 136.900278298, 35.570444129 ], [ 136.900278298, 35.570666358 ], [ 136.900278298, 35.570888577 ], [ 136.900000497, 35.570888577 ], [ 136.900000498, 35.571110797 ], [ 136.900000498, 35.571333016 ], [ 136.900000498, 35.571555245 ], [ 136.899722697, 35.571555245 ], [ 136.899722698, 35.571777465 ], [ 136.899722698, 35.571999684 ], [ 136.899722698, 35.572221903 ], [ 136.899444898, 35.572221903 ], [ 136.899444898, 35.572444122 ], [ 136.899444898, 35.572666352 ], [ 136.899444898, 35.572888571 ], [ 136.899722699, 35.572888571 ], [ 136.899722699, 35.572666352 ], [ 136.899722699, 35.572444123 ], [ 136.900000499, 35.572444123 ], [ 136.900000499, 35.572221903 ], [ 136.900000499, 35.571999684 ], [ 136.9002783, 35.571999684 ], [ 136.900278299, 35.571777465 ], [ 136.900278299, 35.571555245 ], [ 136.900278299, 35.571333016 ], [ 136.900278299, 35.571110797 ], [ 136.9005561, 35.571110797 ], [ 136.900556099, 35.570888577 ], [ 136.9008338, 35.570888577 ], [ 136.9008338, 35.570666358 ], [ 136.901111601, 35.570666358 ], [ 136.901111601, 35.570444129 ], [ 136.901389402, 35.570444128 ], [ 136.901667203, 35.570444128 ], [ 136.901667202, 35.570221909 ], [ 136.901944903, 35.570221909 ], [ 136.902222704, 35.570221909 ], [ 136.902222704, 35.56999969 ], [ 136.902500505, 35.56999969 ], [ 136.902500505, 35.56977747 ], [ 136.902778306, 35.56977747 ], [ 136.902778305, 35.569555251 ], [ 136.903056106, 35.569555251 ], [ 136.903056106, 35.569333022 ], [ 136.903333807, 35.569333021 ], [ 136.903333807, 35.569110802 ], [ 136.903333806, 35.568888583 ], [ 136.903611607, 35.568888583 ], [ 136.903611607, 35.568666363 ], [ 136.903889408, 35.568666363 ], [ 136.903889408, 35.568444134 ], [ 136.903889408, 35.568221915 ], [ 136.904167209, 35.568221915 ], [ 136.90444491, 35.568221915 ], [ 136.904722711, 35.568221914 ], [ 136.905000512, 35.568221914 ], [ 136.905278313, 35.568221914 ], [ 136.905278313, 35.568444134 ], [ 136.905556114, 35.568444134 ], [ 136.905556113, 35.568221914 ], [ 136.905833814, 35.568221914 ], [ 136.906111615, 35.568221914 ], [ 136.906111616, 35.568444134 ], [ 136.906389417, 35.568444134 ], [ 136.906667218, 35.568444134 ], [ 136.906667218, 35.568666363 ], [ 136.906667218, 35.568888582 ], [ 136.906944919, 35.568888582 ], [ 136.90694492, 35.569110802 ], [ 136.907222721, 35.569110802 ], [ 136.907222721, 35.569333021 ], [ 136.907222721, 35.56955525 ], [ 136.907222721, 35.56977747 ], [ 136.907222722, 35.569999689 ], [ 136.907222722, 35.570221908 ], [ 136.907222722, 35.570444128 ], [ 136.907500523, 35.570444128 ], [ 136.907500524, 35.570666357 ], [ 136.907500524, 35.570888577 ], [ 136.907778325, 35.570888576 ], [ 136.907778325, 35.571110796 ], [ 136.908056126, 35.571110796 ], [ 136.908056127, 35.571333015 ], [ 136.908056127, 35.571555245 ], [ 136.908333828, 35.571555245 ], [ 136.908333828, 35.571777464 ], [ 136.908611629, 35.571777464 ], [ 136.90888943, 35.571777464 ], [ 136.90888943, 35.571999683 ], [ 136.908889431, 35.572221903 ], [ 136.909167232, 35.572221903 ], [ 136.909167232, 35.572444122 ], [ 136.909444933, 35.572444122 ], [ 136.909444933, 35.572666351 ], [ 136.909722734, 35.572666351 ], [ 136.910000535, 35.572666351 ], [ 136.910278336, 35.572666351 ], [ 136.910556137, 35.572666351 ], [ 136.910833838, 35.572666351 ], [ 136.910833838, 35.572444122 ], [ 136.911111639, 35.572444122 ], [ 136.911111639, 35.572221903 ], [ 136.910833838, 35.572221903 ], [ 136.910833837, 35.571999683 ], [ 136.910556136, 35.571999683 ], [ 136.910556136, 35.571777464 ], [ 136.910278335, 35.571777464 ], [ 136.910278335, 35.571555244 ], [ 136.910278334, 35.571333015 ], [ 136.910000533, 35.571333015 ], [ 136.910000533, 35.571110796 ], [ 136.910278334, 35.571110796 ], [ 136.910278334, 35.570888576 ], [ 136.910000533, 35.570888576 ], [ 136.909722732, 35.570888576 ], [ 136.909444931, 35.570888576 ], [ 136.909444931, 35.570666357 ], [ 136.909722732, 35.570666357 ], [ 136.910000533, 35.570666357 ], [ 136.910278334, 35.570666357 ], [ 136.910278334, 35.570888576 ], [ 136.910556135, 35.570888576 ], [ 136.910556135, 35.571110796 ], [ 136.910833836, 35.571110796 ], [ 136.911111637, 35.571110796 ], [ 136.911111637, 35.570888576 ], [ 136.910833836, 35.570888576 ], [ 136.910833836, 35.570666357 ], [ 136.910556135, 35.570666357 ], [ 136.910556134, 35.570444127 ], [ 136.910278333, 35.570444127 ], [ 136.910278333, 35.570221908 ], [ 136.910000532, 35.570221908 ], [ 136.909722731, 35.570221908 ], [ 136.909722731, 35.569999689 ], [ 136.90944493, 35.569999689 ], [ 136.909444929, 35.569777469 ], [ 136.909167228, 35.569777469 ], [ 136.909167228, 35.56955525 ], [ 136.908889427, 35.56955525 ], [ 136.908889427, 35.569333021 ], [ 136.908611626, 35.569333021 ], [ 136.908333825, 35.569333021 ], [ 136.908333825, 35.569110801 ], [ 136.908056124, 35.569110801 ], [ 136.908056123, 35.568888582 ], [ 136.907778322, 35.568888582 ], [ 136.907778322, 35.568666363 ], [ 136.907500521, 35.568666363 ], [ 136.90722272, 35.568666363 ], [ 136.90722272, 35.568444133 ], [ 136.906944919, 35.568444133 ], [ 136.906944918, 35.568221914 ], [ 136.906667217, 35.568221914 ], [ 136.906389416, 35.568221914 ], [ 136.906389416, 35.567999695 ], [ 136.906111615, 35.567999695 ], [ 136.905833814, 35.567999695 ], [ 136.905556113, 35.567999695 ], [ 136.905278312, 35.567999695 ], [ 136.905278312, 35.567777476 ], [ 136.905000511, 35.567777476 ], [ 136.905000511, 35.567555256 ], [ 136.90472271, 35.567555256 ], [ 136.904444909, 35.567555256 ], [ 136.904167208, 35.567555257 ] ], [ [ 136.908333825, 35.56955525 ], [ 136.908611626, 35.56955525 ], [ 136.908611626, 35.569777469 ], [ 136.908333825, 35.56977747 ], [ 136.908333825, 35.56955525 ] ] ] } },
{ "type": "Feature", "properties": { "A31a_301": "8505090098", "A31a_302": "板取川", "A31a_303": "21", "A31a_304": "岐阜県", "A31a_305": 1 }, "geometry": { "type": "Polygon", "coordinates": [ [ [ 136.911389423, 35.561110822 ], [ 136.911389423, 35.561333042 ], [ 136.911111622, 35.561333042 ], [ 136.911111622, 35.561555271 ], [ 136.911111623, 35.561777491 ], [ 136.911111623, 35.56199971 ], [ 136.911111624, 35.56222193 ], [ 136.911111624, 35.562444149 ], [ 136.911111624, 35.562666378 ], [ 136.910833823, 35.562666378 ], [ 136.910833824, 35.562888598 ], [ 136.910833824, 35.563110817 ], [ 136.910556123, 35.563110817 ], [ 136.910278322, 35.563110817 ], [ 136.910278322, 35.563333037 ], [ 136.910000521, 35.563333037 ], [ 136.910000522, 35.563555266 ], [ 136.909722721, 35.563555266 ], [ 136.909722721, 35.563777486 ], [ 136.909722722, 35.563999705 ], [ 136.910000523, 35.563999705 ], [ 136.910000523, 35.564221924 ], [ 136.910278324, 35.564221924 ], [ 136.910278324, 35.564444144 ], [ 136.910556125, 35.564444144 ], [ 136.910556126, 35.564666373 ], [ 136.910833827, 35.564666373 ], [ 136.910833827, 35.564888592 ], [ 136.911111628, 35.564888592 ], [ 136.911111629, 35.565110812 ], [ 136.91138943, 35.565110812 ], [ 136.911667231, 35.565110812 ], [ 136.911667231, 35.565333031 ], [ 136.911944932, 35.565333031 ], [ 136.911944932, 35.56555526 ], [ 136.912222733, 35.56555526 ], [ 136.912222734, 35.56577748 ], [ 136.912222734, 35.565999699 ], [ 136.912500535, 35.565999699 ], [ 136.912500535, 35.566221918 ], [ 136.912778337, 35.566221918 ], [ 136.913056138, 35.566221918 ], [ 136.913056138, 35.566444137 ], [ 136.91333384, 35.566444137 ], [ 136.91333384, 35.566666367 ], [ 136.91333384, 35.566888586 ], [ 136.913611642, 35.566888586 ], [ 136.913611642, 35.567110805 ], [ 136.913611642, 35.567333025 ], [ 136.913889443, 35.567333025 ], [ 136.913889444, 35.567555254 ], [ 136.913889444, 35.567777473 ], [ 136.914167245, 35.567777473 ], [ 136.914167246, 35.567999693 ], [ 136.914167246, 35.568221912 ], [ 136.914167246, 35.568444131 ], [ 136.914444947, 35.568444131 ], [ 136.914444948, 35.568666361 ], [ 136.914444948, 35.56888858 ], [ 136.914444948, 35.5691108 ], [ 136.914167247, 35.5691108 ], [ 136.914167247, 35.569333019 ], [ 136.914444949, 35.569333019 ], [ 136.91472275, 35.569333019 ], [ 136.915000551, 35.569333019 ], [ 136.915000551, 35.569110799 ], [ 136.915278352, 35.569110799 ], [ 136.915278352, 35.569333018 ], [ 136.915556154, 35.569333018 ], [ 136.915556153, 35.569110799 ], [ 136.915833855, 35.569110799 ], [ 136.915833854, 35.568888579 ], [ 136.915556153, 35.568888579 ], [ 136.915556153, 35.56866636 ], [ 136.915556153, 35.568444131 ], [ 136.915278351, 35.568444131 ], [ 136.91500055, 35.568444131 ], [ 136.914722749, 35.568444131 ], [ 136.914722748, 35.568221912 ], [ 136.91500055, 35.568221912 ], [ 136.915278351, 35.568221911 ], [ 136.915278351, 35.567999692 ], [ 136.915556152, 35.567999692 ], [ 136.915833853, 35.567999692 ], [ 136.915833853, 35.567777472 ], [ 136.915833853, 35.567555253 ], [ 136.915556151, 35.567555253 ], [ 136.91527835, 35.567555253 ], [ 136.91527835, 35.567777472 ], [ 136.915000549, 35.567777473 ], [ 136.915000549, 35.567555253 ], [ 136.914722748, 35.567555253 ], [ 136.914722747, 35.567333024 ], [ 136.914444946, 35.567333024 ], [ 136.914444946, 35.567110805 ], [ 136.914444945, 35.566888585 ], [ 136.914167244, 35.566888586 ], [ 136.914167244, 35.566666366 ], [ 136.914444945, 35.566666366 ], [ 136.914444945, 35.566444137 ], [ 136.914167244, 35.566444137 ], [ 136.914167243, 35.566221917 ], [ 136.914444944, 35.566221917 ], [ 136.914444944, 35.565999698 ], [ 136.914167243, 35.565999698 ], [ 136.913889442, 35.565999698 ], [ 136.913889441, 35.565777479 ], [ 136.91361164, 35.565777479 ], [ 136.913611639, 35.565555259 ], [ 136.913333838, 35.56555526 ], [ 136.913056137, 35.56555526 ], [ 136.912778336, 35.56555526 ], [ 136.912778335, 35.565333031 ], [ 136.912778335, 35.565110811 ], [ 136.912778334, 35.564888592 ], [ 136.912778334, 35.564666372 ], [ 136.912778334, 35.564444143 ], [ 136.912500532, 35.564444143 ], [ 136.912500532, 35.564221924 ], [ 136.912500532, 35.563999704 ], [ 136.912222731, 35.563999704 ], [ 136.91222273, 35.563777485 ], [ 136.911944929, 35.563777485 ], [ 136.911944929, 35.563555266 ], [ 136.911944929, 35.563333036 ], [ 136.911667228, 35.563333036 ], [ 136.911667227, 35.563110817 ], [ 136.911667227, 35.562888598 ], [ 136.911389426, 35.562888598 ], [ 136.911389425, 35.562666378 ], [ 136.911389425, 35.562444149 ], [ 136.911389425, 35.562221929 ], [ 136.911389424, 35.56199971 ], [ 136.911389424, 35.561777491 ], [ 136.911667225, 35.561777491 ], [ 136.911667225, 35.561555271 ], [ 136.911667224, 35.561333042 ], [ 136.911667224, 35.561110822 ], [ 136.911389423, 35.561110822 ] ] ] } },
{ "type": "Feature", "properties": { "A31a_301": "8505090098", "A31a_302": "板取川", "A31a_303": "21", "A31a_304": "岐阜県", "A31a_305": 1 }, "geometry": { "type": "Polygon", "coordinates": [ [ [ 136.919167271, 35.569777465 ], [ 136.919167271, 35.569999684 ], [ 136.919167271, 35.570221904 ], [ 136.91888947, 35.570221904 ], [ 136.91888947, 35.570444124 ], [ 136.918611669, 35.570444124 ], [ 136.918611669, 35.570666353 ], [ 136.91861167, 35.570888573 ], [ 136.918333868, 35.570888573 ], [ 136.918333869, 35.571110792 ], [ 136.918056167, 35.571110792 ], [ 136.917778366, 35.571110792 ], [ 136.917778366, 35.571333012 ], [ 136.917500565, 35.571333012 ], [ 136.917500565, 35.571555242 ], [ 136.917222764, 35.571555242 ], [ 136.916944963, 35.571555242 ], [ 136.916667262, 35.571555242 ], [ 136.91638946, 35.571555242 ], [ 136.916111659, 35.571555242 ], [ 136.915833858, 35.571555242 ], [ 136.915833857, 35.571333013 ], [ 136.915556156, 35.571333013 ], [ 136.915278355, 35.571333013 ], [ 136.915000554, 35.571333013 ], [ 136.914722752, 35.571333014 ], [ 136.914444951, 35.571333014 ], [ 136.91416725, 35.571333014 ], [ 136.913889449, 35.571333014 ], [ 136.913611647, 35.571333014 ], [ 136.913333846, 35.571333014 ], [ 136.913333846, 35.571555244 ], [ 136.913056145, 35.571555244 ], [ 136.912778344, 35.571555244 ], [ 136.912500543, 35.571555244 ], [ 136.912222742, 35.571555244 ], [ 136.911944941, 35.571555244 ], [ 136.911944941, 35.571777464 ], [ 136.911944941, 35.571999683 ], [ 136.911944942, 35.572221902 ], [ 136.911667241, 35.572221902 ], [ 136.911667241, 35.572444122 ], [ 136.911944942, 35.572444122 ], [ 136.911944942, 35.572666351 ], [ 136.911944942, 35.572888571 ], [ 136.911944943, 35.57311079 ], [ 136.912222744, 35.57311079 ], [ 136.912500545, 35.57311079 ], [ 136.912778346, 35.57311079 ], [ 136.912778346, 35.57288857 ], [ 136.913056147, 35.57288857 ], [ 136.913333848, 35.57288857 ], [ 136.913333848, 35.572666351 ], [ 136.913611649, 35.572666351 ], [ 136.91388945, 35.572666351 ], [ 136.91388945, 35.572444121 ], [ 136.913611649, 35.572444121 ], [ 136.913333848, 35.572444121 ], [ 136.913333847, 35.572221902 ], [ 136.913333847, 35.571999683 ], [ 136.913333847, 35.571777463 ], [ 136.913611648, 35.571777463 ], [ 136.913611648, 35.571999682 ], [ 136.91388945, 35.571999682 ], [ 136.913889449, 35.571777463 ], [ 136.91416725, 35.571777463 ], [ 136.914444952, 35.571777463 ], [ 136.914444951, 35.571555243 ], [ 136.914722753, 35.571555243 ], [ 136.915000554, 35.571555243 ], [ 136.915278355, 35.571555243 ], [ 136.915556156, 35.571555243 ], [ 136.915556157, 35.571777462 ], [ 136.915278356, 35.571777462 ], [ 136.915000554, 35.571777462 ], [ 136.914722753, 35.571777462 ], [ 136.914722753, 35.571999682 ], [ 136.914444952, 35.571999682 ], [ 136.914444952, 35.572221901 ], [ 136.914722754, 35.572221901 ], [ 136.915000555, 35.572221901 ], [ 136.915278356, 35.572221901 ], [ 136.915278356, 35.571999682 ], [ 136.915556157, 35.571999681 ], [ 136.915833858, 35.571999681 ], [ 136.91611166, 35.571999681 ], [ 136.916389461, 35.571999681 ], [ 136.916667262, 35.571999681 ], [ 136.916944963, 35.571999681 ], [ 136.917222765, 35.571999681 ], [ 136.917222764, 35.571777461 ], [ 136.917500566, 35.571777461 ], [ 136.917778367, 35.571777461 ], [ 136.918056168, 35.571777461 ], [ 136.918333869, 35.57177746 ], [ 136.918333869, 35.571555241 ], [ 136.918333869, 35.571333012 ], [ 136.91861167, 35.571333011 ], [ 136.918889471, 35.571333011 ], [ 136.919167273, 35.571333011 ], [ 136.919167272, 35.571110792 ], [ 136.918889471, 35.571110792 ], [ 136.918889471, 35.570888572 ], [ 136.919167272, 35.570888572 ], [ 136.919167272, 35.570666353 ], [ 136.919167272, 35.570444123 ], [ 136.919444973, 35.570444123 ], [ 136.919722774, 35.570444123 ], [ 136.920000575, 35.570444123 ], [ 136.920278377, 35.570444123 ], [ 136.920556178, 35.570444123 ], [ 136.920556178, 35.570666352 ], [ 136.920833879, 35.570666352 ], [ 136.921111681, 35.570666352 ], [ 136.92111168, 35.570444122 ], [ 136.920833879, 35.570444122 ], [ 136.920833879, 35.570221903 ], [ 136.920556178, 35.570221903 ], [ 136.920556177, 35.569999684 ], [ 136.920278376, 35.569999684 ], [ 136.920000575, 35.569999684 ], [ 136.919722774, 35.569999684 ], [ 136.919722773, 35.569777465 ], [ 136.919444972, 35.569777465 ], [ 136.919167271, 35.569777465 ] ], [ [ 136.912778345, 35.572221902 ], [ 136.913056146, 35.572221902 ], [ 136.913056146, 35.572444122 ], [ 136.913056147, 35.572666351 ], [ 136.912778345, 35.572666351 ], [ 136.912778345, 35.572444122 ], [ 136.912778345, 35.572221902 ] ], [ [ 136.912222742, 35.571777464 ], [ 136.912500543, 35.571777464 ], [ 136.912500543, 35.571999683 ], [ 136.912222742, 35.571999683 ], [ 136.912222742, 35.571777464 ] ] ] } },
{ "type": "Feature", "properties": { "A31a_301": "8505090098", "A31a_302": "板取川", "A31a_303": "21", "A31a_304": "岐阜県", "A31a_305": 1 }, "geometry": { "type": "Polygon", "coordinates": [ [ [ 136.916111655, 35.56844413 ], [ 136.916111655, 35.56866636 ], [ 136.916111656, 35.568888579 ], [ 136.916111656, 35.569110799 ], [ 136.916389457, 35.569110798 ], [ 136.916389457, 35.568888579 ], [ 136.916389457, 35.56866636 ], [ 136.916389456, 35.56844413 ], [ 136.916111655, 35.56844413 ] ] ] } },
{ "type": "Feature", "properties": { "A31a_301": "8505090098", "A31a_302": "板取川", "A31a_303": "21", "A31a_304": "岐阜県", "A31a_305": 1 }, "geometry": { "type": "Polygon", "coordinates": [ [ [ 136.914167251, 35.572221902 ], [ 136.91388945, 35.572221902 ], [ 136.91388945, 35.572444121 ], [ 136.914167251, 35.572444121 ], [ 136.914444953, 35.572444121 ], [ 136.914444952, 35.572221901 ], [ 136.914167251, 35.572221902 ] ] ] } },
{ "type": "Feature", "properties": { "A31a_301": "8505090098", "A31a_302": "板取川", "A31a_303": "21", "A31a_304": "岐阜県", "A31a_305": 1 }, "geometry": { "type": "Polygon", "coordinates": [ [ [ 136.916111655, 35.567999691 ], [ 136.916111655, 35.568221911 ], [ 136.916389456, 35.568221911 ], [ 136.916389456, 35.567999691 ], [ 136.916111655, 35.567999691 ] ] ] } },
{ "type": "Feature", "properties": { "A31a_301": "8505090098", "A31a_302": "板取川", "A31a_303": "21", "A31a_304": "岐阜県", "A31a_305": 1 }, "geometry": { "type": "Polygon", "coordinates": [ [ [ 136.899167198, 35.57311079 ], [ 136.899167198, 35.57333301 ], [ 136.899167199, 35.573555239 ], [ 136.899167199, 35.573777458 ], [ 136.899167199, 35.573999678 ], [ 136.8991672, 35.574221897 ], [ 136.8991672, 35.574444116 ], [ 136.899444901, 35.574444116 ], [ 136.8994449, 35.574221897 ], [ 136.8994449, 35.573999678 ], [ 136.8994449, 35.573777458 ], [ 136.899444899, 35.573555239 ], [ 136.899444899, 35.57333301 ], [ 136.899444899, 35.57311079 ], [ 136.899167198, 35.57311079 ] ] ] } },
{ "type": "Feature", "properties": { "A31a_301": "8505090098", "A31a_302": "板取川", "A31a_303": "21", "A31a_304": "岐阜県", "A31a_305": 2 }, "geometry": { "type": "Polygon", "coordinates": [ [ [ 136.901111599, 35.569110802 ], [ 136.901111599, 35.569333022 ], [ 136.9013894, 35.569333022 ], [ 136.901667201, 35.569333022 ], [ 136.901667201, 35.569110802 ], [ 136.9013894, 35.569110802 ], [ 136.901111599, 35.569110802 ] ] ] } },
{ "type": "Feature", "properties": { "A31a_301": "8505090098", "A31a_302": "板取川", "A31a_303": "21", "A31a_304": "岐阜県", "A31a_305": 2 }, "geometry": { "type": "Polygon", "coordinates": [ [ [ 136.901667201, 35.568888583 ], [ 136.901667201, 35.569110802 ], [ 136.901944902, 35.569110802 ], [ 136.901944902, 35.568888583 ], [ 136.901667201, 35.568888583 ] ] ] } },
{ "type": "Feature", "properties": { "A31a_301": "8505090098", "A31a_302": "板取川", "A31a_303": "21", "A31a_304": "岐阜県", "A31a_305": 2 }, "geometry": { "type": "Polygon", "coordinates": [ [ [ 136.898611604, 35.578444105 ], [ 136.898611604, 35.578666335 ], [ 136.898611604, 35.578888554 ], [ 136.898889405, 35.578888554 ], [ 136.898889405, 35.578666335 ], [ 136.898889404, 35.578444105 ], [ 136.898611604, 35.578444105 ] ] ] } },
{ "type": "Feature", "properties": { "A31a_301": "8505090098", "A31a_302": "板取川", "A31a_303": "21", "A31a_304": "岐阜県", "A31a_305": 2 }, "geometry": { "type": "Polygon", "coordinates": [ [ [ 136.898889405, 35.578888554 ], [ 136.898889405, 35.579110774 ], [ 136.899167206, 35.579110774 ], [ 136.899167206, 35.578888554 ], [ 136.898889405, 35.578888554 ] ] ] } },
{ "type": "Feature", "properties": { "A31a_301": "8505090098", "A31a_302": "板取川", "A31a_303": "21", "A31a_304": "岐阜県", "A31a_305": 2 }, "geometry": { "type": "Polygon", "coordinates": [ [ [ 136.910278334, 35.570888576 ], [ 136.910278334, 35.571110796 ], [ 136.910000533, 35.571110796 ], [ 136.910000533, 35.571333015 ], [ 136.910278334, 35.571333015 ], [ 136.910278335, 35.571555244 ], [ 136.910278335, 35.571777464 ], [ 136.910556136, 35.571777464 ], [ 136.910556136, 35.571999683 ], [ 136.910833837, 35.571999683 ], [ 136.910833838, 35.572221903 ], [ 136.911111639, 35.572221903 ], [ 136.911111639, 35.572444122 ], [ 136.91138944, 35.572444122 ], [ 136.911667241, 35.572444122 ], [ 136.911667241, 35.572221902 ], [ 136.911944942, 35.572221902 ], [ 136.911944941, 35.571999683 ], [ 136.911944941, 35.571777464 ], [ 136.911944941, 35.571555244 ], [ 136.91166724, 35.571555244 ], [ 136.911389439, 35.571555244 ], [ 136.911389438, 35.571333015 ], [ 136.911111637, 35.571333015 ], [ 136.911111637, 35.571110796 ], [ 136.910833836, 35.571110796 ], [ 136.910556135, 35.571110796 ], [ 136.910556135, 35.570888576 ], [ 136.910278334, 35.570888576 ] ] ] } },
{ "type": "Feature", "properties": { "A31a_301": "8505090098", "A31a_302": "板取川", "A31a_303": "21", "A31a_304": "岐阜県", "A31a_305": 2 }, "geometry": { "type": "Polygon", "coordinates": [ [ [ 136.910833838, 35.572444122 ], [ 136.910833838, 35.572666351 ], [ 136.911111639, 35.572666351 ], [ 136.911111639, 35.572444122 ], [ 136.910833838, 35.572444122 ] ] ] } },
{ "type": "Feature", "properties": { "A31a_301": "8505090098", "A31a_302": "板取川", "A31a_303": "21", "A31a_304": "岐阜県", "A31a_305": 2 }, "geometry": { "type": "Polygon", "coordinates": [ [ [ 136.913889449, 35.571777463 ], [ 136.91388945, 35.571999682 ], [ 136.914167251, 35.571999682 ], [ 136.91416725, 35.571777463 ], [ 136.913889449, 35.571777463 ] ] ] } },
{ "type": "Feature", "properties": { "A31a_301": "8505090098", "A31a_302": "板取川", "A31a_303": "21", "A31a_304": "岐阜県", "A31a_305": 2 }, "geometry": { "type": "Polygon", "coordinates": [ [ [ 136.914167251, 35.571999682 ], [ 136.914167251, 35.572221902 ], [ 136.914444952, 35.572221901 ], [ 136.914444952, 35.571999682 ], [ 136.914167251, 35.571999682 ] ] ] } },
{ "type": "Feature", "properties": { "A31a_301": "8505090098", "A31a_302": "板取川", "A31a_303": "21", "A31a_304": "岐阜県", "A31a_305": 2 }, "geometry": { "type": "Polygon", "coordinates": [ [ [ 136.914722748, 35.568221912 ], [ 136.914722749, 35.568444131 ], [ 136.91500055, 35.568444131 ], [ 136.91500055, 35.568221912 ], [ 136.914722748, 35.568221912 ] ] ] } },
{ "type": "Feature", "properties": { "A31a_301": "8505090098", "A31a_302": "板取川", "A31a_303": "21", "A31a_304": "岐阜県", "A31a_305": 2 }, "geometry": { "type": "Polygon", "coordinates": [ [ [ 136.915278351, 35.567999692 ], [ 136.915278351, 35.568221911 ], [ 136.915556152, 35.568221911 ], [ 136.915833854, 35.568221911 ], [ 136.915833853, 35.567999692 ], [ 136.915556152, 35.567999692 ], [ 136.915278351, 35.567999692 ] ] ] } },
{ "type": "Feature", "properties": { "A31a_301": "8505090098", "A31a_302": "板取川", "A31a_303": "21", "A31a_304": "岐阜県", "A31a_305": 2 }, "geometry": { "type": "Polygon", "coordinates": [ [ [ 136.915278355, 35.571555243 ], [ 136.915278356, 35.571777462 ], [ 136.915556157, 35.571777462 ], [ 136.915556156, 35.571555243 ], [ 136.915278355, 35.571555243 ] ] ] } },
{ "type": "Feature", "properties": { "A31a_301": "8505090098", "A31a_302": "板取川", "A31a_303": "21", "A31a_304": "岐阜県", "A31a_305": 2 }, "geometry": { "type": "Polygon", "coordinates": [ [ [ 136.915833857, 35.571333013 ], [ 136.915833858, 35.571555242 ], [ 136.916111659, 35.571555242 ], [ 136.916111659, 35.571333013 ], [ 136.915833857, 35.571333013 ] ] ] } },
{ "type": "Feature", "properties": { "A31a_301": "8505090098", "A31a_302": "板取川", "A31a_303": "21", "A31a_304": "岐阜県", "A31a_305": 2 }, "geometry": { "type": "Polygon", "coordinates": [ [ [ 136.914444952, 35.571777463 ], [ 136.914444952, 35.571999682 ], [ 136.914722753, 35.571999682 ], [ 136.914722753, 35.571777462 ], [ 136.914444952, 35.571777463 ] ] ] } },
{ "type": "Feature", "properties": { "A31a_301": "8505090098", "A31a_302": "板取川", "A31a_303": "21", "A31a_304": "岐阜県", "A31a_305": 2 }, "geometry": { "type": "Polygon", "coordinates": [ [ [ 136.915556153, 35.569110799 ], [ 136.915556154, 35.569333018 ], [ 136.915833855, 35.569333018 ], [ 136.915833855, 35.569110799 ], [ 136.915556153, 35.569110799 ] ] ] } },
{ "type": "Feature", "properties": { "A31a_301": "8505090098", "A31a_302": "板取川", "A31a_303": "21", "A31a_304": "岐阜県", "A31a_305": 2 }, "geometry": { "type": "Polygon", "coordinates": [ [ [ 136.915833854, 35.568888579 ], [ 136.915833855, 35.569110799 ], [ 136.916111656, 35.569110799 ], [ 136.916111656, 35.568888579 ], [ 136.915833854, 35.568888579 ] ] ] } },
{ "type": "Feature", "properties": { "A31a_301": "8505090098", "A31a_302": "板取川", "A31a_303": "21", "A31a_304": "岐阜県", "A31a_305": 2 }, "geometry": { "type": "Polygon", "coordinates": [ [ [ 136.914167247, 35.569333019 ], [ 136.914167248, 35.569555249 ], [ 136.914444949, 35.569555248 ], [ 136.914444949, 35.569333019 ], [ 136.914167247, 35.569333019 ] ] ] } },
{ "type": "Feature", "properties": { "A31a_301": "8505090098", "A31a_302": "板取川", "A31a_303": "21", "A31a_304": "岐阜県", "A31a_305": 2 }, "geometry": { "type": "Polygon", "coordinates": [ [ [ 136.91472275, 35.569333019 ], [ 136.91472275, 35.569555248 ], [ 136.915000551, 35.569555248 ], [ 136.915000551, 35.569333019 ], [ 136.91472275, 35.569333019 ] ] ] } },
{ "type": "Feature", "properties": { "A31a_301": "8505090098", "A31a_302": "板取川", "A31a_303": "21", "A31a_304": "岐阜県", "A31a_305": 2 }, "geometry": { "type": "Polygon", "coordinates": [ [ [ 136.916111655, 35.568221911 ], [ 136.916111655, 35.56844413 ], [ 136.916389456, 35.56844413 ], [ 136.916389456, 35.568221911 ], [ 136.916111655, 35.568221911 ] ] ] } },
{ "type": "Feature", "properties": { "A31a_301": "8505090098", "A31a_302": "板取川", "A31a_303": "21", "A31a_304": "岐阜県", "A31a_305": 2 }, "geometry": { "type": "Polygon", "coordinates": [ [ [ 136.912778335, 35.565110811 ], [ 136.912778335, 35.565333031 ], [ 136.912778336, 35.56555526 ], [ 136.913056137, 35.56555526 ], [ 136.913333838, 35.56555526 ], [ 136.913611639, 35.565555259 ], [ 136.91361164, 35.565777479 ], [ 136.913889441, 35.565777479 ], [ 136.913889442, 35.565999698 ], [ 136.914167243, 35.565999698 ], [ 136.914167242, 35.565777478 ], [ 136.914167242, 35.565555259 ], [ 136.913889441, 35.565555259 ], [ 136.91388944, 35.56533303 ], [ 136.913611639, 35.56533303 ], [ 136.913333838, 35.56533303 ], [ 136.913056137, 35.56533303 ], [ 136.913056136, 35.565110811 ], [ 136.912778335, 35.565110811 ] ] ] } },
{ "type": "Feature", "properties": { "A31a_301": "8505090098", "A31a_302": "板取川", "A31a_303": "21", "A31a_304": "岐阜県", "A31a_305": 2 }, "geometry": { "type": "Polygon", "coordinates": [ [ [ 136.913611646, 35.569999688 ], [ 136.913611646, 35.570221907 ], [ 136.913889447, 35.570221907 ], [ 136.913889447, 35.569999688 ], [ 136.913611646, 35.569999688 ] ] ] } },
{ "type": "Feature", "properties": { "A31a_301": "8505090098", "A31a_302": "板取川", "A31a_303": "21", "A31a_304": "岐阜県", "A31a_305": 2 }, "geometry": { "type": "Polygon", "coordinates": [ [ [ 136.911944938, 35.569777469 ], [ 136.911944939, 35.569999688 ], [ 136.911944939, 35.570221908 ], [ 136.91222274, 35.570221908 ], [ 136.91222274, 35.569999688 ], [ 136.912222739, 35.569777469 ], [ 136.911944938, 35.569777469 ] ] ] } },
{ "type": "Feature", "properties": { "A31a_301": "8505090098", "A31a_302": "板取川", "A31a_303": "21", "A31a_304": "岐阜県", "A31a_305": 2 }, "geometry": { "type": "Polygon", "coordinates": [ [ [ 136.909444931, 35.570666357 ], [ 136.909444931, 35.570888576 ], [ 136.909722732, 35.570888576 ], [ 136.910000533, 35.570888576 ], [ 136.910000533, 35.570666357 ], [ 136.909722732, 35.570666357 ], [ 136.909444931, 35.570666357 ] ] ] } },
{ "type": "Feature", "properties": { "A31a_301": "8505090098", "A31a_302": "板取川", "A31a_303": "21", "A31a_304": "岐阜県", "A31a_305": 2 }, "geometry": { "type": "Polygon", "coordinates": [ [ [ 136.905278312, 35.567777476 ], [ 136.905278312, 35.567999695 ], [ 136.905556113, 35.567999695 ], [ 136.905833814, 35.567999695 ], [ 136.905833814, 35.567777476 ], [ 136.905556113, 35.567777476 ], [ 136.905278312, 35.567777476 ] ] ] } },
{ "type": "Feature", "properties": { "A31a_301": "8505090098", "A31a_302": "板取川", "A31a_303": "21", "A31a_304": "岐阜県", "A31a_305": 2 }, "geometry": { "type": "Polygon", "coordinates": [ [ [ 136.908333825, 35.56955525 ], [ 136.908333825, 35.56977747 ], [ 136.908611626, 35.569777469 ], [ 136.908611626, 35.56955525 ], [ 136.908333825, 35.56955525 ] ] ] } },
{ "type": "Feature", "properties": { "A31a_301": "8505090098", "A31a_302": "板取川", "A31a_303": "21", "A31a_304": "岐阜県", "A31a_305": 2 }, "geometry": { "type": "Polygon", "coordinates": [ [ [ 136.899167206, 35.579110774 ], [ 136.899167206, 35.579332993 ], [ 136.899167207, 35.579555222 ], [ 136.899444907, 35.579555223 ], [ 136.899444907, 35.579332993 ], [ 136.899722708, 35.579332993 ], [ 136.899722708, 35.579110774 ], [ 136.899444907, 35.579110774 ], [ 136.899167206, 35.579110774 ] ] ] } },
{ "type": "Feature", "properties": { "A31a_301": "8505090098", "A31a_302": "板取川", "A31a_303": "21", "A31a_304": "岐阜県", "A31a_305": 2 }, "geometry": { "type": "Polygon", "coordinates": [ [ [ 136.899444897, 35.571777464 ], [ 136.899444897, 35.571999684 ], [ 136.899444898, 35.572221903 ], [ 136.899722698, 35.572221903 ], [ 136.899722698, 35.571999684 ], [ 136.899722698, 35.571777465 ], [ 136.899444897, 35.571777464 ] ] ] } },
{ "type": "Feature", "properties": { "A31a_301": "8505090098", "A31a_302": "板取川", "A31a_303": "21", "A31a_304": "岐阜県", "A31a_305": 2 }, "geometry": { "type": "Polygon", "coordinates": [ [ [ 136.900000497, 35.570444129 ], [ 136.900000497, 35.570666358 ], [ 136.900000497, 35.570888577 ], [ 136.900278298, 35.570888577 ], [ 136.900278298, 35.570666358 ], [ 136.900278298, 35.570444129 ], [ 136.900000497, 35.570444129 ] ] ] } },
{ "type": "Feature", "properties": { "A31a_301": "8505090098", "A31a_302": "板取川", "A31a_303": "21", "A31a_304": "岐阜県", "A31a_305": 2 }, "geometry": { "type": "Polygon", "coordinates": [ [ [ 136.899722697, 35.571110797 ], [ 136.899722697, 35.571333016 ], [ 136.899722697, 35.571555245 ], [ 136.900000498, 35.571555245 ], [ 136.900000498, 35.571333016 ], [ 136.900000498, 35.571110797 ], [ 136.899722697, 35.571110797 ] ] ] } },
{ "type": "Feature", "properties": { "A31a_301": "8505090098", "A31a_302": "板取川", "A31a_303": "21", "A31a_304": "岐阜県", "A31a_305": 2 }, "geometry": { "type": "Polygon", "coordinates": [ [ [ 136.901944901, 35.568444134 ], [ 136.901944901, 35.568666364 ], [ 136.902222702, 35.568666364 ], [ 136.902500503, 35.568666364 ], [ 136.902500503, 35.568444134 ], [ 136.902222702, 35.568444134 ], [ 136.901944901, 35.568444134 ] ] ] } },
{ "type": "Feature", "properties": { "A31a_301": "8505090098", "A31a_302": "板取川", "A31a_303": "21", "A31a_304": "岐阜県", "A31a_305": 2 }, "geometry": { "type": "Polygon", "coordinates": [ [ [ 136.900556097, 35.569555251 ], [ 136.900556098, 35.569777471 ], [ 136.900556098, 35.56999969 ], [ 136.900833799, 35.56999969 ], [ 136.900833799, 35.569777471 ], [ 136.900833798, 35.569555251 ], [ 136.900556097, 35.569555251 ] ] ] } },
{ "type": "Feature", "properties": { "A31a_301": "8505090098", "A31a_302": "板取川", "A31a_303": "21", "A31a_304": "岐阜県", "A31a_305": 3 }, "geometry": { "type": "Polygon", "coordinates": [ [ [ 136.91388945, 35.571999682 ], [ 136.91388945, 35.572221902 ], [ 136.914167251, 35.572221902 ], [ 136.914167251, 35.571999682 ], [ 136.91388945, 35.571999682 ] ] ] } },
{ "type": "Feature", "properties": { "A31a_301": "8505090098", "A31a_302": "板取川", "A31a_303": "21", "A31a_304": "岐阜県", "A31a_305": 3 }, "geometry": { "type": "Polygon", "coordinates": [ [ [ 136.91416725, 35.571777463 ], [ 136.914167251, 35.571999682 ], [ 136.914444952, 35.571999682 ], [ 136.914444952, 35.571777463 ], [ 136.91416725, 35.571777463 ] ] ] } },
{ "type": "Feature", "properties": { "A31a_301": "8505090098", "A31a_302": "板取川", "A31a_303": "21", "A31a_304": "岐阜県", "A31a_305": 3 }, "geometry": { "type": "Polygon", "coordinates": [ [ [ 136.914444951, 35.571555243 ], [ 136.914444952, 35.571777463 ], [ 136.914722753, 35.571777462 ], [ 136.915000554, 35.571777462 ], [ 136.915278356, 35.571777462 ], [ 136.915278355, 35.571555243 ], [ 136.915000554, 35.571555243 ], [ 136.914722753, 35.571555243 ], [ 136.914444951, 35.571555243 ] ] ] } },
{ "type": "Feature", "properties": { "A31a_301": "8505090098", "A31a_302": "板取川", "A31a_303": "21", "A31a_304": "岐阜県", "A31a_305": 3 }, "geometry": { "type": "Polygon", "coordinates": [ [ [ 136.916111656, 35.569110799 ], [ 136.915833855, 35.569110799 ], [ 136.915833855, 35.569333018 ], [ 136.916111656, 35.569333018 ], [ 136.916389458, 35.569333018 ], [ 136.916389457, 35.569110798 ], [ 136.916111656, 35.569110799 ] ] ] } },
{ "type": "Feature", "properties": { "A31a_301": "8505090098", "A31a_302": "板取川", "A31a_303": "21", "A31a_304": "岐阜県", "A31a_305": 3 }, "geometry": { "type": "Polygon", "coordinates": [ [ [ 136.915000551, 35.569110799 ], [ 136.915000551, 35.569333019 ], [ 136.915000551, 35.569555248 ], [ 136.915278353, 35.569555248 ], [ 136.915278352, 35.569333018 ], [ 136.915278352, 35.569110799 ], [ 136.915000551, 35.569110799 ] ] ] } },
{ "type": "Feature", "properties": { "A31a_301": "8505090098", "A31a_302": "板取川", "A31a_303": "21", "A31a_304": "岐阜県", "A31a_305": 3 }, "geometry": { "type": "Polygon", "coordinates": [ [ [ 136.914167243, 35.566221917 ], [ 136.914167244, 35.566444137 ], [ 136.914444945, 35.566444137 ], [ 136.914444945, 35.566666366 ], [ 136.914167244, 35.566666366 ], [ 136.914167244, 35.566888586 ], [ 136.914444945, 35.566888585 ], [ 136.914444946, 35.567110805 ], [ 136.914444946, 35.567333024 ], [ 136.914722747, 35.567333024 ], [ 136.914722748, 35.567555253 ], [ 136.915000549, 35.567555253 ], [ 136.915000549, 35.567777473 ], [ 136.91527835, 35.567777472 ], [ 136.91527835, 35.567555253 ], [ 136.915556151, 35.567555253 ], [ 136.915833853, 35.567555253 ], [ 136.915833853, 35.567777472 ], [ 136.915833853, 35.567999692 ], [ 136.915833854, 35.568221911 ], [ 136.915556152, 35.568221911 ], [ 136.915278351, 35.568221911 ], [ 136.91500055, 35.568221912 ], [ 136.91500055, 35.568444131 ], [ 136.915278351, 35.568444131 ], [ 136.915556153, 35.568444131 ], [ 136.915556153, 35.56866636 ], [ 136.915556153, 35.568888579 ], [ 136.915833854, 35.568888579 ], [ 136.916111656, 35.568888579 ], [ 136.916111655, 35.56866636 ], [ 136.916111655, 35.56844413 ], [ 136.916111655, 35.568221911 ], [ 136.916111655, 35.567999691 ], [ 136.916389456, 35.567999691 ], [ 136.916389456, 35.567777472 ], [ 136.916389455, 35.567555252 ], [ 136.916111654, 35.567555253 ], [ 136.916111654, 35.567333023 ], [ 136.915833852, 35.567333023 ], [ 136.915833852, 35.567110804 ], [ 136.915556151, 35.567110804 ], [ 136.915556151, 35.566888585 ], [ 136.915278349, 35.566888585 ], [ 136.915000548, 35.566888585 ], [ 136.915000548, 35.566666366 ], [ 136.915000547, 35.566444136 ], [ 136.914722746, 35.566444136 ], [ 136.914722746, 35.566221917 ], [ 136.914444944, 35.566221917 ], [ 136.914167243, 35.566221917 ] ] ] } },
{ "type": "Feature", "properties": { "A31a_301": "8505090098", "A31a_302": "板取川", "A31a_303": "21", "A31a_304": "岐阜県", "A31a_305": 3 }, "geometry": { "type": "Polygon", "coordinates": [ [ [ 136.914444949, 35.569333019 ], [ 136.914444949, 35.569555248 ], [ 136.914444949, 35.569777468 ], [ 136.914167248, 35.569777468 ], [ 136.914167248, 35.569555249 ], [ 136.913889446, 35.569555249 ], [ 136.913889447, 35.569777468 ], [ 136.913611645, 35.569777468 ], [ 136.913333844, 35.569777468 ], [ 136.913056143, 35.569777469 ], [ 136.912778342, 35.569777469 ], [ 136.91250054, 35.569777469 ], [ 136.912222739, 35.569777469 ], [ 136.91222274, 35.569999688 ], [ 136.91222274, 35.570221908 ], [ 136.912500541, 35.570221908 ], [ 136.912778342, 35.570221908 ], [ 136.913056143, 35.570221907 ], [ 136.913333845, 35.570221907 ], [ 136.913611646, 35.570221907 ], [ 136.913611646, 35.569999688 ], [ 136.913889447, 35.569999688 ], [ 136.914167248, 35.569999687 ], [ 136.914444949, 35.569999687 ], [ 136.914722751, 35.569999687 ], [ 136.91472275, 35.569777468 ], [ 136.91472275, 35.569555248 ], [ 136.91472275, 35.569333019 ], [ 136.914444949, 35.569333019 ] ] ] } },
{ "type": "Feature", "properties": { "A31a_301": "8505090098", "A31a_302": "板取川", "A31a_303": "21", "A31a_304": "岐阜県", "A31a_305": 3 }, "geometry": { "type": "Polygon", "coordinates": [ [ [ 136.913056136, 35.564888592 ], [ 136.912778334, 35.564888592 ], [ 136.912778335, 35.565110811 ], [ 136.913056136, 35.565110811 ], [ 136.913056137, 35.56533303 ], [ 136.913333838, 35.56533303 ], [ 136.913611639, 35.56533303 ], [ 136.913611639, 35.565110811 ], [ 136.913333837, 35.565110811 ], [ 136.913333837, 35.564888591 ], [ 136.913056136, 35.564888592 ] ] ] } }
]
}
