{
"type": "FeatureCollection",
"name": "A31a-30-25_21_8505090063_20",
"crs": { "type": "name", "properties": { "name": "urn:ogc:def:crs:EPSG::6668" } },
"xy_coordinate_resolution": 1e-09,
"features": [
{ "type": "Feature", "properties": { "A31a_301": "8505090063", "A31a_302": "山田川", "A31a_303": "21", "A31a_304": "岐阜県", "A31a_305": 1 }, "geometry": { "type": "Polygon", "coordinates": [ [ [ 136.8375, 35.455417 ], [ 136.8375, 35.455208 ], [ 136.8375, 35.455 ], [ 136.8375, 35.454792 ], [ 136.837188, 35.454792 ], [ 136.837188, 35.455 ], [ 136.836875, 35.455 ], [ 136.836875, 35.455208 ], [ 136.836563, 35.455208 ], [ 136.836563, 35.455417 ], [ 136.836563, 35.455625 ], [ 136.836875, 35.455625 ], [ 136.836875, 35.455417 ], [ 136.837188, 35.455417 ], [ 136.8375, 35.455417 ] ] ] } },
{ "type": "Feature", "properties": { "A31a_301": "8505090063", "A31a_302": "山田川", "A31a_303": "21", "A31a_304": "岐阜県", "A31a_305": 1 }, "geometry": { "type": "Polygon", "coordinates": [ [ [ 136.8775, 35.456458 ], [ 136.8775, 35.456667 ], [ 136.877813, 35.456667 ], [ 136.878125, 35.456667 ], [ 136.878125, 35.456458 ], [ 136.877813, 35.456458 ], [ 136.8775, 35.456458 ] ] ] } },
{ "type": "Feature", "properties": { "A31a_301": "8505090063", "A31a_302": "山田川", "A31a_303": "21", "A31a_304": "岐阜県", "A31a_305": 1 }, "geometry": { "type": "Polygon", "coordinates": [ [ [ 136.876875, 35.456667 ], [ 136.876875, 35.456458 ], [ 136.877188, 35.456458 ], [ 136.8775, 35.456458 ], [ 136.8775, 35.45625 ], [ 136.877813, 35.45625 ], [ 136.878125, 35.45625 ], [ 136.878438, 35.45625 ], [ 136.87875, 35.45625 ], [ 136.87875, 35.456042 ], [ 136.879063, 35.456042 ], [ 136.879063, 35.455833 ], [ 136.879063, 35.455625 ], [ 136.879063, 35.455417 ], [ 136.879063, 35.455208 ], [ 136.87875, 35.455208 ], [ 136.87875, 35.455417 ], [ 136.878438, 35.455417 ], [ 136.878438, 35.455625 ], [ 136.878125, 35.455625 ], [ 136.878125, 35.455833 ], [ 136.877813, 35.455833 ], [ 136.877813, 35.456042 ], [ 136.8775, 35.456042 ], [ 136.877188, 35.456042 ], [ 136.877188, 35.45625 ], [ 136.876875, 35.45625 ], [ 136.876563, 35.45625 ], [ 136.87625, 35.45625 ], [ 136.87625, 35.456458 ], [ 136.875938, 35.456458 ], [ 136.875938, 35.456667 ], [ 136.875625, 35.456667 ], [ 136.875625, 35.456875 ], [ 136.875938, 35.456875 ], [ 136.87625, 35.456875 ], [ 136.87625, 35.456667 ], [ 136.876563, 35.456667 ], [ 136.876875, 35.456667 ] ] ] } },
{ "type": "Feature", "properties": { "A31a_301": "8505090063", "A31a_302": "山田川", "A31a_303": "21", "A31a_304": "岐阜県", "A31a_305": 1 }, "geometry": { "type": "Polygon", "coordinates": [ [ [ 136.8775, 35.456667 ], [ 136.877188, 35.456667 ], [ 136.876875, 35.456667 ], [ 136.876875, 35.456875 ], [ 136.877188, 35.456875 ], [ 136.8775, 35.456875 ], [ 136.8775, 35.456667 ] ] ] } },
{ "type": "Feature", "properties": { "A31a_301": "8505090063", "A31a_302": "山田川", "A31a_303": "21", "A31a_304": "岐阜県", "A31a_305": 1 }, "geometry": { "type": "Polygon", "coordinates": [ [ [ 136.860313, 35.457083 ], [ 136.860313, 35.457292 ], [ 136.860625, 35.457292 ], [ 136.860625, 35.457083 ], [ 136.860313, 35.457083 ] ] ] } },
{ "type": "Feature", "properties": { "A31a_301": "8505090063", "A31a_302": "山田川", "A31a_303": "21", "A31a_304": "岐阜県", "A31a_305": 1 }, "geometry": { "type": "Polygon", "coordinates": [ [ [ 136.838125, 35.454583 ], [ 136.838125, 35.454375 ], [ 136.838438, 35.454375 ], [ 136.83875, 35.454375 ], [ 136.839063, 35.454375 ], [ 136.839375, 35.454375 ], [ 136.839688, 35.454375 ], [ 136.84, 35.454375 ], [ 136.840313, 35.454375 ], [ 136.840313, 35.454583 ], [ 136.840625, 35.454583 ], [ 136.840625, 35.454792 ], [ 136.840938, 35.454792 ], [ 136.84125, 35.454792 ], [ 136.84125, 35.455 ], [ 136.841563, 35.455 ], [ 136.841563, 35.455208 ], [ 136.841875, 35.455208 ], [ 136.841875, 35.455417 ], [ 136.841875, 35.455625 ], [ 136.842188, 35.455625 ], [ 136.842188, 35.455833 ], [ 136.8425, 35.455833 ], [ 136.8425, 35.456042 ], [ 136.842813, 35.456042 ], [ 136.842813, 35.45625 ], [ 136.843125, 35.45625 ], [ 136.843125, 35.456458 ], [ 136.843438, 35.456458 ], [ 136.843438, 35.456667 ], [ 136.84375, 35.456667 ], [ 136.84375, 35.456875 ], [ 136.84375, 35.457083 ], [ 136.844063, 35.457083 ], [ 136.844063, 35.457292 ], [ 136.844375, 35.457292 ], [ 136.844375, 35.4575 ], [ 136.844688, 35.4575 ], [ 136.845, 35.4575 ], [ 136.845, 35.457292 ], [ 136.845, 35.457083 ], [ 136.845, 35.456875 ], [ 136.845, 35.456667 ], [ 136.845, 35.456458 ], [ 136.845, 35.45625 ], [ 136.844688, 35.45625 ], [ 136.844688, 35.456042 ], [ 136.844688, 35.455833 ], [ 136.844688, 35.455625 ], [ 136.844688, 35.455417 ], [ 136.844375, 35.455417 ], [ 136.844375, 35.455208 ], [ 136.844375, 35.455 ], [ 136.844063, 35.455 ], [ 136.844063, 35.454792 ], [ 136.844063, 35.454583 ], [ 136.84375, 35.454583 ], [ 136.84375, 35.454375 ], [ 136.843438, 35.454375 ], [ 136.843438, 35.454167 ], [ 136.843125, 35.454167 ], [ 136.843125, 35.453958 ], [ 136.843125, 35.45375 ], [ 136.842813, 35.45375 ], [ 136.842813, 35.453542 ], [ 136.842813, 35.453333 ], [ 136.842813, 35.453125 ], [ 136.8425, 35.453125 ], [ 136.842188, 35.453125 ], [ 136.841875, 35.453125 ], [ 136.841875, 35.453333 ], [ 136.841563, 35.453333 ], [ 136.84125, 35.453333 ], [ 136.84125, 35.453542 ], [ 136.840938, 35.453542 ], [ 136.840938, 35.45375 ], [ 136.840625, 35.45375 ], [ 136.840313, 35.45375 ], [ 136.840313, 35.453958 ], [ 136.84, 35.453958 ], [ 136.839688, 35.453958 ], [ 136.839375, 35.453958 ], [ 136.839063, 35.453958 ], [ 136.839063, 35.45375 ], [ 136.839063, 35.453542 ], [ 136.83875, 35.453542 ], [ 136.838438, 35.453542 ], [ 136.838438, 35.453333 ], [ 136.838438, 35.453125 ], [ 136.838125, 35.453125 ], [ 136.838125, 35.453333 ], [ 136.838125, 35.453542 ], [ 136.838125, 35.45375 ], [ 136.837813, 35.45375 ], [ 136.837813, 35.453958 ], [ 136.837813, 35.454167 ], [ 136.8375, 35.454167 ], [ 136.8375, 35.454375 ], [ 136.8375, 35.454583 ], [ 136.837813, 35.454583 ], [ 136.838125, 35.454583 ] ] ] } },
{ "type": "Feature", "properties": { "A31a_301": "8505090063", "A31a_302": "山田川", "A31a_303": "21", "A31a_304": "岐阜県", "A31a_305": 1 }, "geometry": { "type": "Polygon", "coordinates": [ [ [ 136.858438, 35.4575 ], [ 136.858438, 35.457292 ], [ 136.85875, 35.457292 ], [ 136.859063, 35.457292 ], [ 136.859375, 35.457292 ], [ 136.859375, 35.457083 ], [ 136.859688, 35.457083 ], [ 136.86, 35.457083 ], [ 136.860313, 35.457083 ], [ 136.860313, 35.456875 ], [ 136.860625, 35.456875 ], [ 136.860625, 35.456667 ], [ 136.860625, 35.456458 ], [ 136.860625, 35.45625 ], [ 136.860313, 35.45625 ], [ 136.86, 35.45625 ], [ 136.859688, 35.45625 ], [ 136.859375, 35.45625 ], [ 136.859063, 35.45625 ], [ 136.85875, 35.45625 ], [ 136.85875, 35.456042 ], [ 136.858438, 35.456042 ], [ 136.858438, 35.455833 ], [ 136.858125, 35.455833 ], [ 136.858125, 35.456042 ], [ 136.858125, 35.45625 ], [ 136.857813, 35.45625 ], [ 136.8575, 35.45625 ], [ 136.857188, 35.45625 ], [ 136.856875, 35.45625 ], [ 136.856563, 35.45625 ], [ 136.85625, 35.45625 ], [ 136.855938, 35.45625 ], [ 136.855625, 35.45625 ], [ 136.855313, 35.45625 ], [ 136.855, 35.45625 ], [ 136.854688, 35.45625 ], [ 136.854688, 35.456042 ], [ 136.854375, 35.456042 ], [ 136.854063, 35.456042 ], [ 136.854063, 35.455833 ], [ 136.854063, 35.455625 ], [ 136.854375, 35.455625 ], [ 136.854375, 35.455417 ], [ 136.854375, 35.455208 ], [ 136.854375, 35.455 ], [ 136.854063, 35.455 ], [ 136.854063, 35.454792 ], [ 136.85375, 35.454792 ], [ 136.85375, 35.454583 ], [ 136.853438, 35.454583 ], [ 136.853125, 35.454583 ], [ 136.852813, 35.454583 ], [ 136.852813, 35.454375 ], [ 136.8525, 35.454375 ], [ 136.8525, 35.454167 ], [ 136.852813, 35.454167 ], [ 136.852813, 35.453958 ], [ 136.8525, 35.453958 ], [ 136.8525, 35.45375 ], [ 136.852188, 35.45375 ], [ 136.851875, 35.45375 ], [ 136.851875, 35.453542 ], [ 136.851563, 35.453542 ], [ 136.851563, 35.453333 ], [ 136.851563, 35.453125 ], [ 136.85125, 35.453125 ], [ 136.85125, 35.452917 ], [ 136.85125, 35.452708 ], [ 136.850938, 35.452708 ], [ 136.850938, 35.4525 ], [ 136.850625, 35.4525 ], [ 136.850625, 35.452708 ], [ 136.850313, 35.452708 ], [ 136.850313, 35.4525 ], [ 136.85, 35.4525 ], [ 136.849688, 35.4525 ], [ 136.849688, 35.452708 ], [ 136.849375, 35.452708 ], [ 136.849063, 35.452708 ], [ 136.849063, 35.4525 ], [ 136.84875, 35.4525 ], [ 136.84875, 35.452708 ], [ 136.84875, 35.452917 ], [ 136.84875, 35.453125 ], [ 136.84875, 35.453333 ], [ 136.84875, 35.453542 ], [ 136.84875, 35.45375 ], [ 136.848438, 35.45375 ], [ 136.848438, 35.453958 ], [ 136.848438, 35.454167 ], [ 136.84875, 35.454167 ], [ 136.84875, 35.454375 ], [ 136.849063, 35.454375 ], [ 136.849375, 35.454375 ], [ 136.849688, 35.454375 ], [ 136.85, 35.454375 ], [ 136.850313, 35.454375 ], [ 136.850313, 35.454583 ], [ 136.850313, 35.454792 ], [ 136.850313, 35.455 ], [ 136.850313, 35.455208 ], [ 136.850313, 35.455417 ], [ 136.850313, 35.455625 ], [ 136.850313, 35.455833 ], [ 136.850313, 35.456042 ], [ 136.850313, 35.45625 ], [ 136.85, 35.45625 ], [ 136.849688, 35.45625 ], [ 136.849688, 35.456042 ], [ 136.849375, 35.456042 ], [ 136.849375, 35.45625 ], [ 136.849375, 35.456458 ], [ 136.849063, 35.456458 ], [ 136.849063, 35.45625 ], [ 136.849063, 35.456042 ], [ 136.849063, 35.455833 ], [ 136.84875, 35.455833 ], [ 136.84875, 35.455625 ], [ 136.848438, 35.455625 ], [ 136.848438, 35.455417 ], [ 136.84875, 35.455417 ], [ 136.84875, 35.455208 ], [ 136.848438, 35.455208 ], [ 136.848438, 35.455 ], [ 136.848438, 35.454792 ], [ 136.84875, 35.454792 ], [ 136.84875, 35.454583 ], [ 136.84875, 35.454375 ], [ 136.848438, 35.454375 ], [ 136.848438, 35.454583 ], [ 136.848125, 35.454583 ], [ 136.847813, 35.454583 ], [ 136.8475, 35.454583 ], [ 136.8475, 35.454792 ], [ 136.8475, 35.455 ], [ 136.8475, 35.455208 ], [ 136.847188, 35.455208 ], [ 136.847188, 35.455417 ], [ 136.847188, 35.455625 ], [ 136.846875, 35.455625 ], [ 136.846875, 35.455833 ], [ 136.846563, 35.455833 ], [ 136.846563, 35.456042 ], [ 136.846563, 35.45625 ], [ 136.84625, 35.45625 ], [ 136.84625, 35.456458 ], [ 136.84625, 35.456667 ], [ 136.845938, 35.456667 ], [ 136.845938, 35.456875 ], [ 136.845625, 35.456875 ], [ 136.845625, 35.457083 ], [ 136.845625, 35.457292 ], [ 136.845313, 35.457292 ], [ 136.845313, 35.4575 ], [ 136.845625, 35.4575 ], [ 136.845938, 35.4575 ], [ 136.84625, 35.4575 ], [ 136.846563, 35.4575 ], [ 136.846875, 35.4575 ], [ 136.847188, 35.4575 ], [ 136.847188, 35.457292 ], [ 136.8475, 35.457292 ], [ 136.847813, 35.457292 ], [ 136.848125, 35.457292 ], [ 136.848438, 35.457292 ], [ 136.84875, 35.457292 ], [ 136.849063, 35.457292 ], [ 136.849063, 35.457083 ], [ 136.849063, 35.456875 ], [ 136.849063, 35.456667 ], [ 136.849375, 35.456667 ], [ 136.849375, 35.456875 ], [ 136.849375, 35.457083 ], [ 136.849688, 35.457083 ], [ 136.85, 35.457083 ], [ 136.85, 35.456875 ], [ 136.85, 35.456667 ], [ 136.850313, 35.456667 ], [ 136.850625, 35.456667 ], [ 136.850938, 35.456667 ], [ 136.850938, 35.456875 ], [ 136.850938, 35.457083 ], [ 136.85125, 35.457083 ], [ 136.851563, 35.457083 ], [ 136.851875, 35.457083 ], [ 136.852188, 35.457083 ], [ 136.852188, 35.456875 ], [ 136.8525, 35.456875 ], [ 136.852813, 35.456875 ], [ 136.852813, 35.457083 ], [ 136.853125, 35.457083 ], [ 136.853438, 35.457083 ], [ 136.85375, 35.457083 ], [ 136.854063, 35.457083 ], [ 136.854063, 35.457292 ], [ 136.854375, 35.457292 ], [ 136.854688, 35.457292 ], [ 136.855, 35.457292 ], [ 136.855313, 35.457292 ], [ 136.855625, 35.457292 ], [ 136.855938, 35.457292 ], [ 136.85625, 35.457292 ], [ 136.856563, 35.457292 ], [ 136.856563, 35.4575 ], [ 136.856875, 35.4575 ], [ 136.857188, 35.4575 ], [ 136.8575, 35.4575 ], [ 136.857813, 35.4575 ], [ 136.857813, 35.457292 ], [ 136.858125, 35.457292 ], [ 136.858125, 35.4575 ], [ 136.858438, 35.4575 ] ], [ [ 136.855625, 35.457083 ], [ 136.855625, 35.456875 ], [ 136.855938, 35.456875 ], [ 136.855938, 35.457083 ], [ 136.855625, 35.457083 ] ], [ [ 136.85125, 35.456875 ], [ 136.85125, 35.456667 ], [ 136.851563, 35.456667 ], [ 136.851563, 35.456875 ], [ 136.85125, 35.456875 ] ], [ [ 136.853125, 35.455833 ], [ 136.853125, 35.455625 ], [ 136.853438, 35.455625 ], [ 136.85375, 35.455625 ], [ 136.85375, 35.455833 ], [ 136.85375, 35.456042 ], [ 136.853438, 35.456042 ], [ 136.853125, 35.456042 ], [ 136.853125, 35.455833 ] ], [ [ 136.85125, 35.455625 ], [ 136.850938, 35.455625 ], [ 136.850938, 35.455417 ], [ 136.85125, 35.455417 ], [ 136.85125, 35.455625 ], [ 136.851563, 35.455625 ], [ 136.851563, 35.455833 ], [ 136.85125, 35.455833 ], [ 136.85125, 35.455625 ] ], [ [ 136.851563, 35.454583 ], [ 136.851563, 35.454375 ], [ 136.851875, 35.454375 ], [ 136.851875, 35.454583 ], [ 136.851875, 35.454792 ], [ 136.851563, 35.454792 ], [ 136.851563, 35.454583 ] ], [ [ 136.849375, 35.453958 ], [ 136.849375, 35.45375 ], [ 136.849063, 35.45375 ], [ 136.849063, 35.453542 ], [ 136.849063, 35.453333 ], [ 136.849063, 35.453125 ], [ 136.849063, 35.452917 ], [ 136.849375, 35.452917 ], [ 136.849375, 35.453125 ], [ 136.849688, 35.453125 ], [ 136.849688, 35.453333 ], [ 136.849688, 35.453542 ], [ 136.849688, 35.45375 ], [ 136.849688, 35.453958 ], [ 136.849688, 35.454167 ], [ 136.849375, 35.454167 ], [ 136.849375, 35.453958 ] ], [ [ 136.85, 35.453333 ], [ 136.85, 35.453125 ], [ 136.850313, 35.453125 ], [ 136.850313, 35.453333 ], [ 136.850313, 35.453542 ], [ 136.850313, 35.45375 ], [ 136.85, 35.45375 ], [ 136.85, 35.453542 ], [ 136.85, 35.453333 ] ] ] } },
{ "type": "Feature", "properties": { "A31a_301": "8505090063", "A31a_302": "山田川", "A31a_303": "21", "A31a_304": "岐阜県", "A31a_305": 1 }, "geometry": { "type": "Polygon", "coordinates": [ [ [ 136.859375, 35.457292 ], [ 136.859375, 35.4575 ], [ 136.859688, 35.4575 ], [ 136.859688, 35.457292 ], [ 136.859375, 35.457292 ] ] ] } },
{ "type": "Feature", "properties": { "A31a_301": "8505090063", "A31a_302": "山田川", "A31a_303": "21", "A31a_304": "岐阜県", "A31a_305": 1 }, "geometry": { "type": "Polygon", "coordinates": [ [ [ 136.858438, 35.4575 ], [ 136.858438, 35.457708 ], [ 136.85875, 35.457708 ], [ 136.85875, 35.4575 ], [ 136.858438, 35.4575 ] ] ] } },
{ "type": "Feature", "properties": { "A31a_301": "8505090063", "A31a_302": "山田川", "A31a_303": "21", "A31a_304": "岐阜県", "A31a_305": 1 }, "geometry": { "type": "Polygon", "coordinates": [ [ [ 136.87375, 35.457917 ], [ 136.87375, 35.457708 ], [ 136.874063, 35.457708 ], [ 136.874063, 35.4575 ], [ 136.874375, 35.4575 ], [ 136.874688, 35.4575 ], [ 136.874688, 35.457292 ], [ 136.874375, 35.457292 ], [ 136.874063, 35.457292 ], [ 136.87375, 35.457292 ], [ 136.873438, 35.457292 ], [ 136.873125, 35.457292 ], [ 136.873125, 35.4575 ], [ 136.872813, 35.4575 ], [ 136.872813, 35.457292 ], [ 136.8725, 35.457292 ], [ 136.8725, 35.457083 ], [ 136.872188, 35.457083 ], [ 136.871875, 35.457083 ], [ 136.871563, 35.457083 ], [ 136.87125, 35.457083 ], [ 136.87125, 35.456875 ], [ 136.870938, 35.456875 ], [ 136.870625, 35.456875 ], [ 136.870313, 35.456875 ], [ 136.87, 35.456875 ], [ 136.87, 35.457083 ], [ 136.869688, 35.457083 ], [ 136.869375, 35.457083 ], [ 136.869063, 35.457083 ], [ 136.869063, 35.457292 ], [ 136.869375, 35.457292 ], [ 136.869688, 35.457292 ], [ 136.87, 35.457292 ], [ 136.870313, 35.457292 ], [ 136.870625, 35.457292 ], [ 136.870938, 35.457292 ], [ 136.87125, 35.457292 ], [ 136.871563, 35.457292 ], [ 136.871563, 35.4575 ], [ 136.871875, 35.4575 ], [ 136.871875, 35.457708 ], [ 136.872188, 35.457708 ], [ 136.8725, 35.457708 ], [ 136.872813, 35.457708 ], [ 136.872813, 35.457917 ], [ 136.873125, 35.457917 ], [ 136.873438, 35.457917 ], [ 136.87375, 35.457917 ] ] ] } },
{ "type": "Feature", "properties": { "A31a_301": "8505090063", "A31a_302": "山田川", "A31a_303": "21", "A31a_304": "岐阜県", "A31a_305": 1 }, "geometry": { "type": "Polygon", "coordinates": [ [ [ 136.856563, 35.4575 ], [ 136.85625, 35.4575 ], [ 136.855938, 35.4575 ], [ 136.855625, 35.4575 ], [ 136.855313, 35.4575 ], [ 136.855, 35.4575 ], [ 136.854688, 35.4575 ], [ 136.854688, 35.457708 ], [ 136.854375, 35.457708 ], [ 136.854375, 35.4575 ], [ 136.854063, 35.4575 ], [ 136.854063, 35.457292 ], [ 136.85375, 35.457292 ], [ 136.853438, 35.457292 ], [ 136.853125, 35.457292 ], [ 136.852813, 35.457292 ], [ 136.8525, 35.457292 ], [ 136.852188, 35.457292 ], [ 136.851875, 35.457292 ], [ 136.851563, 35.457292 ], [ 136.851563, 35.4575 ], [ 136.851563, 35.457708 ], [ 136.851563, 35.457917 ], [ 136.851875, 35.457917 ], [ 136.851875, 35.458125 ], [ 136.851875, 35.458333 ], [ 136.851875, 35.458542 ], [ 136.851875, 35.45875 ], [ 136.852188, 35.45875 ], [ 136.852188, 35.458958 ], [ 136.8525, 35.458958 ], [ 136.852813, 35.458958 ], [ 136.853125, 35.458958 ], [ 136.853125, 35.459167 ], [ 136.853438, 35.459167 ], [ 136.853438, 35.458958 ], [ 136.85375, 35.458958 ], [ 136.854063, 35.458958 ], [ 136.854063, 35.45875 ], [ 136.854375, 35.45875 ], [ 136.854688, 35.45875 ], [ 136.854688, 35.458958 ], [ 136.855, 35.458958 ], [ 136.855, 35.459167 ], [ 136.855313, 35.459167 ], [ 136.855625, 35.459167 ], [ 136.855625, 35.458958 ], [ 136.855625, 35.45875 ], [ 136.855625, 35.458542 ], [ 136.855938, 35.458542 ], [ 136.855938, 35.458333 ], [ 136.85625, 35.458333 ], [ 136.856563, 35.458333 ], [ 136.856563, 35.458125 ], [ 136.856875, 35.458125 ], [ 136.857188, 35.458125 ], [ 136.857188, 35.457917 ], [ 136.857188, 35.457708 ], [ 136.856875, 35.457708 ], [ 136.856563, 35.457708 ], [ 136.856563, 35.4575 ] ], [ [ 136.853125, 35.457917 ], [ 136.853125, 35.458125 ], [ 136.852813, 35.458125 ], [ 136.852813, 35.457917 ], [ 136.853125, 35.457917 ] ], [ [ 136.852188, 35.457708 ], [ 136.852188, 35.4575 ], [ 136.8525, 35.4575 ], [ 136.8525, 35.457708 ], [ 136.852188, 35.457708 ] ] ] } },
{ "type": "Feature", "properties": { "A31a_301": "8505090063", "A31a_302": "山田川", "A31a_303": "21", "A31a_304": "岐阜県", "A31a_305": 1 }, "geometry": { "type": "Polygon", "coordinates": [ [ [ 136.876875, 35.456875 ], [ 136.876563, 35.456875 ], [ 136.87625, 35.456875 ], [ 136.87625, 35.457083 ], [ 136.875938, 35.457083 ], [ 136.875625, 35.457083 ], [ 136.875625, 35.457292 ], [ 136.875313, 35.457292 ], [ 136.875, 35.457292 ], [ 136.875, 35.4575 ], [ 136.874688, 35.4575 ], [ 136.874688, 35.457708 ], [ 136.874375, 35.457708 ], [ 136.874063, 35.457708 ], [ 136.874063, 35.457917 ], [ 136.87375, 35.457917 ], [ 136.87375, 35.458125 ], [ 136.873438, 35.458125 ], [ 136.873438, 35.458333 ], [ 136.873438, 35.458542 ], [ 136.87375, 35.458542 ], [ 136.87375, 35.45875 ], [ 136.874063, 35.45875 ], [ 136.874063, 35.458958 ], [ 136.874063, 35.459167 ], [ 136.874375, 35.459167 ], [ 136.874375, 35.459375 ], [ 136.874375, 35.459583 ], [ 136.874375, 35.459792 ], [ 136.874375, 35.46 ], [ 136.874375, 35.460208 ], [ 136.874688, 35.460208 ], [ 136.874688, 35.46 ], [ 136.874688, 35.459792 ], [ 136.875, 35.459792 ], [ 136.875, 35.459583 ], [ 136.875313, 35.459583 ], [ 136.875313, 35.459375 ], [ 136.875313, 35.459167 ], [ 136.875313, 35.458958 ], [ 136.875313, 35.45875 ], [ 136.875313, 35.458542 ], [ 136.875313, 35.458333 ], [ 136.875313, 35.458125 ], [ 136.875625, 35.458125 ], [ 136.875625, 35.457917 ], [ 136.875625, 35.457708 ], [ 136.875938, 35.457708 ], [ 136.875938, 35.4575 ], [ 136.87625, 35.4575 ], [ 136.87625, 35.457292 ], [ 136.876563, 35.457292 ], [ 136.876563, 35.457083 ], [ 136.876875, 35.457083 ], [ 136.876875, 35.456875 ] ] ] } },
{ "type": "Feature", "properties": { "A31a_301": "8505090063", "A31a_302": "山田川", "A31a_303": "21", "A31a_304": "岐阜県", "A31a_305": 1 }, "geometry": { "type": "Polygon", "coordinates": [ [ [ 136.847813, 35.464792 ], [ 136.8475, 35.464792 ], [ 136.8475, 35.464583 ], [ 136.847813, 35.464583 ], [ 136.847813, 35.464792 ], [ 136.848125, 35.464792 ], [ 136.848438, 35.464792 ], [ 136.84875, 35.464792 ], [ 136.84875, 35.464583 ], [ 136.84875, 35.464375 ], [ 136.848438, 35.464375 ], [ 136.848125, 35.464375 ], [ 136.848125, 35.464167 ], [ 136.848438, 35.464167 ], [ 136.848438, 35.463958 ], [ 136.848125, 35.463958 ], [ 136.847813, 35.463958 ], [ 136.8475, 35.463958 ], [ 136.847188, 35.463958 ], [ 136.847188, 35.46375 ], [ 136.8475, 35.46375 ], [ 136.8475, 35.463542 ], [ 136.847188, 35.463542 ], [ 136.846875, 35.463542 ], [ 136.846563, 35.463542 ], [ 136.84625, 35.463542 ], [ 136.845938, 35.463542 ], [ 136.845938, 35.46375 ], [ 136.84625, 35.46375 ], [ 136.846563, 35.46375 ], [ 136.846875, 35.46375 ], [ 136.846875, 35.463958 ], [ 136.846563, 35.463958 ], [ 136.84625, 35.463958 ], [ 136.845938, 35.463958 ], [ 136.845625, 35.463958 ], [ 136.845625, 35.46375 ], [ 136.845313, 35.46375 ], [ 136.845, 35.46375 ], [ 136.844688, 35.46375 ], [ 136.844375, 35.46375 ], [ 136.844375, 35.463958 ], [ 136.844063, 35.463958 ], [ 136.844063, 35.46375 ], [ 136.84375, 35.46375 ], [ 136.84375, 35.463542 ], [ 136.844063, 35.463542 ], [ 136.844063, 35.463333 ], [ 136.84375, 35.463333 ], [ 136.843438, 35.463333 ], [ 136.843438, 35.463125 ], [ 136.843125, 35.463125 ], [ 136.842813, 35.463125 ], [ 136.842813, 35.462917 ], [ 136.8425, 35.462917 ], [ 136.8425, 35.462708 ], [ 136.8425, 35.4625 ], [ 136.842188, 35.4625 ], [ 136.842188, 35.462292 ], [ 136.842188, 35.462083 ], [ 136.842188, 35.461875 ], [ 136.842188, 35.461667 ], [ 136.842188, 35.461458 ], [ 136.842188, 35.46125 ], [ 136.842188, 35.461042 ], [ 136.8425, 35.461042 ], [ 136.8425, 35.460833 ], [ 136.842813, 35.460833 ], [ 136.842813, 35.460625 ], [ 136.842813, 35.460417 ], [ 136.843125, 35.460417 ], [ 136.843125, 35.460208 ], [ 136.843125, 35.46 ], [ 136.843438, 35.46 ], [ 136.843438, 35.460208 ], [ 136.84375, 35.460208 ], [ 136.84375, 35.46 ], [ 136.844063, 35.46 ], [ 136.844063, 35.459792 ], [ 136.844375, 35.459792 ], [ 136.844688, 35.459792 ], [ 136.845, 35.459792 ], [ 136.845313, 35.459792 ], [ 136.845313, 35.459583 ], [ 136.845625, 35.459583 ], [ 136.845625, 35.459375 ], [ 136.845625, 35.459167 ], [ 136.845938, 35.459167 ], [ 136.84625, 35.459167 ], [ 136.84625, 35.458958 ], [ 136.846563, 35.458958 ], [ 136.846875, 35.458958 ], [ 136.847188, 35.458958 ], [ 136.8475, 35.458958 ], [ 136.847813, 35.458958 ], [ 136.847813, 35.45875 ], [ 136.848125, 35.45875 ], [ 136.848125, 35.458542 ], [ 136.848438, 35.458542 ], [ 136.84875, 35.458542 ], [ 136.849063, 35.458542 ], [ 136.849375, 35.458542 ], [ 136.849688, 35.458542 ], [ 136.849688, 35.458333 ], [ 136.849688, 35.458125 ], [ 136.849688, 35.457917 ], [ 136.85, 35.457917 ], [ 136.85, 35.458125 ], [ 136.850313, 35.458125 ], [ 136.850313, 35.457917 ], [ 136.850313, 35.457708 ], [ 136.850313, 35.4575 ], [ 136.85, 35.4575 ], [ 136.849688, 35.4575 ], [ 136.849375, 35.4575 ], [ 136.849063, 35.4575 ], [ 136.84875, 35.4575 ], [ 136.84875, 35.457708 ], [ 136.848438, 35.457708 ], [ 136.848125, 35.457708 ], [ 136.847813, 35.457708 ], [ 136.8475, 35.457708 ], [ 136.847188, 35.457708 ], [ 136.846875, 35.457708 ], [ 136.846563, 35.457708 ], [ 136.84625, 35.457708 ], [ 136.845938, 35.457708 ], [ 136.845625, 35.457708 ], [ 136.845313, 35.457708 ], [ 136.845, 35.457708 ], [ 136.844688, 35.457708 ], [ 136.844375, 35.457708 ], [ 136.844375, 35.4575 ], [ 136.844063, 35.4575 ], [ 136.844063, 35.457292 ], [ 136.84375, 35.457292 ], [ 136.84375, 35.457083 ], [ 136.843438, 35.457083 ], [ 136.843438, 35.456875 ], [ 136.843125, 35.456875 ], [ 136.843125, 35.456667 ], [ 136.842813, 35.456667 ], [ 136.842813, 35.456458 ], [ 136.842813, 35.45625 ], [ 136.8425, 35.45625 ], [ 136.8425, 35.456042 ], [ 136.842188, 35.456042 ], [ 136.842188, 35.455833 ], [ 136.841875, 35.455833 ], [ 136.841875, 35.455625 ], [ 136.841563, 35.455625 ], [ 136.841563, 35.455417 ], [ 136.84125, 35.455417 ], [ 136.84125, 35.455208 ], [ 136.84125, 35.455 ], [ 136.840938, 35.455 ], [ 136.840625, 35.455 ], [ 136.840625, 35.454792 ], [ 136.840313, 35.454792 ], [ 136.840313, 35.454583 ], [ 136.84, 35.454583 ], [ 136.839688, 35.454583 ], [ 136.839375, 35.454583 ], [ 136.839063, 35.454583 ], [ 136.83875, 35.454583 ], [ 136.838438, 35.454583 ], [ 136.838125, 35.454583 ], [ 136.838125, 35.454792 ], [ 136.837813, 35.454792 ], [ 136.837813, 35.455 ], [ 136.837813, 35.455208 ], [ 136.837813, 35.455417 ], [ 136.8375, 35.455417 ], [ 136.8375, 35.455625 ], [ 136.837188, 35.455625 ], [ 136.837188, 35.455833 ], [ 136.836875, 35.455833 ], [ 136.836563, 35.455833 ], [ 136.836563, 35.456042 ], [ 136.836563, 35.45625 ], [ 136.836563, 35.456458 ], [ 136.836563, 35.456667 ], [ 136.836563, 35.456875 ], [ 136.836875, 35.456875 ], [ 136.836875, 35.457083 ], [ 136.836875, 35.457292 ], [ 136.836875, 35.4575 ], [ 136.836875, 35.457708 ], [ 136.837188, 35.457708 ], [ 136.837188, 35.457917 ], [ 136.837188, 35.458125 ], [ 136.837188, 35.458333 ], [ 136.8375, 35.458333 ], [ 136.8375, 35.458125 ], [ 136.837813, 35.458125 ], [ 136.837813, 35.458333 ], [ 136.8375, 35.458333 ], [ 136.8375, 35.458542 ], [ 136.8375, 35.45875 ], [ 136.8375, 35.458958 ], [ 136.837813, 35.458958 ], [ 136.837813, 35.459167 ], [ 136.838125, 35.459167 ], [ 136.838125, 35.459375 ], [ 136.838125, 35.459583 ], [ 136.838125, 35.459792 ], [ 136.838125, 35.46 ], [ 136.838125, 35.460208 ], [ 136.838438, 35.460208 ], [ 136.838438, 35.460417 ], [ 136.838438, 35.460625 ], [ 136.83875, 35.460625 ], [ 136.83875, 35.460833 ], [ 136.83875, 35.461042 ], [ 136.839063, 35.461042 ], [ 136.839063, 35.46125 ], [ 136.839063, 35.461458 ], [ 136.839375, 35.461458 ], [ 136.839375, 35.461667 ], [ 136.839375, 35.461875 ], [ 136.839688, 35.461875 ], [ 136.839688, 35.462083 ], [ 136.839688, 35.462292 ], [ 136.84, 35.462292 ], [ 136.84, 35.4625 ], [ 136.84, 35.462708 ], [ 136.840313, 35.462708 ], [ 136.840313, 35.462917 ], [ 136.840625, 35.462917 ], [ 136.840625, 35.463125 ], [ 136.840938, 35.463125 ], [ 136.840938, 35.463333 ], [ 136.84125, 35.463333 ], [ 136.84125, 35.463542 ], [ 136.841563, 35.463542 ], [ 136.841875, 35.463542 ], [ 136.841875, 35.46375 ], [ 136.842188, 35.46375 ], [ 136.842188, 35.463958 ], [ 136.8425, 35.463958 ], [ 136.842813, 35.463958 ], [ 136.842813, 35.464167 ], [ 136.843125, 35.464167 ], [ 136.843125, 35.464375 ], [ 136.843438, 35.464375 ], [ 136.84375, 35.464375 ], [ 136.84375, 35.464583 ], [ 136.844063, 35.464583 ], [ 136.844063, 35.464792 ], [ 136.844375, 35.464792 ], [ 136.844375, 35.465 ], [ 136.844688, 35.465 ], [ 136.845, 35.465 ], [ 136.845313, 35.465 ], [ 136.845313, 35.465208 ], [ 136.845625, 35.465208 ], [ 136.845625, 35.465417 ], [ 136.845625, 35.465625 ], [ 136.845938, 35.465625 ], [ 136.84625, 35.465625 ], [ 136.84625, 35.465833 ], [ 136.846563, 35.465833 ], [ 136.846875, 35.465833 ], [ 136.846875, 35.466042 ], [ 136.847188, 35.466042 ], [ 136.847188, 35.465833 ], [ 136.8475, 35.465833 ], [ 136.8475, 35.466042 ], [ 136.847188, 35.466042 ], [ 136.847188, 35.46625 ], [ 136.8475, 35.46625 ], [ 136.847813, 35.46625 ], [ 136.847813, 35.466458 ], [ 136.848125, 35.466458 ], [ 136.848438, 35.466458 ], [ 136.848438, 35.466667 ], [ 136.84875, 35.466667 ], [ 136.849063, 35.466667 ], [ 136.849063, 35.466458 ], [ 136.849063, 35.46625 ], [ 136.84875, 35.46625 ], [ 136.84875, 35.466042 ], [ 136.84875, 35.465833 ], [ 136.848438, 35.465833 ], [ 136.848438, 35.465625 ], [ 136.848125, 35.465625 ], [ 136.848125, 35.465417 ], [ 136.848125, 35.465208 ], [ 136.847813, 35.465208 ], [ 136.847813, 35.465 ], [ 136.847813, 35.464792 ] ], [ [ 136.847188, 35.465417 ], [ 136.847188, 35.465625 ], [ 136.846875, 35.465625 ], [ 136.846875, 35.465417 ], [ 136.847188, 35.465417 ] ], [ [ 136.843438, 35.459792 ], [ 136.843438, 35.459583 ], [ 136.84375, 35.459583 ], [ 136.84375, 35.459792 ], [ 136.843438, 35.459792 ] ], [ [ 136.84375, 35.459375 ], [ 136.84375, 35.459167 ], [ 136.844063, 35.459167 ], [ 136.844063, 35.459375 ], [ 136.84375, 35.459375 ] ], [ [ 136.844063, 35.458958 ], [ 136.844063, 35.45875 ], [ 136.844375, 35.45875 ], [ 136.844375, 35.458958 ], [ 136.844063, 35.458958 ] ], [ [ 136.845625, 35.458333 ], [ 136.845625, 35.458125 ], [ 136.845625, 35.457917 ], [ 136.845938, 35.457917 ], [ 136.845938, 35.458125 ], [ 136.845938, 35.458333 ], [ 136.845625, 35.458333 ] ], [ [ 136.847188, 35.458125 ], [ 136.847188, 35.457917 ], [ 136.8475, 35.457917 ], [ 136.8475, 35.458125 ], [ 136.847188, 35.458125 ] ], [ [ 136.845, 35.457917 ], [ 136.845, 35.458125 ], [ 136.844688, 35.458125 ], [ 136.844688, 35.457917 ], [ 136.845, 35.457917 ] ] ] } }
]
}
