{
"type": "FeatureCollection",
"name": "A31a-42-25_21_8505090087_20",
"crs": { "type": "name", "properties": { "name": "urn:ogc:def:crs:EPSG::6668" } },
"xy_coordinate_resolution": 1e-09,
"features": [
{ "type": "Feature", "properties": { "A31a_401": "8505090087", "A31a_402": "福富川", "A31a_403": "21", "A31a_404": "岐阜県", "A31a_405": 2 }, "geometry": { "type": "Polygon", "coordinates": [ [ [ 136.818138625, 35.477783282 ], [ 136.81834953, 35.477750466 ], [ 136.818888764, 35.477770415 ], [ 136.819167473, 35.477793606 ], [ 136.819435683, 35.477797872 ], [ 136.81971234, 35.477816988 ], [ 136.819987027, 35.477822782 ], [ 136.820264826, 35.477827173 ], [ 136.821086633, 35.477893189 ], [ 136.821365299, 35.477872378 ], [ 136.821641202, 35.477877745 ], [ 136.821917525, 35.477868222 ], [ 136.822193417, 35.47788261 ], [ 136.822473278, 35.477891518 ], [ 136.823298984, 35.477906907 ], [ 136.823576544, 35.477909151 ], [ 136.823851377, 35.477917537 ], [ 136.824128733, 35.477894904 ], [ 136.824385446, 35.477944997 ], [ 136.824399276, 35.477962174 ], [ 136.824727001, 35.477912763 ], [ 136.824898597, 35.477821371 ], [ 136.825106123, 35.477770715 ], [ 136.825300314, 35.477675931 ], [ 136.825506312, 35.477614388 ], [ 136.825733306, 35.477593698 ], [ 136.825938004, 35.477522777 ], [ 136.826131414, 35.477426529 ], [ 136.826335678, 35.477368348 ], [ 136.826541526, 35.477300308 ], [ 136.826744515, 35.477242776 ], [ 136.826956582, 35.477192218 ], [ 136.827173261, 35.477102547 ], [ 136.827401059, 35.476992255 ], [ 136.827559516, 35.476814936 ], [ 136.827671523, 35.476624059 ], [ 136.827724608, 35.47644747 ], [ 136.827791944, 35.476277077 ], [ 136.827845112, 35.476102143 ], [ 136.827938381, 35.475935922 ], [ 136.828008299, 35.475763971 ], [ 136.828072668, 35.47559349 ], [ 136.828114948, 35.475415423 ], [ 136.828180534, 35.475244555 ], [ 136.828246903, 35.475072589 ], [ 136.828348803, 35.474902528 ], [ 136.828376984, 35.474727021 ], [ 136.828439492, 35.474555304 ], [ 136.828499159, 35.474380966 ], [ 136.828543661, 35.474204357 ], [ 136.828610081, 35.474030687 ], [ 136.828672927, 35.473860289 ], [ 136.828771908, 35.473508555 ], [ 136.828855137, 35.473339334 ], [ 136.828907173, 35.473164756 ], [ 136.828966949, 35.472991942 ], [ 136.829021844, 35.472818432 ], [ 136.829087125, 35.472644543 ], [ 136.829130054, 35.472468446 ], [ 136.829193724, 35.47229843 ], [ 136.829274344, 35.472117861 ], [ 136.82934695, 35.471966225 ], [ 136.829432244, 35.471801107 ], [ 136.829507127, 35.47164 ], [ 136.829649729, 35.471426253 ], [ 136.829941995, 35.471308154 ], [ 136.830545037, 35.471056736 ], [ 136.830932948, 35.470789147 ], [ 136.831706003, 35.470086901 ], [ 136.832113786, 35.469676905 ], [ 136.832292142, 35.469529481 ], [ 136.832203978, 35.469381107 ], [ 136.831993052, 35.469524151 ], [ 136.831543918, 35.470009696 ], [ 136.830842898, 35.470725977 ], [ 136.830484396, 35.470985636 ], [ 136.829889157, 35.471222662 ], [ 136.829564089, 35.471362102 ], [ 136.82937875, 35.471600468 ], [ 136.829309892, 35.471766904 ], [ 136.829222503, 35.471932319 ], [ 136.829122521, 35.472075098 ], [ 136.829064998, 35.472267378 ], [ 136.829, 35.472438949 ], [ 136.82893775, 35.472610086 ], [ 136.828877958, 35.47278515 ], [ 136.828834218, 35.472961065 ], [ 136.82877324, 35.473133547 ], [ 136.828714267, 35.473306687 ], [ 136.828630224, 35.473475395 ], [ 136.828580042, 35.47365048 ], [ 136.828523571, 35.47382372 ], [ 136.828461976, 35.473996262 ], [ 136.82840058, 35.474170897 ], [ 136.82834012, 35.474344515 ], [ 136.828280442, 35.474517686 ], [ 136.828221159, 35.474690873 ], [ 136.828161053, 35.474863572 ], [ 136.82809898, 35.475038185 ], [ 136.828038751, 35.475211492 ], [ 136.82797873, 35.475383594 ], [ 136.827917872, 35.475557598 ], [ 136.827856602, 35.475728628 ], [ 136.827794721, 35.475902361 ], [ 136.827735216, 35.476075642 ], [ 136.82767531, 35.476250075 ], [ 136.827615215, 35.476422491 ], [ 136.827554375, 35.476596202 ], [ 136.827461459, 35.476768168 ], [ 136.827314939, 35.476914416 ], [ 136.827122183, 35.47701885 ], [ 136.826914167, 35.477089979 ], [ 136.826705524, 35.477147431 ], [ 136.826500109, 35.477206664 ], [ 136.826292305, 35.477267223 ], [ 136.826087246, 35.477328915 ], [ 136.825879706, 35.477391951 ], [ 136.825672002, 35.47745406 ], [ 136.825464925, 35.477515594 ], [ 136.825258234, 35.477578222 ], [ 136.825051378, 35.477640845 ], [ 136.824845183, 35.47770315 ], [ 136.824649809, 35.477776409 ], [ 136.824405704, 35.477798077 ], [ 136.82439272, 35.477794152 ], [ 136.824131081, 35.477787392 ], [ 136.823855601, 35.477784813 ], [ 136.823577088, 35.477781179 ], [ 136.823303673, 35.477774768 ], [ 136.822473879, 35.477750603 ], [ 136.822197128, 35.477742964 ], [ 136.821922188, 35.477736051 ], [ 136.821645704, 35.477731357 ], [ 136.821369308, 35.477726945 ], [ 136.821095141, 35.477721538 ], [ 136.820269291, 35.477692108 ], [ 136.819992519, 35.477686347 ], [ 136.819716707, 35.477681523 ], [ 136.81944114, 35.477680436 ], [ 136.819170481, 35.477677919 ], [ 136.818892521, 35.477656848 ], [ 136.818327541, 35.477645918 ], [ 136.818082238, 35.477695841 ], [ 136.817916242, 35.477825423 ], [ 136.817742735, 35.4779978 ], [ 136.817566103, 35.478173904 ], [ 136.817391738, 35.478345869 ], [ 136.817221327, 35.478524686 ], [ 136.817045664, 35.478698909 ], [ 136.816875341, 35.478871372 ], [ 136.81669953, 35.479047404 ], [ 136.816523786, 35.479221892 ], [ 136.816332598, 35.479410076 ], [ 136.816134268, 35.479626482 ], [ 136.816110155, 35.480232473 ], [ 136.816078995, 35.481133453 ], [ 136.816041188, 35.482034256 ], [ 136.816002383, 35.482935127 ], [ 136.815959898, 35.483837504 ], [ 136.815964236, 35.483836967 ], [ 136.816025869, 35.482935755 ], [ 136.816068533, 35.482034885 ], [ 136.81609644, 35.481133904 ], [ 136.816128126, 35.480232938 ], [ 136.816249512, 35.479655688 ], [ 136.81647047, 35.479509003 ], [ 136.816695116, 35.479339313 ], [ 136.816821074, 35.479126847 ], [ 136.816963855, 35.478928059 ], [ 136.817124819, 35.478754163 ], [ 136.817308507, 35.478581126 ], [ 136.817479552, 35.478403149 ], [ 136.817656364, 35.478233398 ], [ 136.817825331, 35.478050812 ], [ 136.817993591, 35.477878906 ], [ 136.818138625, 35.477783282 ] ] ] } },
{ "type": "Feature", "properties": { "A31a_401": "8505090087", "A31a_402": "福富川", "A31a_403": "21", "A31a_404": "岐阜県", "A31a_405": 2 }, "geometry": { "type": "Polygon", "coordinates": [ [ [ 136.818101016, 35.477587719 ], [ 136.81829074, 35.477557858 ], [ 136.818895401, 35.477569776 ], [ 136.819173118, 35.477576545 ], [ 136.819445739, 35.477581449 ], [ 136.819719726, 35.477587894 ], [ 136.819996191, 35.477595105 ], [ 136.820272272, 35.477601958 ], [ 136.821100517, 35.477613063 ], [ 136.821372259, 35.477619882 ], [ 136.821648848, 35.477629139 ], [ 136.821925814, 35.477633263 ], [ 136.822199799, 35.477642488 ], [ 136.822474317, 35.477647846 ], [ 136.823307324, 35.477671893 ], [ 136.823577517, 35.477680092 ], [ 136.823858687, 35.477687819 ], [ 136.824133083, 35.477695681 ], [ 136.824397099, 35.477703341 ], [ 136.824409401, 35.477703703 ], [ 136.824605273, 35.477697742 ], [ 136.824815635, 35.477637752 ], [ 136.825023667, 35.477575107 ], [ 136.825230697, 35.47751428 ], [ 136.825438986, 35.477453674 ], [ 136.825645221, 35.477393056 ], [ 136.825852121, 35.477330048 ], [ 136.826059995, 35.477268689 ], [ 136.826261678, 35.477195817 ], [ 136.826473086, 35.477145562 ], [ 136.826680375, 35.477085934 ], [ 136.826885581, 35.477021074 ], [ 136.827082501, 35.476953825 ], [ 136.827257559, 35.476862554 ], [ 136.827388882, 35.476733554 ], [ 136.827470355, 35.476576222 ], [ 136.827529298, 35.476402873 ], [ 136.827588225, 35.476229913 ], [ 136.827643677, 35.476053567 ], [ 136.827703362, 35.475881019 ], [ 136.827763566, 35.475706951 ], [ 136.827822838, 35.475535563 ], [ 136.827882594, 35.475361131 ], [ 136.827940127, 35.475188493 ], [ 136.827997432, 35.475014567 ], [ 136.828051531, 35.474840848 ], [ 136.828119067, 35.47466719 ], [ 136.828146309, 35.474485961 ], [ 136.828206461, 35.47431388 ], [ 136.828266678, 35.474139583 ], [ 136.828327494, 35.473965003 ], [ 136.828420442, 35.473798469 ], [ 136.828455666, 35.473621973 ], [ 136.828510202, 35.473447304 ], [ 136.828575614, 35.473274554 ], [ 136.828639599, 35.473102405 ], [ 136.828727798, 35.472936309 ], [ 136.828786583, 35.472764014 ], [ 136.828847818, 35.47258934 ], [ 136.828906285, 35.472417692 ], [ 136.828964925, 35.472243238 ], [ 136.829034845, 35.472050403 ], [ 136.829088495, 35.471895809 ], [ 136.829067283, 35.471699083 ], [ 136.829137992, 35.47152633 ], [ 136.829325659, 35.471191147 ], [ 136.829780662, 35.471047115 ], [ 136.830243677, 35.470886777 ], [ 136.830689949, 35.470618683 ], [ 136.83132965, 35.469907634 ], [ 136.831765628, 35.469325825 ], [ 136.832100211, 35.469206471 ], [ 136.832012048, 35.469058097 ], [ 136.831667025, 35.469257234 ], [ 136.831221672, 35.469856201 ], [ 136.830606364, 35.470560047 ], [ 136.830179696, 35.470794734 ], [ 136.829718397, 35.470946368 ], [ 136.829205612, 35.47111981 ], [ 136.82896927, 35.471474374 ], [ 136.828884876, 35.471648091 ], [ 136.828874979, 35.471837636 ], [ 136.828855575, 35.471999909 ], [ 136.828832043, 35.472211184 ], [ 136.828773652, 35.472387609 ], [ 136.828713837, 35.472558434 ], [ 136.828649549, 35.472732317 ], [ 136.828593434, 35.472905051 ], [ 136.828506931, 35.473071491 ], [ 136.828439963, 35.473243116 ], [ 136.828378371, 35.47341645 ], [ 136.828324884, 35.473591998 ], [ 136.828284073, 35.473765079 ], [ 136.828190088, 35.473933064 ], [ 136.828131921, 35.474108068 ], [ 136.828074634, 35.474283665 ], [ 136.828011114, 35.474453984 ], [ 136.827986117, 35.474636349 ], [ 136.827920916, 35.474813747 ], [ 136.82786163, 35.474982982 ], [ 136.827809041, 35.475157924 ], [ 136.82775644, 35.475331654 ], [ 136.827705781, 35.475508421 ], [ 136.827649653, 35.475680411 ], [ 136.827595691, 35.475855865 ], [ 136.827523415, 35.476024565 ], [ 136.827474175, 35.476203509 ], [ 136.827417109, 35.476377255 ], [ 136.827370739, 35.476552534 ], [ 136.827296239, 35.476689369 ], [ 136.827174693, 35.476787657 ], [ 136.827029673, 35.47686726 ], [ 136.826836172, 35.476901976 ], [ 136.826635103, 35.47697523 ], [ 136.826420183, 35.477025943 ], [ 136.826210764, 35.477077112 ], [ 136.82600712, 35.477151831 ], [ 136.825793823, 35.477199222 ], [ 136.825583917, 35.477253418 ], [ 136.825385169, 35.477325206 ], [ 136.825179064, 35.477394386 ], [ 136.824968922, 35.477445237 ], [ 136.824762222, 35.47751953 ], [ 136.824528081, 35.477561388 ], [ 136.824415828, 35.477539605 ], [ 136.824404372, 35.477552496 ], [ 136.82413543, 35.477588169 ], [ 136.823861725, 35.477592367 ], [ 136.823577946, 35.477579253 ], [ 136.823311002, 35.477568255 ], [ 136.82247485, 35.477522659 ], [ 136.8222031, 35.477518254 ], [ 136.821930477, 35.477501092 ], [ 136.82165335, 35.477482752 ], [ 136.821376267, 35.477474448 ], [ 136.821109025, 35.477441412 ], [ 136.820276736, 35.477466893 ], [ 136.820001683, 35.47745867 ], [ 136.819724094, 35.477452428 ], [ 136.819451195, 35.477464013 ], [ 136.819176126, 35.477460858 ], [ 136.818899157, 35.477456209 ], [ 136.818282671, 35.477461765 ], [ 136.818042251, 35.477523229 ], [ 136.817765825, 35.477721415 ], [ 136.817582502, 35.477894959 ], [ 136.817397486, 35.478062761 ], [ 136.817227933, 35.478239022 ], [ 136.817054832, 35.478416899 ], [ 136.816889306, 35.478589763 ], [ 136.81670355, 35.478761351 ], [ 136.816488758, 35.478909639 ], [ 136.816264898, 35.47904446 ], [ 136.816112802, 35.479252365 ], [ 136.815943667, 35.479536072 ], [ 136.815977627, 35.480229042 ], [ 136.815916391, 35.481129254 ], [ 136.815895703, 35.482030914 ], [ 136.815885828, 35.48293201 ], [ 136.81586982, 35.483848656 ], [ 136.81590849, 35.483843869 ], [ 136.815942055, 35.482933513 ], [ 136.81595263, 35.482032222 ], [ 136.815987371, 35.481131087 ], [ 136.816024669, 35.48023026 ], [ 136.816053673, 35.479561414 ], [ 136.816250674, 35.479351293 ], [ 136.816436227, 35.479161882 ], [ 136.816610301, 35.478989083 ], [ 136.816792063, 35.478818038 ], [ 136.816968461, 35.478645017 ], [ 136.817142012, 35.478473339 ], [ 136.817315747, 35.478296302 ], [ 136.817487747, 35.478122256 ], [ 136.817665097, 35.47794797 ], [ 136.817843173, 35.477774899 ], [ 136.818101016, 35.477587719 ] ] ] } }
]
}
