{
"type": "FeatureCollection",
"name": "A31a-30-25_21_8505080120_20",
"crs": { "type": "name", "properties": { "name": "urn:ogc:def:crs:EPSG::6668" } },
"xy_coordinate_resolution": 1e-09,
"features": [
{ "type": "Feature", "properties": { "A31a_301": "8505080120", "A31a_302": "肥田川", "A31a_303": "21", "A31a_304": "岐阜県", "A31a_305": 1 }, "geometry": { "type": "Polygon", "coordinates": [ [ [ 137.218750231, 35.348333292 ], [ 137.218750232, 35.348541626 ], [ 137.218750232, 35.348749959 ], [ 137.218750232, 35.348958292 ], [ 137.218750232, 35.349166625 ], [ 137.218437732, 35.349166626 ], [ 137.218437732, 35.349374958 ], [ 137.218437733, 35.349583291 ], [ 137.218437733, 35.349791625 ], [ 137.218437733, 35.349999957 ], [ 137.218125233, 35.349999958 ], [ 137.218125233, 35.35020829 ], [ 137.218125234, 35.350416624 ], [ 137.217812733, 35.350416624 ], [ 137.217500233, 35.350416625 ], [ 137.217500234, 35.350624957 ], [ 137.217187733, 35.350624958 ], [ 137.217187734, 35.35083329 ], [ 137.216875234, 35.350833291 ], [ 137.216875234, 35.351041624 ], [ 137.216562734, 35.351041625 ], [ 137.216562734, 35.351249957 ], [ 137.216562734, 35.35145829 ], [ 137.216562735, 35.351666624 ], [ 137.216875235, 35.351666623 ], [ 137.216875234, 35.35145829 ], [ 137.217187735, 35.351458289 ], [ 137.217187734, 35.351249957 ], [ 137.217500234, 35.351249956 ], [ 137.217812735, 35.351249956 ], [ 137.217812734, 35.351041623 ], [ 137.218125234, 35.351041623 ], [ 137.218437735, 35.351041623 ], [ 137.218437734, 35.350833289 ], [ 137.218750234, 35.350833289 ], [ 137.219062735, 35.350833288 ], [ 137.219062734, 35.350624956 ], [ 137.219375234, 35.350624955 ], [ 137.219375234, 35.350416623 ], [ 137.219687734, 35.350416622 ], [ 137.219687734, 35.350208289 ], [ 137.219687734, 35.349999956 ], [ 137.219687734, 35.349791623 ], [ 137.219687733, 35.34958329 ], [ 137.219687733, 35.349374957 ], [ 137.219375233, 35.349374957 ], [ 137.219375233, 35.349166625 ], [ 137.219375232, 35.348958291 ], [ 137.219062732, 35.348958291 ], [ 137.219062732, 35.348749958 ], [ 137.219062732, 35.348541626 ], [ 137.219062732, 35.348333292 ], [ 137.218750231, 35.348333292 ] ] ] } },
{ "type": "Feature", "properties": { "A31a_301": "8505080120", "A31a_302": "肥田川", "A31a_303": "21", "A31a_304": "岐阜県", "A31a_305": 1 }, "geometry": { "type": "Polygon", "coordinates": [ [ [ 137.220312728, 35.345208296 ], [ 137.220000228, 35.345208296 ], [ 137.219687728, 35.345208296 ], [ 137.219687728, 35.34541663 ], [ 137.219375228, 35.34541663 ], [ 137.219375228, 35.345624963 ], [ 137.219062728, 35.345624963 ], [ 137.219062729, 35.345833296 ], [ 137.218750228, 35.345833296 ], [ 137.218437728, 35.345833297 ], [ 137.218437729, 35.34604163 ], [ 137.218125229, 35.346041631 ], [ 137.218125229, 35.346249963 ], [ 137.218125229, 35.346458296 ], [ 137.217812729, 35.346458296 ], [ 137.217812729, 35.34666663 ], [ 137.217812729, 35.346874963 ], [ 137.218125229, 35.346874962 ], [ 137.21812523, 35.347083295 ], [ 137.21812523, 35.347291629 ], [ 137.21812523, 35.347499961 ], [ 137.21843773, 35.347499961 ], [ 137.21875023, 35.347499961 ], [ 137.21875023, 35.347291628 ], [ 137.21906273, 35.347291628 ], [ 137.21906273, 35.347083294 ], [ 137.21906273, 35.346874961 ], [ 137.21906273, 35.346666629 ], [ 137.219062729, 35.346458295 ], [ 137.219375229, 35.346458295 ], [ 137.219375229, 35.346249962 ], [ 137.219687729, 35.346249962 ], [ 137.219687729, 35.346041629 ], [ 137.220000229, 35.346041629 ], [ 137.220000229, 35.345833295 ], [ 137.220000229, 35.345624962 ], [ 137.220312729, 35.345624962 ], [ 137.220312728, 35.345416629 ], [ 137.220625229, 35.345416629 ], [ 137.220625228, 35.345208295 ], [ 137.220312728, 35.345208296 ] ] ] } },
{ "type": "Feature", "properties": { "A31a_301": "8505080120", "A31a_302": "肥田川", "A31a_303": "21", "A31a_304": "岐阜県", "A31a_305": 1 }, "geometry": { "type": "Polygon", "coordinates": [ [ [ 137.209375241, 35.358749952 ], [ 137.209375242, 35.358958285 ], [ 137.209687742, 35.358958285 ], [ 137.209687742, 35.358749952 ], [ 137.209375241, 35.358749952 ] ] ] } },
{ "type": "Feature", "properties": { "A31a_301": "8505080120", "A31a_302": "肥田川", "A31a_303": "21", "A31a_304": "岐阜県", "A31a_305": 1 }, "geometry": { "type": "Polygon", "coordinates": [ [ [ 137.21093774, 35.357499953 ], [ 137.21062524, 35.357499953 ], [ 137.21031274, 35.357499953 ], [ 137.21000024, 35.357499954 ], [ 137.20968774, 35.357499954 ], [ 137.20937524, 35.357499954 ], [ 137.20906274, 35.357499954 ], [ 137.20906274, 35.357708287 ], [ 137.20906274, 35.357916621 ], [ 137.20937524, 35.35791662 ], [ 137.209375241, 35.358124953 ], [ 137.209687741, 35.358124953 ], [ 137.209687741, 35.358333286 ], [ 137.209687741, 35.358541619 ], [ 137.210000241, 35.358541619 ], [ 137.210000242, 35.358749952 ], [ 137.210000242, 35.358958284 ], [ 137.210312742, 35.358958284 ], [ 137.210625242, 35.358958284 ], [ 137.210625242, 35.358749951 ], [ 137.210625242, 35.358541618 ], [ 137.210937742, 35.358541618 ], [ 137.211250242, 35.358541618 ], [ 137.211250241, 35.358333284 ], [ 137.211562741, 35.358333284 ], [ 137.211875242, 35.358333284 ], [ 137.212187742, 35.358333283 ], [ 137.212500242, 35.358333283 ], [ 137.212812742, 35.358333283 ], [ 137.213125242, 35.358333282 ], [ 137.213125242, 35.35812495 ], [ 137.212812742, 35.35812495 ], [ 137.212500241, 35.35812495 ], [ 137.212500241, 35.357916618 ], [ 137.212187741, 35.357916618 ], [ 137.211875241, 35.357916618 ], [ 137.211562741, 35.357916619 ], [ 137.211562741, 35.357708285 ], [ 137.21156274, 35.357499952 ], [ 137.21125024, 35.357499952 ], [ 137.21093774, 35.357499953 ] ] ] } },
{ "type": "Feature", "properties": { "A31a_301": "8505080120", "A31a_302": "肥田川", "A31a_303": "21", "A31a_304": "岐阜県", "A31a_305": 1 }, "geometry": { "type": "Polygon", "coordinates": [ [ [ 137.208750241, 35.35854162 ], [ 137.208750241, 35.358749953 ], [ 137.208437741, 35.358749953 ], [ 137.208437742, 35.358958286 ], [ 137.208437742, 35.35916662 ], [ 137.208437742, 35.359374952 ], [ 137.208437742, 35.359583285 ], [ 137.208437743, 35.359791619 ], [ 137.208125242, 35.359791619 ], [ 137.208125243, 35.359999952 ], [ 137.207812743, 35.359999952 ], [ 137.207812743, 35.360208285 ], [ 137.207500243, 35.360208285 ], [ 137.207500243, 35.360416619 ], [ 137.207187743, 35.360416619 ], [ 137.207187743, 35.360624952 ], [ 137.207187743, 35.360833284 ], [ 137.206875243, 35.360833285 ], [ 137.206875244, 35.361041618 ], [ 137.206562744, 35.361041619 ], [ 137.206562744, 35.361249951 ], [ 137.206562744, 35.361458284 ], [ 137.206562744, 35.361666618 ], [ 137.206250244, 35.361666618 ], [ 137.206250244, 35.361874951 ], [ 137.206250245, 35.362083284 ], [ 137.206250245, 35.362291617 ], [ 137.206250245, 35.36249995 ], [ 137.206562745, 35.36249995 ], [ 137.206562745, 35.362291617 ], [ 137.206562745, 35.362083283 ], [ 137.206875245, 35.362083283 ], [ 137.206875245, 35.362291617 ], [ 137.207187745, 35.362291616 ], [ 137.207187745, 35.362499949 ], [ 137.207500246, 35.362499949 ], [ 137.207500245, 35.362291616 ], [ 137.207812745, 35.362291616 ], [ 137.207812745, 35.362083282 ], [ 137.207812745, 35.361874949 ], [ 137.207812745, 35.361666617 ], [ 137.207812744, 35.361458283 ], [ 137.208125244, 35.361458283 ], [ 137.208437745, 35.361458282 ], [ 137.208437744, 35.36124995 ], [ 137.208437744, 35.361041617 ], [ 137.208125244, 35.361041617 ], [ 137.208125244, 35.360833284 ], [ 137.208125243, 35.360624951 ], [ 137.208437744, 35.360624951 ], [ 137.208437743, 35.360416618 ], [ 137.208750243, 35.360416618 ], [ 137.208750243, 35.360208284 ], [ 137.208750243, 35.359999951 ], [ 137.209062743, 35.359999951 ], [ 137.209062743, 35.359791618 ], [ 137.209062742, 35.359583284 ], [ 137.209062742, 35.359374952 ], [ 137.209375242, 35.359374951 ], [ 137.209375242, 35.359166619 ], [ 137.209375242, 35.358958285 ], [ 137.209062742, 35.358958285 ], [ 137.209062741, 35.358749953 ], [ 137.209062741, 35.35854162 ], [ 137.208750241, 35.35854162 ] ] ] } },
{ "type": "Feature", "properties": { "A31a_301": "8505080120", "A31a_302": "肥田川", "A31a_303": "21", "A31a_304": "岐阜県", "A31a_305": 1 }, "geometry": { "type": "Polygon", "coordinates": [ [ [ 137.208125246, 35.362291616 ], [ 137.208125246, 35.362499948 ], [ 137.207812746, 35.362499949 ], [ 137.207812746, 35.362708281 ], [ 137.208125246, 35.362708281 ], [ 137.208437746, 35.362708281 ], [ 137.208750246, 35.362708281 ], [ 137.209062746, 35.36270828 ], [ 137.209062746, 35.362499948 ], [ 137.209062746, 35.362291615 ], [ 137.208750246, 35.362291615 ], [ 137.208437746, 35.362291615 ], [ 137.208125246, 35.362291616 ] ] ] } },
{ "type": "Feature", "properties": { "A31a_301": "8505080120", "A31a_302": "肥田川", "A31a_303": "21", "A31a_304": "岐阜県", "A31a_305": 1 }, "geometry": { "type": "Polygon", "coordinates": [ [ [ 137.224375226, 35.342499963 ], [ 137.224375226, 35.342708296 ], [ 137.224062726, 35.342708296 ], [ 137.224062726, 35.34291663 ], [ 137.223750226, 35.34291663 ], [ 137.223437726, 35.34291663 ], [ 137.223437727, 35.343124963 ], [ 137.223125226, 35.343124963 ], [ 137.222812726, 35.343124963 ], [ 137.222500226, 35.343124964 ], [ 137.222500227, 35.343333296 ], [ 137.222187726, 35.343333297 ], [ 137.221875226, 35.343333297 ], [ 137.221562726, 35.343333297 ], [ 137.221562727, 35.343541631 ], [ 137.221562727, 35.343749964 ], [ 137.221562727, 35.343958296 ], [ 137.221562727, 35.34416663 ], [ 137.221562728, 35.344374963 ], [ 137.221250228, 35.344374963 ], [ 137.221250228, 35.344583296 ], [ 137.221250228, 35.344791629 ], [ 137.221562728, 35.344791629 ], [ 137.221562728, 35.344583295 ], [ 137.221875228, 35.344583295 ], [ 137.221875228, 35.344374962 ], [ 137.222187728, 35.344374962 ], [ 137.222500228, 35.344374962 ], [ 137.222500228, 35.344166629 ], [ 137.222812728, 35.344166629 ], [ 137.222812727, 35.343958295 ], [ 137.223125228, 35.343958295 ], [ 137.223437728, 35.343958295 ], [ 137.223437727, 35.343749962 ], [ 137.223750227, 35.343749962 ], [ 137.223750227, 35.343541629 ], [ 137.224062727, 35.343541629 ], [ 137.224062727, 35.343333295 ], [ 137.224375227, 35.343333295 ], [ 137.224375227, 35.343124962 ], [ 137.224687727, 35.343124962 ], [ 137.224687727, 35.342916629 ], [ 137.225000227, 35.342916629 ], [ 137.225312727, 35.342916628 ], [ 137.225312727, 35.342708295 ], [ 137.225000226, 35.342708295 ], [ 137.225000226, 35.342499963 ], [ 137.224687726, 35.342499963 ], [ 137.224375226, 35.342499963 ] ] ] } },
{ "type": "Feature", "properties": { "A31a_301": "8505080120", "A31a_302": "肥田川", "A31a_303": "21", "A31a_304": "岐阜県", "A31a_305": 1 }, "geometry": { "type": "Polygon", "coordinates": [ [ [ 137.225312726, 35.342499962 ], [ 137.225312727, 35.342708295 ], [ 137.225625227, 35.342708294 ], [ 137.225625226, 35.342499962 ], [ 137.225312726, 35.342499962 ] ] ] } },
{ "type": "Feature", "properties": { "A31a_301": "8505080120", "A31a_302": "肥田川", "A31a_303": "21", "A31a_304": "岐阜県", "A31a_305": 1 }, "geometry": { "type": "Polygon", "coordinates": [ [ [ 137.236250212, 35.324374983 ], [ 137.236250213, 35.324583316 ], [ 137.236250213, 35.324791649 ], [ 137.236250213, 35.324999982 ], [ 137.235937713, 35.324999982 ], [ 137.235937713, 35.324791649 ], [ 137.235937712, 35.324583316 ], [ 137.235625212, 35.324583316 ], [ 137.235625212, 35.324374984 ], [ 137.235312712, 35.324374984 ], [ 137.235312712, 35.324583316 ], [ 137.235312712, 35.32479165 ], [ 137.235312712, 35.324999983 ], [ 137.235312713, 35.325208315 ], [ 137.235312713, 35.325416649 ], [ 137.235312713, 35.325624981 ], [ 137.235312713, 35.325833314 ], [ 137.235312714, 35.326041647 ], [ 137.235625214, 35.326041647 ], [ 137.235625214, 35.325833314 ], [ 137.235625213, 35.325624981 ], [ 137.235937713, 35.325624981 ], [ 137.235937713, 35.325416648 ], [ 137.236250213, 35.325416648 ], [ 137.236250213, 35.325208314 ], [ 137.236562713, 35.325208314 ], [ 137.236562713, 35.324999981 ], [ 137.236562713, 35.324791649 ], [ 137.236562713, 35.324583315 ], [ 137.236562713, 35.324374983 ], [ 137.236250212, 35.324374983 ] ] ] } },
{ "type": "Feature", "properties": { "A31a_301": "8505080120", "A31a_302": "肥田川", "A31a_303": "21", "A31a_304": "岐阜県", "A31a_305": 1 }, "geometry": { "type": "Polygon", "coordinates": [ [ [ 137.242187713, 35.322083314 ], [ 137.242187713, 35.322291648 ], [ 137.242500213, 35.322291647 ], [ 137.242500213, 35.322083314 ], [ 137.242187713, 35.322083314 ] ] ] } },
{ "type": "Feature", "properties": { "A31a_301": "8505080120", "A31a_302": "肥田川", "A31a_303": "21", "A31a_304": "岐阜県", "A31a_305": 1 }, "geometry": { "type": "Polygon", "coordinates": [ [ [ 137.242500213, 35.322291647 ], [ 137.242500214, 35.32249998 ], [ 137.242812714, 35.322499979 ], [ 137.242812714, 35.322291647 ], [ 137.242500213, 35.322291647 ] ] ] } },
{ "type": "Feature", "properties": { "A31a_301": "8505080120", "A31a_302": "肥田川", "A31a_303": "21", "A31a_304": "岐阜県", "A31a_305": 1 }, "geometry": { "type": "Polygon", "coordinates": [ [ [ 137.216875237, 35.353124954 ], [ 137.216875237, 35.353333286 ], [ 137.216562737, 35.353333287 ], [ 137.216562737, 35.35354162 ], [ 137.216562737, 35.353749953 ], [ 137.216250237, 35.353749953 ], [ 137.216250238, 35.353958286 ], [ 137.216250238, 35.35416662 ], [ 137.216250238, 35.354374952 ], [ 137.216250238, 35.354583285 ], [ 137.215937738, 35.354583285 ], [ 137.215937738, 35.354791619 ], [ 137.215937739, 35.354999952 ], [ 137.215937739, 35.355208284 ], [ 137.215625239, 35.355208285 ], [ 137.215625239, 35.355416618 ], [ 137.215625239, 35.355624951 ], [ 137.215312739, 35.355624951 ], [ 137.21531274, 35.355833284 ], [ 137.215000239, 35.355833284 ], [ 137.214687739, 35.355833285 ], [ 137.21468774, 35.356041618 ], [ 137.21468774, 35.356249951 ], [ 137.21500024, 35.356249951 ], [ 137.21500024, 35.356041618 ], [ 137.21531274, 35.356041618 ], [ 137.21531274, 35.35624995 ], [ 137.21531274, 35.356458283 ], [ 137.215312741, 35.356666617 ], [ 137.215625241, 35.356666616 ], [ 137.215937741, 35.356666616 ], [ 137.215937741, 35.356874949 ], [ 137.215625241, 35.356874949 ], [ 137.215312741, 35.356874949 ], [ 137.215312741, 35.356666617 ], [ 137.215000241, 35.356666617 ], [ 137.21468774, 35.356666617 ], [ 137.214687741, 35.35687495 ], [ 137.214375241, 35.35687495 ], [ 137.21437524, 35.356666618 ], [ 137.21406274, 35.356666618 ], [ 137.21375024, 35.356666618 ], [ 137.21343774, 35.356666619 ], [ 137.21343774, 35.356874951 ], [ 137.21312524, 35.356874952 ], [ 137.21281274, 35.356874952 ], [ 137.21281274, 35.356666619 ], [ 137.212500239, 35.35666662 ], [ 137.212187739, 35.35666662 ], [ 137.211875239, 35.35666662 ], [ 137.211875239, 35.356458287 ], [ 137.211562739, 35.356458287 ], [ 137.211250239, 35.356458287 ], [ 137.210937739, 35.356458287 ], [ 137.210937739, 35.356249955 ], [ 137.210625238, 35.356249955 ], [ 137.210625239, 35.356458288 ], [ 137.210312739, 35.356458288 ], [ 137.210000239, 35.356458288 ], [ 137.210000238, 35.356249956 ], [ 137.209687738, 35.356249956 ], [ 137.209687738, 35.356041623 ], [ 137.209375238, 35.356041623 ], [ 137.209062738, 35.356041624 ], [ 137.208750238, 35.356041624 ], [ 137.208750237, 35.35583329 ], [ 137.208437737, 35.355833291 ], [ 137.208437738, 35.356041624 ], [ 137.208125238, 35.356041624 ], [ 137.208125238, 35.356249957 ], [ 137.207812738, 35.356249957 ], [ 137.207812738, 35.35645829 ], [ 137.207812738, 35.356666624 ], [ 137.207500238, 35.356666624 ], [ 137.207500239, 35.356874957 ], [ 137.207500239, 35.357083289 ], [ 137.207500239, 35.357291623 ], [ 137.207812739, 35.357291623 ], [ 137.208125239, 35.357291623 ], [ 137.20812524, 35.357499955 ], [ 137.20843774, 35.357499955 ], [ 137.208437739, 35.357291622 ], [ 137.208750239, 35.357291622 ], [ 137.208750239, 35.357083288 ], [ 137.209062739, 35.357083288 ], [ 137.209375239, 35.357083288 ], [ 137.209687739, 35.357083287 ], [ 137.210000239, 35.357083287 ], [ 137.21031274, 35.357083287 ], [ 137.21062524, 35.357083287 ], [ 137.21093774, 35.357083286 ], [ 137.21125024, 35.357083286 ], [ 137.21156274, 35.357083286 ], [ 137.21187524, 35.357083286 ], [ 137.21187524, 35.357291619 ], [ 137.21218774, 35.357291619 ], [ 137.21250024, 35.357291619 ], [ 137.212500241, 35.357499951 ], [ 137.212812741, 35.357499951 ], [ 137.213125241, 35.357499951 ], [ 137.213125241, 35.357708283 ], [ 137.213437741, 35.357708283 ], [ 137.213750241, 35.357708283 ], [ 137.213750242, 35.357916616 ], [ 137.214062742, 35.357916616 ], [ 137.214375242, 35.357916616 ], [ 137.214687742, 35.357916615 ], [ 137.214687742, 35.357708282 ], [ 137.215000242, 35.357708281 ], [ 137.215312742, 35.357708281 ], [ 137.215625242, 35.357708281 ], [ 137.215937742, 35.35770828 ], [ 137.215937742, 35.357499948 ], [ 137.216250242, 35.357499947 ], [ 137.216250242, 35.357291615 ], [ 137.216250242, 35.357083281 ], [ 137.216562742, 35.357083281 ], [ 137.216562742, 35.356874948 ], [ 137.216562741, 35.356666615 ], [ 137.216562741, 35.356458282 ], [ 137.216562741, 35.356249949 ], [ 137.21656274, 35.356041616 ], [ 137.21656274, 35.355833283 ], [ 137.21656274, 35.35562495 ], [ 137.21687524, 35.35562495 ], [ 137.21687524, 35.355416617 ], [ 137.216875239, 35.355208283 ], [ 137.216875239, 35.354999951 ], [ 137.216875239, 35.354791618 ], [ 137.217187739, 35.354791618 ], [ 137.217187739, 35.354583284 ], [ 137.217187738, 35.354374951 ], [ 137.217500239, 35.354374951 ], [ 137.217500238, 35.354166618 ], [ 137.217500238, 35.353958285 ], [ 137.217500238, 35.353749952 ], [ 137.217500238, 35.353541619 ], [ 137.217500237, 35.353333286 ], [ 137.217187737, 35.353333286 ], [ 137.217187737, 35.353124953 ], [ 137.216875237, 35.353124954 ] ] ] } },
{ "type": "Feature", "properties": { "A31a_301": "8505080120", "A31a_302": "肥田川", "A31a_303": "21", "A31a_304": "岐阜県", "A31a_305": 1 }, "geometry": { "type": "Polygon", "coordinates": [ [ [ 137.235625214, 35.326041647 ], [ 137.235625214, 35.32624998 ], [ 137.235625214, 35.326458312 ], [ 137.235312714, 35.326458313 ], [ 137.235312714, 35.326666646 ], [ 137.235312714, 35.326874979 ], [ 137.235312715, 35.327083311 ], [ 137.235625215, 35.327083311 ], [ 137.235625215, 35.327291645 ], [ 137.235625215, 35.327499977 ], [ 137.235625215, 35.32770831 ], [ 137.235312715, 35.32770831 ], [ 137.235312715, 35.327499978 ], [ 137.235000215, 35.327499978 ], [ 137.235000215, 35.327708311 ], [ 137.234687715, 35.327708311 ], [ 137.234375215, 35.327708311 ], [ 137.234375215, 35.327916645 ], [ 137.234062715, 35.327916645 ], [ 137.234062715, 35.328124978 ], [ 137.233750215, 35.328124978 ], [ 137.233437715, 35.328124978 ], [ 137.233125214, 35.328124979 ], [ 137.233125215, 35.328333311 ], [ 137.233125215, 35.328541645 ], [ 137.232812715, 35.328541645 ], [ 137.232812715, 35.328749978 ], [ 137.232500215, 35.328749978 ], [ 137.232500215, 35.328958311 ], [ 137.232187715, 35.328958311 ], [ 137.232187715, 35.329166645 ], [ 137.231875215, 35.329166645 ], [ 137.231875215, 35.329374977 ], [ 137.231562715, 35.329374978 ], [ 137.231562715, 35.329166645 ], [ 137.231562715, 35.328958312 ], [ 137.231250214, 35.328958312 ], [ 137.230937714, 35.328958312 ], [ 137.230937714, 35.329166646 ], [ 137.230625214, 35.329166646 ], [ 137.230625214, 35.329374979 ], [ 137.230312714, 35.329374979 ], [ 137.230312715, 35.329583312 ], [ 137.230625215, 35.329583311 ], [ 137.230937715, 35.329583311 ], [ 137.231250215, 35.329583311 ], [ 137.231250215, 35.329791644 ], [ 137.230937715, 35.329791645 ], [ 137.230625215, 35.329791645 ], [ 137.230312715, 35.329791645 ], [ 137.230000215, 35.329791646 ], [ 137.230000215, 35.329999978 ], [ 137.229687715, 35.329999979 ], [ 137.229687715, 35.330208311 ], [ 137.229687715, 35.330416645 ], [ 137.229687715, 35.330624977 ], [ 137.229375215, 35.330624978 ], [ 137.229375216, 35.33083331 ], [ 137.229062715, 35.330833311 ], [ 137.229062716, 35.331041644 ], [ 137.229062716, 35.331249977 ], [ 137.229375216, 35.331249977 ], [ 137.229375216, 35.331458309 ], [ 137.229375217, 35.331666643 ], [ 137.229062716, 35.331666643 ], [ 137.228750216, 35.331666644 ], [ 137.228750217, 35.331874976 ], [ 137.228437716, 35.331874977 ], [ 137.228125216, 35.331874977 ], [ 137.228125216, 35.332083309 ], [ 137.228125217, 35.332291643 ], [ 137.227812717, 35.332291643 ], [ 137.227812717, 35.332499976 ], [ 137.227812717, 35.332708309 ], [ 137.227812717, 35.332916642 ], [ 137.227812718, 35.333124975 ], [ 137.227812718, 35.333333308 ], [ 137.227812718, 35.333541641 ], [ 137.228125218, 35.333541641 ], [ 137.228125218, 35.333333307 ], [ 137.228437718, 35.333333307 ], [ 137.228437718, 35.333124974 ], [ 137.228437718, 35.332916642 ], [ 137.228437717, 35.332708308 ], [ 137.228750218, 35.332708308 ], [ 137.229062718, 35.332708307 ], [ 137.229062717, 35.332499975 ], [ 137.229062717, 35.332291642 ], [ 137.229375217, 35.332291642 ], [ 137.229375217, 35.332083308 ], [ 137.229375217, 35.331874976 ], [ 137.229687717, 35.331874975 ], [ 137.229687717, 35.331666643 ], [ 137.229687716, 35.331458309 ], [ 137.230000217, 35.331458309 ], [ 137.230000216, 35.331249976 ], [ 137.230312717, 35.331249976 ], [ 137.230625217, 35.331249975 ], [ 137.230937717, 35.331249975 ], [ 137.231250217, 35.331249975 ], [ 137.231250217, 35.331458307 ], [ 137.231562717, 35.331458307 ], [ 137.231875218, 35.331458307 ], [ 137.232187718, 35.331458306 ], [ 137.232187717, 35.331249974 ], [ 137.232500218, 35.331249973 ], [ 137.232500218, 35.331458306 ], [ 137.232812718, 35.331458306 ], [ 137.232812718, 35.331666639 ], [ 137.233125218, 35.331666639 ], [ 137.233125219, 35.331874971 ], [ 137.233437719, 35.331874971 ], [ 137.233437719, 35.332083304 ], [ 137.233750219, 35.332083303 ], [ 137.234062719, 35.332083303 ], [ 137.234062719, 35.33187497 ], [ 137.234375219, 35.33187497 ], [ 137.234687719, 35.33187497 ], [ 137.234687719, 35.331666637 ], [ 137.234687719, 35.331458304 ], [ 137.235000219, 35.331458303 ], [ 137.235000219, 35.331249971 ], [ 137.235000219, 35.331041638 ], [ 137.235000218, 35.330833305 ], [ 137.235000218, 35.330624972 ], [ 137.235000218, 35.330416639 ], [ 137.235000218, 35.330208306 ], [ 137.235000218, 35.329999973 ], [ 137.235000217, 35.329791641 ], [ 137.235000217, 35.329583307 ], [ 137.235312717, 35.329583307 ], [ 137.235312718, 35.32979164 ], [ 137.235312718, 35.329999973 ], [ 137.235625218, 35.329999972 ], [ 137.235625218, 35.32979164 ], [ 137.235625217, 35.329583306 ], [ 137.235625217, 35.329374974 ], [ 137.235625217, 35.329166641 ], [ 137.235312717, 35.329166641 ], [ 137.235312717, 35.328958308 ], [ 137.235312716, 35.328749975 ], [ 137.235312716, 35.328541643 ], [ 137.235625216, 35.328541642 ], [ 137.235625217, 35.328749975 ], [ 137.235625217, 35.328958308 ], [ 137.235625217, 35.329166641 ], [ 137.235937717, 35.329166641 ], [ 137.236250217, 35.32916664 ], [ 137.236250217, 35.328958307 ], [ 137.236250217, 35.328749974 ], [ 137.236250217, 35.328541642 ], [ 137.236250217, 35.328333308 ], [ 137.236250216, 35.328124976 ], [ 137.236250216, 35.327916643 ], [ 137.236250216, 35.327708309 ], [ 137.235937716, 35.32770831 ], [ 137.235937715, 35.327499977 ], [ 137.235937715, 35.327291644 ], [ 137.235937715, 35.327083311 ], [ 137.235937715, 35.326874978 ], [ 137.235937715, 35.326666646 ], [ 137.235937714, 35.326458312 ], [ 137.235937714, 35.326249979 ], [ 137.235937714, 35.326041647 ], [ 137.235625214, 35.326041647 ] ], [ [ 137.230000215, 35.330416644 ], [ 137.230312716, 35.330416644 ], [ 137.230312716, 35.330624977 ], [ 137.230312716, 35.330833309 ], [ 137.230000216, 35.33083331 ], [ 137.230000216, 35.330624977 ], [ 137.230000215, 35.330416644 ] ] ] } },
{ "type": "Feature", "properties": { "A31a_301": "8505080120", "A31a_302": "肥田川", "A31a_303": "21", "A31a_304": "岐阜県", "A31a_305": 1 }, "geometry": { "type": "Polygon", "coordinates": [ [ [ 137.222500228, 35.344374962 ], [ 137.222500228, 35.344583294 ], [ 137.222187728, 35.344583295 ], [ 137.222187728, 35.344791628 ], [ 137.221875228, 35.344791629 ], [ 137.221562728, 35.344791629 ], [ 137.221562728, 35.344999962 ], [ 137.221250228, 35.344999962 ], [ 137.221250229, 35.345208295 ], [ 137.221250229, 35.345416628 ], [ 137.220937729, 35.345416629 ], [ 137.220937729, 35.345624961 ], [ 137.220625229, 35.345624962 ], [ 137.220625229, 35.345833294 ], [ 137.220312729, 35.345833295 ], [ 137.220312729, 35.346041628 ], [ 137.220000229, 35.346041629 ], [ 137.220000229, 35.346249961 ], [ 137.219687729, 35.346249962 ], [ 137.21968773, 35.346458294 ], [ 137.219375229, 35.346458295 ], [ 137.21937523, 35.346666628 ], [ 137.21937523, 35.346874961 ], [ 137.21937523, 35.347083294 ], [ 137.21937523, 35.347291627 ], [ 137.219375231, 35.34749996 ], [ 137.219375231, 35.347708293 ], [ 137.219375231, 35.347916626 ], [ 137.219375231, 35.348124959 ], [ 137.219375232, 35.348333292 ], [ 137.219375232, 35.348541625 ], [ 137.219375232, 35.348749958 ], [ 137.219687732, 35.348749958 ], [ 137.219687733, 35.34895829 ], [ 137.219687733, 35.349166624 ], [ 137.219687733, 35.349374957 ], [ 137.220000233, 35.349374957 ], [ 137.220000233, 35.349583289 ], [ 137.220000234, 35.349791623 ], [ 137.220000234, 35.349999956 ], [ 137.220000234, 35.350208288 ], [ 137.220000234, 35.350416622 ], [ 137.220000235, 35.350624955 ], [ 137.219687735, 35.350624955 ], [ 137.219375234, 35.350624955 ], [ 137.219375235, 35.350833288 ], [ 137.219062735, 35.350833288 ], [ 137.219062735, 35.351041622 ], [ 137.219062735, 35.351249955 ], [ 137.219375235, 35.351249954 ], [ 137.219687735, 35.351249954 ], [ 137.219687736, 35.351458286 ], [ 137.219375236, 35.351458287 ], [ 137.219375236, 35.35166662 ], [ 137.219062736, 35.351666621 ], [ 137.218750236, 35.351666621 ], [ 137.218437735, 35.351666622 ], [ 137.218437735, 35.351458288 ], [ 137.218125235, 35.351458288 ], [ 137.218125235, 35.351666622 ], [ 137.217812735, 35.351666622 ], [ 137.217812735, 35.351874955 ], [ 137.217500235, 35.351874955 ], [ 137.217187735, 35.351874956 ], [ 137.217187735, 35.352083288 ], [ 137.216875235, 35.352083289 ], [ 137.216875236, 35.352291622 ], [ 137.216875236, 35.352499955 ], [ 137.217187736, 35.352499955 ], [ 137.217187736, 35.352708287 ], [ 137.217187737, 35.352916621 ], [ 137.217500237, 35.35291662 ], [ 137.217812737, 35.35291662 ], [ 137.218125237, 35.35291662 ], [ 137.218125237, 35.353124952 ], [ 137.218125238, 35.353333285 ], [ 137.218437738, 35.353333285 ], [ 137.218437738, 35.353541618 ], [ 137.218437738, 35.353749951 ], [ 137.218125238, 35.353749951 ], [ 137.218125238, 35.353958284 ], [ 137.218125239, 35.354166618 ], [ 137.218125239, 35.35437495 ], [ 137.217812739, 35.354374951 ], [ 137.217812739, 35.354583283 ], [ 137.217812739, 35.354791617 ], [ 137.21781274, 35.35499995 ], [ 137.217500239, 35.35499995 ], [ 137.21750024, 35.355208283 ], [ 137.21750024, 35.355416616 ], [ 137.21750024, 35.355624949 ], [ 137.21718774, 35.355624949 ], [ 137.21718774, 35.355833282 ], [ 137.217187741, 35.356041616 ], [ 137.217187741, 35.356249948 ], [ 137.217187741, 35.356458281 ], [ 137.217187742, 35.356666615 ], [ 137.217187742, 35.356874947 ], [ 137.217187742, 35.35708328 ], [ 137.216875242, 35.35708328 ], [ 137.216875242, 35.357291614 ], [ 137.216875243, 35.357499947 ], [ 137.216562742, 35.357499947 ], [ 137.216562743, 35.35770828 ], [ 137.216562743, 35.357916613 ], [ 137.216875243, 35.357916613 ], [ 137.217187743, 35.357916612 ], [ 137.217187743, 35.357708279 ], [ 137.217500243, 35.357708278 ], [ 137.217500243, 35.357499946 ], [ 137.217500243, 35.357291613 ], [ 137.217500242, 35.35708328 ], [ 137.217812742, 35.357083279 ], [ 137.217812742, 35.356874947 ], [ 137.217812742, 35.356666614 ], [ 137.217812742, 35.35645828 ], [ 137.217812741, 35.356249948 ], [ 137.217812741, 35.356041615 ], [ 137.217812741, 35.355833281 ], [ 137.21781274, 35.355624949 ], [ 137.218125241, 35.355624948 ], [ 137.21812524, 35.355416616 ], [ 137.21812524, 35.355208282 ], [ 137.21812524, 35.354999949 ], [ 137.218125239, 35.354791617 ], [ 137.218125239, 35.354583283 ], [ 137.218437739, 35.354583283 ], [ 137.218437739, 35.35437495 ], [ 137.218437739, 35.354166617 ], [ 137.218750239, 35.354166617 ], [ 137.218750239, 35.353958283 ], [ 137.218750238, 35.353749951 ], [ 137.218750238, 35.353541618 ], [ 137.218750238, 35.353333284 ], [ 137.218750237, 35.353124952 ], [ 137.218437737, 35.353124952 ], [ 137.218437737, 35.352916619 ], [ 137.218437737, 35.352708286 ], [ 137.218437737, 35.352499953 ], [ 137.218125236, 35.352499953 ], [ 137.218125236, 35.352291621 ], [ 137.217812736, 35.352291621 ], [ 137.217812736, 35.352083288 ], [ 137.218125236, 35.352083287 ], [ 137.218437736, 35.352083287 ], [ 137.218437736, 35.351874954 ], [ 137.218750236, 35.351874954 ], [ 137.218750236, 35.352083286 ], [ 137.219062736, 35.352083286 ], [ 137.219062737, 35.35229162 ], [ 137.219375237, 35.352291619 ], [ 137.219375236, 35.352083286 ], [ 137.219687737, 35.352083285 ], [ 137.219687736, 35.351874953 ], [ 137.220000236, 35.351874952 ], [ 137.220000236, 35.35166662 ], [ 137.220312736, 35.351666619 ], [ 137.220312736, 35.351458286 ], [ 137.220000236, 35.351458286 ], [ 137.220000236, 35.351249953 ], [ 137.220000235, 35.351041621 ], [ 137.220312735, 35.35104162 ], [ 137.220312736, 35.351249953 ], [ 137.220625236, 35.351249953 ], [ 137.220625236, 35.35104162 ], [ 137.220625235, 35.350833286 ], [ 137.220312735, 35.350833287 ], [ 137.220312735, 35.350624954 ], [ 137.220625235, 35.350624954 ], [ 137.220625235, 35.350416621 ], [ 137.220625234, 35.350208288 ], [ 137.220625234, 35.349999955 ], [ 137.220937734, 35.349999955 ], [ 137.220937734, 35.349791622 ], [ 137.220937734, 35.349583288 ], [ 137.220937734, 35.349374955 ], [ 137.220937733, 35.349166623 ], [ 137.220937733, 35.348958289 ], [ 137.220937733, 35.348749956 ], [ 137.220937733, 35.348541624 ], [ 137.220937732, 35.34833329 ], [ 137.220937732, 35.348124957 ], [ 137.220937732, 35.347916625 ], [ 137.220937731, 35.347708291 ], [ 137.220937731, 35.347499958 ], [ 137.220625231, 35.347499959 ], [ 137.220625231, 35.347291626 ], [ 137.220937731, 35.347291626 ], [ 137.220937731, 35.347083292 ], [ 137.22093773, 35.346874959 ], [ 137.22093773, 35.346666627 ], [ 137.22093773, 35.346458293 ], [ 137.22125023, 35.346458293 ], [ 137.22156273, 35.346458292 ], [ 137.22156273, 35.34624996 ], [ 137.22187523, 35.346249959 ], [ 137.22187523, 35.346041627 ], [ 137.22187523, 35.345833293 ], [ 137.22218773, 35.345833293 ], [ 137.22250023, 35.345833292 ], [ 137.222500229, 35.34562496 ], [ 137.222500229, 35.345416627 ], [ 137.222500229, 35.345208293 ], [ 137.222500229, 35.344999961 ], [ 137.222812729, 35.34499996 ], [ 137.222812728, 35.344791628 ], [ 137.223125229, 35.344791628 ], [ 137.223125228, 35.344583294 ], [ 137.223125228, 35.344374961 ], [ 137.222812728, 35.344374961 ], [ 137.222500228, 35.344374962 ] ] ] } },
{ "type": "Feature", "properties": { "A31a_301": "8505080120", "A31a_302": "肥田川", "A31a_303": "21", "A31a_304": "岐阜県", "A31a_305": 1 }, "geometry": { "type": "Polygon", "coordinates": [ [ [ 137.207500241, 35.358541621 ], [ 137.207500241, 35.358749954 ], [ 137.207500241, 35.358958287 ], [ 137.207187741, 35.358958287 ], [ 137.207187741, 35.359166621 ], [ 137.207187742, 35.359374953 ], [ 137.206875242, 35.359374954 ], [ 137.206562742, 35.359374954 ], [ 137.206562742, 35.359583287 ], [ 137.206562742, 35.35979162 ], [ 137.206562742, 35.359999953 ], [ 137.206250242, 35.359999953 ], [ 137.206250242, 35.360208286 ], [ 137.206250243, 35.36041662 ], [ 137.206562743, 35.360416619 ], [ 137.206562743, 35.360208286 ], [ 137.206875243, 35.360208286 ], [ 137.206875242, 35.359999953 ], [ 137.207187742, 35.359999953 ], [ 137.207187742, 35.35979162 ], [ 137.207187742, 35.359583286 ], [ 137.207500242, 35.359583286 ], [ 137.207500242, 35.359374953 ], [ 137.207812742, 35.359374953 ], [ 137.207812742, 35.35916662 ], [ 137.207812741, 35.358958286 ], [ 137.207812741, 35.358749954 ], [ 137.207812741, 35.358541621 ], [ 137.207500241, 35.358541621 ] ] ] } },
{ "type": "Feature", "properties": { "A31a_301": "8505080120", "A31a_302": "肥田川", "A31a_303": "21", "A31a_304": "岐阜県", "A31a_305": 1 }, "geometry": { "type": "Polygon", "coordinates": [ [ [ 137.219062737, 35.352499952 ], [ 137.219062737, 35.352708285 ], [ 137.219062737, 35.352916619 ], [ 137.219375237, 35.352916618 ], [ 137.219375237, 35.352708285 ], [ 137.219375237, 35.352499952 ], [ 137.219062737, 35.352499952 ] ] ] } },
{ "type": "Feature", "properties": { "A31a_301": "8505080120", "A31a_302": "肥田川", "A31a_303": "21", "A31a_304": "岐阜県", "A31a_305": 1 }, "geometry": { "type": "Polygon", "coordinates": [ [ [ 137.244687714, 35.322083311 ], [ 137.244687714, 35.322291644 ], [ 137.245000215, 35.322291644 ], [ 137.245000214, 35.32208331 ], [ 137.244687714, 35.322083311 ] ] ] } },
{ "type": "Feature", "properties": { "A31a_301": "8505080120", "A31a_302": "肥田川", "A31a_303": "21", "A31a_304": "岐阜県", "A31a_305": 1 }, "geometry": { "type": "Polygon", "coordinates": [ [ [ 137.241875213, 35.322291648 ], [ 137.241875213, 35.322499981 ], [ 137.242187713, 35.32249998 ], [ 137.242187713, 35.322291648 ], [ 137.241875213, 35.322291648 ] ] ] } },
{ "type": "Feature", "properties": { "A31a_301": "8505080120", "A31a_302": "肥田川", "A31a_303": "21", "A31a_304": "岐阜県", "A31a_305": 1 }, "geometry": { "type": "Polygon", "coordinates": [ [ [ 137.245312712, 35.319999982 ], [ 137.245312713, 35.320208314 ], [ 137.245312713, 35.320416648 ], [ 137.245625213, 35.320416647 ], [ 137.245625213, 35.320208314 ], [ 137.245625213, 35.319999981 ], [ 137.245312712, 35.319999982 ] ] ] } },
{ "type": "Feature", "properties": { "A31a_301": "8505080120", "A31a_302": "肥田川", "A31a_303": "21", "A31a_304": "岐阜県", "A31a_305": 1 }, "geometry": { "type": "Polygon", "coordinates": [ [ [ 137.245625213, 35.320416647 ], [ 137.245625213, 35.32062498 ], [ 137.245937713, 35.32062498 ], [ 137.245937713, 35.320416647 ], [ 137.245625213, 35.320416647 ] ] ] } },
{ "type": "Feature", "properties": { "A31a_301": "8505080120", "A31a_302": "肥田川", "A31a_303": "21", "A31a_304": "岐阜県", "A31a_305": 1 }, "geometry": { "type": "Polygon", "coordinates": [ [ [ 137.235937712, 35.323958317 ], [ 137.235937712, 35.324166651 ], [ 137.235937712, 35.324374983 ], [ 137.236250212, 35.324374983 ], [ 137.236250212, 35.324166651 ], [ 137.236562712, 35.32416665 ], [ 137.236562712, 35.323958317 ], [ 137.236250212, 35.323958317 ], [ 137.235937712, 35.323958317 ] ] ] } },
{ "type": "Feature", "properties": { "A31a_301": "8505080120", "A31a_302": "肥田川", "A31a_303": "21", "A31a_304": "岐阜県", "A31a_305": 1 }, "geometry": { "type": "Polygon", "coordinates": [ [ [ 137.230937717, 35.331458308 ], [ 137.230625217, 35.331458308 ], [ 137.230312717, 35.331458308 ], [ 137.230312717, 35.331666642 ], [ 137.230000217, 35.331666642 ], [ 137.230000217, 35.331874975 ], [ 137.229687717, 35.331874975 ], [ 137.229687717, 35.332083308 ], [ 137.229687717, 35.332291641 ], [ 137.229687718, 35.332499974 ], [ 137.229375218, 35.332499974 ], [ 137.229375218, 35.332708307 ], [ 137.229062718, 35.332708307 ], [ 137.229062718, 35.332916641 ], [ 137.229062718, 35.333124974 ], [ 137.228750218, 35.333124974 ], [ 137.228750218, 35.333333307 ], [ 137.228437718, 35.333333307 ], [ 137.228437718, 35.333541641 ], [ 137.228125218, 35.333541641 ], [ 137.228125218, 35.333749974 ], [ 137.228125219, 35.333958306 ], [ 137.228437719, 35.333958306 ], [ 137.228437719, 35.334166639 ], [ 137.228437719, 35.334374972 ], [ 137.228750219, 35.334374972 ], [ 137.228750219, 35.334166639 ], [ 137.228750219, 35.333958306 ], [ 137.228750219, 35.333749973 ], [ 137.229062719, 35.333749973 ], [ 137.229062719, 35.33354164 ], [ 137.229375219, 35.33354164 ], [ 137.229375219, 35.333333306 ], [ 137.229687719, 35.333333306 ], [ 137.229687718, 35.333124973 ], [ 137.229687718, 35.33291664 ], [ 137.230000218, 35.33291664 ], [ 137.230000218, 35.332708306 ], [ 137.230000218, 35.332499974 ], [ 137.230312718, 35.332499973 ], [ 137.230625218, 35.332499973 ], [ 137.230625218, 35.33229164 ], [ 137.230937718, 35.33229164 ], [ 137.231250218, 35.33229164 ], [ 137.231250218, 35.332083306 ], [ 137.231562718, 35.332083306 ], [ 137.231875218, 35.332083305 ], [ 137.232187718, 35.332083305 ], [ 137.232500219, 35.332083305 ], [ 137.232500218, 35.331874972 ], [ 137.232187718, 35.331874973 ], [ 137.232187718, 35.33166664 ], [ 137.231875218, 35.33166664 ], [ 137.231562718, 35.331666641 ], [ 137.231250217, 35.331666641 ], [ 137.231250217, 35.331458307 ], [ 137.230937717, 35.331458308 ] ] ] } },
{ "type": "Feature", "properties": { "A31a_301": "8505080120", "A31a_302": "肥田川", "A31a_303": "21", "A31a_304": "岐阜県", "A31a_305": 1 }, "geometry": { "type": "Polygon", "coordinates": [ [ [ 137.225000226, 35.342083296 ], [ 137.225000226, 35.34229163 ], [ 137.225312726, 35.342291629 ], [ 137.225312726, 35.342083296 ], [ 137.225000226, 35.342083296 ] ] ] } },
{ "type": "Feature", "properties": { "A31a_301": "8505080120", "A31a_302": "肥田川", "A31a_303": "21", "A31a_304": "岐阜県", "A31a_305": 1 }, "geometry": { "type": "Polygon", "coordinates": [ [ [ 137.224687727, 35.343124962 ], [ 137.224687727, 35.343333294 ], [ 137.225000227, 35.343333294 ], [ 137.225000227, 35.343124961 ], [ 137.224687727, 35.343124962 ] ] ] } },
{ "type": "Feature", "properties": { "A31a_301": "8505080120", "A31a_302": "肥田川", "A31a_303": "21", "A31a_304": "岐阜県", "A31a_305": 1 }, "geometry": { "type": "Polygon", "coordinates": [ [ [ 137.205000244, 35.362083285 ], [ 137.205000244, 35.362291618 ], [ 137.205312745, 35.362291618 ], [ 137.205312744, 35.362083284 ], [ 137.205000244, 35.362083285 ] ] ] } },
{ "type": "Feature", "properties": { "A31a_301": "8505080120", "A31a_302": "肥田川", "A31a_303": "21", "A31a_304": "岐阜県", "A31a_305": 1 }, "geometry": { "type": "Polygon", "coordinates": [ [ [ 137.213750242, 35.358333282 ], [ 137.213437742, 35.358333282 ], [ 137.213437742, 35.358541616 ], [ 137.213750242, 35.358541615 ], [ 137.214062743, 35.358541615 ], [ 137.214375243, 35.358541615 ], [ 137.214687743, 35.358541614 ], [ 137.214687743, 35.358333281 ], [ 137.214375243, 35.358333281 ], [ 137.214062742, 35.358333281 ], [ 137.213750242, 35.358333282 ] ] ] } },
{ "type": "Feature", "properties": { "A31a_301": "8505080120", "A31a_302": "肥田川", "A31a_303": "21", "A31a_304": "岐阜県", "A31a_305": 2 }, "geometry": { "type": "Polygon", "coordinates": [ [ [ 137.211875241, 35.357708285 ], [ 137.211562741, 35.357708285 ], [ 137.211562741, 35.357916619 ], [ 137.211875241, 35.357916618 ], [ 137.212187741, 35.357916618 ], [ 137.212187741, 35.357708284 ], [ 137.211875241, 35.357708285 ] ] ] } },
{ "type": "Feature", "properties": { "A31a_301": "8505080120", "A31a_302": "肥田川", "A31a_303": "21", "A31a_304": "岐阜県", "A31a_305": 2 }, "geometry": { "type": "Polygon", "coordinates": [ [ [ 137.20875024, 35.357708287 ], [ 137.20875024, 35.357916621 ], [ 137.208750241, 35.358124954 ], [ 137.208750241, 35.358333286 ], [ 137.208750241, 35.35854162 ], [ 137.209062741, 35.35854162 ], [ 137.209062741, 35.358749953 ], [ 137.209062742, 35.358958285 ], [ 137.209375242, 35.358958285 ], [ 137.209375241, 35.358749952 ], [ 137.209687742, 35.358749952 ], [ 137.209687741, 35.358541619 ], [ 137.209687741, 35.358333286 ], [ 137.209687741, 35.358124953 ], [ 137.209375241, 35.358124953 ], [ 137.20937524, 35.35791662 ], [ 137.20906274, 35.357916621 ], [ 137.20906274, 35.357708287 ], [ 137.20875024, 35.357708287 ] ] ] } }
]
}
