{
"type": "FeatureCollection",
"name": "A31a-42-25_21_8505090072_20",
"crs": { "type": "name", "properties": { "name": "urn:ogc:def:crs:EPSG::6668" } },
"xy_coordinate_resolution": 1e-09,
"features": [
{ "type": "Feature", "properties": { "A31a_401": "8505090072", "A31a_402": "川浦川", "A31a_403": "21", "A31a_404": "岐阜県", "A31a_405": 2 }, "geometry": { "type": "Polygon", "coordinates": [ [ [ 137.000000825, 35.492499656 ], [ 137.000000825, 35.492707656 ], [ 136.999688825, 35.492707655 ], [ 136.999688825, 35.492916655 ], [ 136.999375825, 35.492916655 ], [ 136.999375825, 35.493124655 ], [ 136.999063825, 35.493124655 ], [ 136.999063825, 35.493332655 ], [ 136.998750825, 35.493332655 ], [ 136.998750826, 35.493541655 ], [ 136.998438825, 35.493541655 ], [ 136.998125824, 35.493541655 ], [ 136.998125825, 35.493749655 ], [ 136.997813824, 35.493749655 ], [ 136.997813825, 35.493957655 ], [ 136.997500824, 35.493957655 ], [ 136.997500825, 35.494166655 ], [ 136.997188824, 35.494166655 ], [ 136.997188825, 35.494374655 ], [ 136.996875824, 35.494374655 ], [ 136.996875825, 35.494582655 ], [ 136.996875826, 35.494791655 ], [ 136.997188826, 35.494791655 ], [ 136.997188826, 35.494582655 ], [ 136.997500826, 35.494582655 ], [ 136.997500826, 35.494374655 ], [ 136.997813826, 35.494374655 ], [ 136.997813826, 35.494166655 ], [ 136.998125826, 35.494166655 ], [ 136.998438827, 35.494166655 ], [ 136.998438826, 35.493957655 ], [ 136.998750827, 35.493957655 ], [ 136.998750826, 35.493749655 ], [ 136.999063827, 35.493749655 ], [ 136.999063826, 35.493541655 ], [ 136.999375827, 35.493541655 ], [ 136.999375826, 35.493332655 ], [ 136.999688827, 35.493332656 ], [ 136.999688826, 35.493124655 ], [ 137.000000827, 35.493124656 ], [ 137.000000826, 35.492916656 ], [ 137.000313826, 35.492916656 ], [ 137.000625826, 35.492916656 ], [ 137.000625826, 35.492707656 ], [ 137.000938826, 35.492707656 ], [ 137.001250826, 35.492707656 ], [ 137.001563827, 35.492707656 ], [ 137.001563827, 35.492916656 ], [ 137.001875827, 35.492916656 ], [ 137.002188828, 35.492916656 ], [ 137.002188828, 35.493124656 ], [ 137.002500829, 35.493124657 ], [ 137.002813829, 35.493124657 ], [ 137.002813828, 35.492916657 ], [ 137.002500828, 35.492916657 ], [ 137.002500827, 35.492707657 ], [ 137.002188827, 35.492707656 ], [ 137.001875827, 35.492707656 ], [ 137.001875826, 35.492499656 ], [ 137.001563826, 35.492499656 ], [ 137.001250826, 35.492499656 ], [ 137.000938825, 35.492499656 ], [ 137.000625825, 35.492499656 ], [ 137.000313825, 35.492499656 ], [ 137.000000825, 35.492499656 ] ] ] } },
{ "type": "Feature", "properties": { "A31a_401": "8505090072", "A31a_402": "川浦川", "A31a_403": "21", "A31a_404": "岐阜県", "A31a_405": 2 }, "geometry": { "type": "Polygon", "coordinates": [ [ [ 137.014688885, 35.504791658 ], [ 137.014688885, 35.504999658 ], [ 137.015000886, 35.504999658 ], [ 137.015313886, 35.504999658 ], [ 137.015313885, 35.504791658 ], [ 137.015000885, 35.504791658 ], [ 137.014688885, 35.504791658 ] ] ] } },
{ "type": "Feature", "properties": { "A31a_401": "8505090072", "A31a_402": "川浦川", "A31a_403": "21", "A31a_404": "岐阜県", "A31a_405": 2 }, "geometry": { "type": "Polygon", "coordinates": [ [ [ 137.015000854, 35.497291661 ], [ 137.015000855, 35.497499661 ], [ 137.014688855, 35.497499661 ], [ 137.014688855, 35.497707661 ], [ 137.015000856, 35.497707661 ], [ 137.015000856, 35.497916661 ], [ 137.015000857, 35.498124661 ], [ 137.015000858, 35.498332661 ], [ 137.015000859, 35.498541661 ], [ 137.015313859, 35.498541661 ], [ 137.015625859, 35.498541661 ], [ 137.015625858, 35.498332661 ], [ 137.015625857, 35.498124661 ], [ 137.015313857, 35.498124661 ], [ 137.015313856, 35.497916661 ], [ 137.015313856, 35.497707661 ], [ 137.015313855, 35.497499661 ], [ 137.015313854, 35.497291661 ], [ 137.015000854, 35.497291661 ] ] ] } },
{ "type": "Feature", "properties": { "A31a_401": "8505090072", "A31a_402": "川浦川", "A31a_403": "21", "A31a_404": "岐阜県", "A31a_405": 2 }, "geometry": { "type": "Polygon", "coordinates": [ [ [ 137.01531386, 35.498749661 ], [ 137.015313861, 35.498957661 ], [ 137.015313862, 35.499166661 ], [ 137.015313863, 35.49937466 ], [ 137.015313863, 35.49958266 ], [ 137.015625864, 35.499582661 ], [ 137.015625863, 35.499374661 ], [ 137.015625862, 35.499166661 ], [ 137.015625861, 35.498957661 ], [ 137.01562586, 35.498749661 ], [ 137.01531386, 35.498749661 ] ] ] } },
{ "type": "Feature", "properties": { "A31a_401": "8505090072", "A31a_402": "川浦川", "A31a_403": "21", "A31a_404": "岐阜県", "A31a_405": 2 }, "geometry": { "type": "Polygon", "coordinates": [ [ [ 137.027813903, 35.507499664 ], [ 137.027813903, 35.507707663 ], [ 137.027813904, 35.507916663 ], [ 137.027813905, 35.508124663 ], [ 137.028125905, 35.508124663 ], [ 137.028125904, 35.507916664 ], [ 137.028125903, 35.507707664 ], [ 137.028125902, 35.507499664 ], [ 137.027813903, 35.507499664 ] ] ] } },
{ "type": "Feature", "properties": { "A31a_401": "8505090072", "A31a_402": "川浦川", "A31a_403": "21", "A31a_404": "岐阜県", "A31a_405": 2 }, "geometry": { "type": "Polygon", "coordinates": [ [ [ 137.028125901, 35.507291664 ], [ 137.028125902, 35.507499664 ], [ 137.028438902, 35.507499664 ], [ 137.028750902, 35.507499664 ], [ 137.028750901, 35.507291664 ], [ 137.028438901, 35.507291664 ], [ 137.028125901, 35.507291664 ] ] ] } },
{ "type": "Feature", "properties": { "A31a_401": "8505090072", "A31a_402": "川浦川", "A31a_403": "21", "A31a_404": "岐阜県", "A31a_405": 2 }, "geometry": { "type": "Polygon", "coordinates": [ [ [ 137.032813918, 35.511041664 ], [ 137.032813919, 35.511249664 ], [ 137.033125919, 35.511249664 ], [ 137.033438919, 35.511249664 ], [ 137.033438917, 35.511041664 ], [ 137.033125918, 35.511041664 ], [ 137.032813918, 35.511041664 ] ] ] } },
{ "type": "Feature", "properties": { "A31a_401": "8505090072", "A31a_402": "川浦川", "A31a_403": "21", "A31a_404": "岐阜県", "A31a_405": 2 }, "geometry": { "type": "Polygon", "coordinates": [ [ [ 137.040313919, 35.512499667 ], [ 137.04031392, 35.512707667 ], [ 137.04000092, 35.512707667 ], [ 137.039688921, 35.512707667 ], [ 137.039375921, 35.512707667 ], [ 137.039375923, 35.512916666 ], [ 137.039688922, 35.512916667 ], [ 137.040000922, 35.512916667 ], [ 137.040313921, 35.512916667 ], [ 137.04062592, 35.512916667 ], [ 137.04093892, 35.512916667 ], [ 137.040938921, 35.513124667 ], [ 137.04125092, 35.513124668 ], [ 137.041250919, 35.512916668 ], [ 137.041250918, 35.512707668 ], [ 137.040938919, 35.512707668 ], [ 137.040938917, 35.512499668 ], [ 137.040625918, 35.512499668 ], [ 137.040313919, 35.512499667 ] ] ] } },
{ "type": "Feature", "properties": { "A31a_401": "8505090072", "A31a_402": "川浦川", "A31a_403": "21", "A31a_404": "岐阜県", "A31a_405": 2 }, "geometry": { "type": "Polygon", "coordinates": [ [ [ 137.04125092, 35.513124668 ], [ 137.041250922, 35.513332667 ], [ 137.041563921, 35.513332668 ], [ 137.04156392, 35.513124668 ], [ 137.04125092, 35.513124668 ] ] ] } },
{ "type": "Feature", "properties": { "A31a_401": "8505090072", "A31a_402": "川浦川", "A31a_403": "21", "A31a_404": "岐阜県", "A31a_405": 2 }, "geometry": { "type": "Polygon", "coordinates": [ [ [ 137.033438919, 35.511249664 ], [ 137.03343892, 35.511457664 ], [ 137.03375092, 35.511457664 ], [ 137.034063919, 35.511457664 ], [ 137.034375919, 35.511457664 ], [ 137.034375918, 35.511249665 ], [ 137.034063918, 35.511249665 ], [ 137.033750918, 35.511249664 ], [ 137.033438919, 35.511249664 ] ] ] } },
{ "type": "Feature", "properties": { "A31a_401": "8505090072", "A31a_402": "川浦川", "A31a_403": "21", "A31a_404": "岐阜県", "A31a_405": 2 }, "geometry": { "type": "Polygon", "coordinates": [ [ [ 137.041250916, 35.512291668 ], [ 137.041250917, 35.512499668 ], [ 137.041250918, 35.512707668 ], [ 137.041563918, 35.512707668 ], [ 137.041563919, 35.512916668 ], [ 137.04156392, 35.513124668 ], [ 137.041875919, 35.513124668 ], [ 137.041875921, 35.513332668 ], [ 137.04218892, 35.513332668 ], [ 137.042188921, 35.513541668 ], [ 137.042500921, 35.513541668 ], [ 137.042500919, 35.513332668 ], [ 137.042500918, 35.513124668 ], [ 137.042188919, 35.513124668 ], [ 137.042188918, 35.512916668 ], [ 137.042188916, 35.512707669 ], [ 137.041875917, 35.512707668 ], [ 137.041875916, 35.512499669 ], [ 137.041875915, 35.512291669 ], [ 137.041563915, 35.512291669 ], [ 137.041250916, 35.512291668 ] ] ] } },
{ "type": "Feature", "properties": { "A31a_401": "8505090072", "A31a_402": "川浦川", "A31a_403": "21", "A31a_404": "岐阜県", "A31a_405": 2 }, "geometry": { "type": "Polygon", "coordinates": [ [ [ 137.043750922, 35.514166668 ], [ 137.043750923, 35.514374668 ], [ 137.044063923, 35.514374668 ], [ 137.044063921, 35.514166668 ], [ 137.043750922, 35.514166668 ] ] ] } },
{ "type": "Feature", "properties": { "A31a_401": "8505090072", "A31a_402": "川浦川", "A31a_403": "21", "A31a_404": "岐阜県", "A31a_405": 2 }, "geometry": { "type": "Polygon", "coordinates": [ [ [ 137.04406392, 35.513957669 ], [ 137.044063921, 35.514166668 ], [ 137.044375921, 35.514166669 ], [ 137.04468892, 35.514166669 ], [ 137.044688919, 35.513957669 ], [ 137.04437592, 35.513957669 ], [ 137.04406392, 35.513957669 ] ] ] } },
{ "type": "Feature", "properties": { "A31a_401": "8505090072", "A31a_402": "川浦川", "A31a_403": "21", "A31a_404": "岐阜県", "A31a_405": 2 }, "geometry": { "type": "Polygon", "coordinates": [ [ [ 137.043438925, 35.514582667 ], [ 137.043438926, 35.514791667 ], [ 137.043750925, 35.514791667 ], [ 137.044063925, 35.514791668 ], [ 137.044063924, 35.514582668 ], [ 137.043750924, 35.514582668 ], [ 137.043438925, 35.514582667 ] ] ] } },
{ "type": "Feature", "properties": { "A31a_401": "8505090072", "A31a_402": "川浦川", "A31a_403": "21", "A31a_404": "岐阜県", "A31a_405": 2 }, "geometry": { "type": "Polygon", "coordinates": [ [ [ 137.04468892, 35.514166669 ], [ 137.044688921, 35.514374669 ], [ 137.044375922, 35.514374668 ], [ 137.044063923, 35.514374668 ], [ 137.044063924, 35.514582668 ], [ 137.044375923, 35.514582668 ], [ 137.044688923, 35.514582668 ], [ 137.045000922, 35.514582669 ], [ 137.045313922, 35.514582669 ], [ 137.045625921, 35.514582669 ], [ 137.045625922, 35.514791669 ], [ 137.045938922, 35.514791669 ], [ 137.045938923, 35.514999669 ], [ 137.046250922, 35.514999669 ], [ 137.046250921, 35.514791669 ], [ 137.04625092, 35.51458267 ], [ 137.04593892, 35.514582669 ], [ 137.045938919, 35.51437467 ], [ 137.04562592, 35.514374669 ], [ 137.04531392, 35.514374669 ], [ 137.045313919, 35.514166669 ], [ 137.04500092, 35.514166669 ], [ 137.04468892, 35.514166669 ] ] ] } },
{ "type": "Feature", "properties": { "A31a_401": "8505090072", "A31a_402": "川浦川", "A31a_403": "21", "A31a_404": "岐阜県", "A31a_405": 2 }, "geometry": { "type": "Polygon", "coordinates": [ [ [ 137.046875933, 35.517082667 ], [ 137.046875934, 35.517291667 ], [ 137.046875936, 35.517499667 ], [ 137.047188935, 35.517499667 ], [ 137.047188934, 35.517291667 ], [ 137.047188932, 35.517082667 ], [ 137.046875933, 35.517082667 ] ] ] } },
{ "type": "Feature", "properties": { "A31a_401": "8505090072", "A31a_402": "川浦川", "A31a_403": "21", "A31a_404": "岐阜県", "A31a_405": 2 }, "geometry": { "type": "Polygon", "coordinates": [ [ [ 137.046250935, 35.517291666 ], [ 137.046250937, 35.517499666 ], [ 137.046563936, 35.517499666 ], [ 137.046563935, 35.517291667 ], [ 137.046250935, 35.517291666 ] ] ] } },
{ "type": "Feature", "properties": { "A31a_401": "8505090072", "A31a_402": "川浦川", "A31a_403": "21", "A31a_404": "岐阜県", "A31a_405": 2 }, "geometry": { "type": "Polygon", "coordinates": [ [ [ 137.046563936, 35.517499666 ], [ 137.046563937, 35.517707666 ], [ 137.046563939, 35.517916666 ], [ 137.046875938, 35.517916666 ], [ 137.046875937, 35.517707666 ], [ 137.046875936, 35.517499667 ], [ 137.046563936, 35.517499666 ] ] ] } },
{ "type": "Feature", "properties": { "A31a_401": "8505090072", "A31a_402": "川浦川", "A31a_403": "21", "A31a_404": "岐阜県", "A31a_405": 2 }, "geometry": { "type": "Polygon", "coordinates": [ [ [ 137.049063943, 35.519374666 ], [ 137.049063944, 35.519582666 ], [ 137.049375944, 35.519582666 ], [ 137.049375942, 35.519374666 ], [ 137.049063943, 35.519374666 ] ] ] } },
{ "type": "Feature", "properties": { "A31a_401": "8505090072", "A31a_402": "川浦川", "A31a_403": "21", "A31a_404": "岐阜県", "A31a_405": 2 }, "geometry": { "type": "Polygon", "coordinates": [ [ [ 137.053438941, 35.521249667 ], [ 137.053438942, 35.521457667 ], [ 137.053750941, 35.521457668 ], [ 137.05375094, 35.521249668 ], [ 137.053438941, 35.521249667 ] ] ] } },
{ "type": "Feature", "properties": { "A31a_401": "8505090072", "A31a_402": "川浦川", "A31a_403": "21", "A31a_404": "岐阜県", "A31a_405": 2 }, "geometry": { "type": "Polygon", "coordinates": [ [ [ 137.049375944, 35.519582666 ], [ 137.049375945, 35.519791666 ], [ 137.049375946, 35.519999666 ], [ 137.049688946, 35.519999666 ], [ 137.049688944, 35.519791666 ], [ 137.049688943, 35.519582666 ], [ 137.049375944, 35.519582666 ] ] ] } },
{ "type": "Feature", "properties": { "A31a_401": "8505090072", "A31a_402": "川浦川", "A31a_403": "21", "A31a_404": "岐阜県", "A31a_405": 2 }, "geometry": { "type": "Polygon", "coordinates": [ [ [ 137.055313934, 35.521249669 ], [ 137.055313935, 35.521457669 ], [ 137.055313937, 35.521666668 ], [ 137.055625936, 35.521666669 ], [ 137.055625934, 35.521457669 ], [ 137.055625933, 35.521249669 ], [ 137.055313934, 35.521249669 ] ] ] } },
{ "type": "Feature", "properties": { "A31a_401": "8505090072", "A31a_402": "川浦川", "A31a_403": "21", "A31a_404": "岐阜県", "A31a_405": 2 }, "geometry": { "type": "Polygon", "coordinates": [ [ [ 137.055000938, 35.521666668 ], [ 137.055000939, 35.521874668 ], [ 137.055313938, 35.521874668 ], [ 137.055313937, 35.521666668 ], [ 137.055000938, 35.521666668 ] ] ] } },
{ "type": "Feature", "properties": { "A31a_401": "8505090072", "A31a_402": "川浦川", "A31a_403": "21", "A31a_404": "岐阜県", "A31a_405": 2 }, "geometry": { "type": "Polygon", "coordinates": [ [ [ 137.053750937, 35.520832668 ], [ 137.053750938, 35.521041668 ], [ 137.05375094, 35.521249668 ], [ 137.054063938, 35.521249668 ], [ 137.054063937, 35.521041668 ], [ 137.054063936, 35.520832668 ], [ 137.053750937, 35.520832668 ] ] ] } },
{ "type": "Feature", "properties": { "A31a_401": "8505090072", "A31a_402": "川浦川", "A31a_403": "21", "A31a_404": "岐阜県", "A31a_405": 2 }, "geometry": { "type": "Polygon", "coordinates": [ [ [ 137.055313938, 35.521874668 ], [ 137.055313939, 35.522082668 ], [ 137.055625938, 35.522082668 ], [ 137.055625937, 35.521874668 ], [ 137.055313938, 35.521874668 ] ] ] } },
{ "type": "Feature", "properties": { "A31a_401": "8505090072", "A31a_402": "川浦川", "A31a_403": "21", "A31a_404": "岐阜県", "A31a_405": 2 }, "geometry": { "type": "Polygon", "coordinates": [ [ [ 137.055625936, 35.521666669 ], [ 137.055625937, 35.521874668 ], [ 137.055938936, 35.521874669 ], [ 137.056250935, 35.521874669 ], [ 137.056563933, 35.521874669 ], [ 137.056875932, 35.521874669 ], [ 137.056875931, 35.52166667 ], [ 137.056563932, 35.521666669 ], [ 137.056250933, 35.521666669 ], [ 137.055938934, 35.521666669 ], [ 137.055625936, 35.521666669 ] ] ] } },
{ "type": "Feature", "properties": { "A31a_401": "8505090072", "A31a_402": "川浦川", "A31a_403": "21", "A31a_404": "岐阜県", "A31a_405": 2 }, "geometry": { "type": "Polygon", "coordinates": [ [ [ 137.060938929, 35.52374967 ], [ 137.06093893, 35.52395767 ], [ 137.060938931, 35.524166669 ], [ 137.060938933, 35.524374669 ], [ 137.061250931, 35.524374669 ], [ 137.061250933, 35.524582669 ], [ 137.061250934, 35.524791669 ], [ 137.061250935, 35.524999669 ], [ 137.061563934, 35.524999669 ], [ 137.061563933, 35.524791669 ], [ 137.061563932, 35.524582669 ], [ 137.06156393, 35.52437467 ], [ 137.061563929, 35.52416667 ], [ 137.06125093, 35.52416667 ], [ 137.061250929, 35.52395767 ], [ 137.061250928, 35.52374967 ], [ 137.060938929, 35.52374967 ] ] ] } },
{ "type": "Feature", "properties": { "A31a_401": "8505090072", "A31a_402": "川浦川", "A31a_403": "21", "A31a_404": "岐阜県", "A31a_405": 2 }, "geometry": { "type": "Polygon", "coordinates": [ [ [ 137.063438941, 35.527707667 ], [ 137.063438942, 35.527916667 ], [ 137.06375094, 35.527916667 ], [ 137.063750939, 35.527707667 ], [ 137.063438941, 35.527707667 ] ] ] } },
{ "type": "Feature", "properties": { "A31a_401": "8505090072", "A31a_402": "川浦川", "A31a_403": "21", "A31a_404": "岐阜県", "A31a_405": 2 }, "geometry": { "type": "Polygon", "coordinates": [ [ [ 137.064063938, 35.527707668 ], [ 137.064063939, 35.527916667 ], [ 137.064375937, 35.527916668 ], [ 137.064375936, 35.527707668 ], [ 137.064063938, 35.527707668 ] ] ] } },
{ "type": "Feature", "properties": { "A31a_401": "8505090072", "A31a_402": "川浦川", "A31a_403": "21", "A31a_404": "岐阜県", "A31a_405": 2 }, "geometry": { "type": "Polygon", "coordinates": [ [ [ 137.064375937, 35.527916668 ], [ 137.064375939, 35.528124667 ], [ 137.064688937, 35.528124668 ], [ 137.064688936, 35.527916668 ], [ 137.064375937, 35.527916668 ] ] ] } },
{ "type": "Feature", "properties": { "A31a_401": "8505090072", "A31a_402": "川浦川", "A31a_403": "21", "A31a_404": "岐阜県", "A31a_405": 2 }, "geometry": { "type": "Polygon", "coordinates": [ [ [ 137.061563934, 35.524999669 ], [ 137.061563935, 35.525207669 ], [ 137.061563936, 35.525416668 ], [ 137.061875935, 35.525416668 ], [ 137.061875934, 35.525207669 ], [ 137.061875933, 35.524999669 ], [ 137.061563934, 35.524999669 ] ] ] } },
{ "type": "Feature", "properties": { "A31a_401": "8505090072", "A31a_402": "川浦川", "A31a_403": "21", "A31a_404": "岐阜県", "A31a_405": 2 }, "geometry": { "type": "Polygon", "coordinates": [ [ [ 137.064688937, 35.528124668 ], [ 137.064688938, 35.528332667 ], [ 137.065000937, 35.528332668 ], [ 137.065313935, 35.528332668 ], [ 137.065313934, 35.528124668 ], [ 137.065000936, 35.528124668 ], [ 137.064688937, 35.528124668 ] ] ] } },
{ "type": "Feature", "properties": { "A31a_401": "8505090072", "A31a_402": "川浦川", "A31a_403": "21", "A31a_404": "岐阜県", "A31a_405": 2 }, "geometry": { "type": "Polygon", "coordinates": [ [ [ 137.06375094, 35.527916667 ], [ 137.063750941, 35.528124667 ], [ 137.063750943, 35.528332666 ], [ 137.064063941, 35.528332667 ], [ 137.064063942, 35.528541666 ], [ 137.064375941, 35.528541667 ], [ 137.064375942, 35.528749667 ], [ 137.06468894, 35.528749667 ], [ 137.065000939, 35.528749667 ], [ 137.06500094, 35.528957667 ], [ 137.065313939, 35.528957667 ], [ 137.06531394, 35.529166667 ], [ 137.065625938, 35.529166667 ], [ 137.065625939, 35.529374667 ], [ 137.065938938, 35.529374667 ], [ 137.065938939, 35.529582667 ], [ 137.066250937, 35.529582668 ], [ 137.066250938, 35.529791667 ], [ 137.06625094, 35.529999667 ], [ 137.066250941, 35.530207667 ], [ 137.066563939, 35.530207667 ], [ 137.066563938, 35.529999667 ], [ 137.066563937, 35.529791668 ], [ 137.066563936, 35.529582668 ], [ 137.066563935, 35.529374668 ], [ 137.066250936, 35.529374668 ], [ 137.066250935, 35.529166668 ], [ 137.065938937, 35.529166668 ], [ 137.065938936, 35.528957668 ], [ 137.065625937, 35.528957668 ], [ 137.065625936, 35.528749668 ], [ 137.065313937, 35.528749668 ], [ 137.065313936, 35.528541668 ], [ 137.065000938, 35.528541667 ], [ 137.064688939, 35.528541667 ], [ 137.064688938, 35.528332667 ], [ 137.06437594, 35.528332667 ], [ 137.064375939, 35.528124667 ], [ 137.06406394, 35.528124667 ], [ 137.064063939, 35.527916667 ], [ 137.06375094, 35.527916667 ] ] ] } },
{ "type": "Feature", "properties": { "A31a_401": "8505090072", "A31a_402": "川浦川", "A31a_403": "21", "A31a_404": "岐阜県", "A31a_405": 2 }, "geometry": { "type": "Polygon", "coordinates": [ [ [ 137.066875933, 35.529374668 ], [ 137.066875934, 35.529582668 ], [ 137.066875936, 35.529791668 ], [ 137.066875937, 35.529999668 ], [ 137.066875938, 35.530207667 ], [ 137.067188936, 35.530207668 ], [ 137.067188935, 35.529999668 ], [ 137.067188934, 35.529791668 ], [ 137.067188933, 35.529582669 ], [ 137.067188932, 35.529374669 ], [ 137.066875933, 35.529374668 ] ] ] } },
{ "type": "Feature", "properties": { "A31a_401": "8505090072", "A31a_402": "川浦川", "A31a_403": "21", "A31a_404": "岐阜県", "A31a_405": 2 }, "geometry": { "type": "Polygon", "coordinates": [ [ [ 137.066563939, 35.530207667 ], [ 137.06656394, 35.530416667 ], [ 137.066563941, 35.530624666 ], [ 137.06687594, 35.530624667 ], [ 137.066875939, 35.530416667 ], [ 137.066875938, 35.530207667 ], [ 137.066563939, 35.530207667 ] ] ] } },
{ "type": "Feature", "properties": { "A31a_401": "8505090072", "A31a_402": "川浦川", "A31a_403": "21", "A31a_404": "岐阜県", "A31a_405": 2 }, "geometry": { "type": "Polygon", "coordinates": [ [ [ 137.06687596, 35.534582661 ], [ 137.066875961, 35.534791661 ], [ 137.066875962, 35.534999661 ], [ 137.066875963, 35.53520766 ], [ 137.067188961, 35.535207661 ], [ 137.06718896, 35.534999661 ], [ 137.067188959, 35.534791661 ], [ 137.067188958, 35.534582662 ], [ 137.06687596, 35.534582661 ] ] ] } },
{ "type": "Feature", "properties": { "A31a_401": "8505090072", "A31a_402": "川浦川", "A31a_403": "21", "A31a_404": "岐阜県", "A31a_405": 2 }, "geometry": { "type": "Polygon", "coordinates": [ [ [ 137.066563964, 35.53520766 ], [ 137.066563965, 35.53541666 ], [ 137.066875964, 35.53541666 ], [ 137.066875963, 35.53520766 ], [ 137.066563964, 35.53520766 ] ] ] } },
{ "type": "Feature", "properties": { "A31a_401": "8505090072", "A31a_402": "川浦川", "A31a_403": "21", "A31a_404": "岐阜県", "A31a_405": 2 }, "geometry": { "type": "Polygon", "coordinates": [ [ [ 137.000313823, 35.491874656 ], [ 137.000313824, 35.492082656 ], [ 137.000000823, 35.492082656 ], [ 136.999688823, 35.492082655 ], [ 136.999688824, 35.492291655 ], [ 136.999375823, 35.492291655 ], [ 136.999375824, 35.492499655 ], [ 136.999375824, 35.492707655 ], [ 136.999688825, 35.492707655 ], [ 136.999688824, 35.492499655 ], [ 137.000000825, 35.492499656 ], [ 137.000000824, 35.492291656 ], [ 137.000313824, 35.492291656 ], [ 137.000625825, 35.492291656 ], [ 137.000938825, 35.492291656 ], [ 137.001250825, 35.492291656 ], [ 137.001563825, 35.492291656 ], [ 137.001875825, 35.492291656 ], [ 137.001875826, 35.492499656 ], [ 137.002188826, 35.492499656 ], [ 137.002500827, 35.492499657 ], [ 137.002500827, 35.492707657 ], [ 137.002813827, 35.492707657 ], [ 137.002813828, 35.492916657 ], [ 137.003125828, 35.492916657 ], [ 137.003438829, 35.492916657 ], [ 137.003750829, 35.492916657 ], [ 137.00375083, 35.493124657 ], [ 137.00406383, 35.493124657 ], [ 137.00437583, 35.493124657 ], [ 137.00468883, 35.493124657 ], [ 137.005000831, 35.493124658 ], [ 137.00500083, 35.492916658 ], [ 137.00468883, 35.492916657 ], [ 137.004688829, 35.492707658 ], [ 137.004375829, 35.492707657 ], [ 137.004063828, 35.492707657 ], [ 137.003750828, 35.492707657 ], [ 137.003438828, 35.492707657 ], [ 137.003125828, 35.492707657 ], [ 137.003125827, 35.492499657 ], [ 137.002813827, 35.492499657 ], [ 137.002813826, 35.492291657 ], [ 137.002500826, 35.492291657 ], [ 137.002500825, 35.492082657 ], [ 137.002188825, 35.492082657 ], [ 137.002188824, 35.491874657 ], [ 137.001875824, 35.491874656 ], [ 137.001563824, 35.491874656 ], [ 137.001250824, 35.491874656 ], [ 137.000938823, 35.491874656 ], [ 137.000625823, 35.491874656 ], [ 137.000313823, 35.491874656 ] ] ] } },
{ "type": "Feature", "properties": { "A31a_401": "8505090072", "A31a_402": "川浦川", "A31a_403": "21", "A31a_404": "岐阜県", "A31a_405": 2 }, "geometry": { "type": "Polygon", "coordinates": [ [ [ 137.014375878, 35.503124658 ], [ 137.014375878, 35.503332658 ], [ 137.014688879, 35.503332658 ], [ 137.014688878, 35.503124659 ], [ 137.014375878, 35.503124658 ] ] ] } },
{ "type": "Feature", "properties": { "A31a_401": "8505090072", "A31a_402": "川浦川", "A31a_403": "21", "A31a_404": "岐阜県", "A31a_405": 2 }, "geometry": { "type": "Polygon", "coordinates": [ [ [ 137.002813829, 35.493124657 ], [ 137.002813829, 35.493332657 ], [ 137.00312583, 35.493332657 ], [ 137.00312583, 35.493541657 ], [ 137.003438831, 35.493541657 ], [ 137.003750831, 35.493541657 ], [ 137.003750832, 35.493749657 ], [ 137.004063832, 35.493749657 ], [ 137.004375832, 35.493749657 ], [ 137.004688832, 35.493749657 ], [ 137.005000833, 35.493749657 ], [ 137.005000833, 35.493957657 ], [ 137.005313834, 35.493957658 ], [ 137.005313834, 35.494166658 ], [ 137.005625835, 35.494166658 ], [ 137.005938835, 35.494166658 ], [ 137.006250835, 35.494166658 ], [ 137.006250836, 35.494374658 ], [ 137.006563836, 35.494374658 ], [ 137.006563837, 35.494582658 ], [ 137.006875837, 35.494582658 ], [ 137.006875838, 35.494791658 ], [ 137.006875839, 35.494999658 ], [ 137.007188839, 35.494999658 ], [ 137.00718884, 35.495207658 ], [ 137.00750084, 35.495207658 ], [ 137.007500841, 35.495416658 ], [ 137.007813841, 35.495416658 ], [ 137.007813842, 35.495624658 ], [ 137.008125842, 35.495624658 ], [ 137.008438842, 35.495624658 ], [ 137.008438843, 35.495832658 ], [ 137.008750843, 35.495832658 ], [ 137.009063844, 35.495832659 ], [ 137.009063845, 35.496041659 ], [ 137.009375845, 35.496041659 ], [ 137.009688845, 35.496041659 ], [ 137.009688846, 35.496249659 ], [ 137.010000846, 35.496249659 ], [ 137.010313847, 35.496249659 ], [ 137.010313847, 35.496457659 ], [ 137.010625848, 35.496457659 ], [ 137.010938848, 35.496457659 ], [ 137.010938849, 35.496666659 ], [ 137.011250849, 35.496666659 ], [ 137.01156385, 35.496666659 ], [ 137.01156385, 35.496874659 ], [ 137.011875851, 35.496874659 ], [ 137.012188851, 35.496874659 ], [ 137.012188852, 35.497082659 ], [ 137.012500852, 35.497082659 ], [ 137.012813852, 35.49708266 ], [ 137.013125852, 35.49708266 ], [ 137.013438852, 35.49708266 ], [ 137.013438852, 35.49687466 ], [ 137.013750852, 35.49687466 ], [ 137.013750853, 35.49708266 ], [ 137.014063853, 35.49708266 ], [ 137.014063854, 35.49729166 ], [ 137.014063854, 35.49749966 ], [ 137.014063855, 35.49770766 ], [ 137.014063856, 35.49791666 ], [ 137.014063857, 35.49812466 ], [ 137.014063858, 35.49833266 ], [ 137.014063859, 35.49854166 ], [ 137.014063859, 35.49874966 ], [ 137.01437586, 35.49874966 ], [ 137.01437586, 35.49895766 ], [ 137.014375861, 35.49916666 ], [ 137.014375862, 35.49937466 ], [ 137.014375863, 35.49958266 ], [ 137.014688863, 35.49958266 ], [ 137.014688864, 35.49979166 ], [ 137.014688865, 35.49999966 ], [ 137.014688866, 35.50020766 ], [ 137.014688867, 35.50041666 ], [ 137.014688867, 35.50062466 ], [ 137.014688868, 35.500832659 ], [ 137.014688869, 35.501041659 ], [ 137.01468887, 35.501249659 ], [ 137.014688871, 35.501457659 ], [ 137.014688872, 35.501666659 ], [ 137.014688873, 35.501874659 ], [ 137.014688873, 35.502082659 ], [ 137.014688874, 35.502291659 ], [ 137.014375874, 35.502291659 ], [ 137.014375875, 35.502499659 ], [ 137.014375876, 35.502707659 ], [ 137.014688876, 35.502707659 ], [ 137.014688877, 35.502916659 ], [ 137.014688878, 35.503124659 ], [ 137.015000878, 35.503124659 ], [ 137.015000877, 35.502916659 ], [ 137.015000876, 35.502707659 ], [ 137.015000875, 35.502499659 ], [ 137.015000874, 35.502291659 ], [ 137.015000874, 35.502082659 ], [ 137.015313874, 35.502082659 ], [ 137.015313873, 35.501874659 ], [ 137.015313872, 35.50166666 ], [ 137.015313871, 35.50145766 ], [ 137.01531387, 35.50124966 ], [ 137.015313869, 35.50104166 ], [ 137.015313869, 35.50083266 ], [ 137.015313868, 35.50062466 ], [ 137.015313867, 35.50041666 ], [ 137.015313866, 35.50020766 ], [ 137.015313865, 35.49999966 ], [ 137.015000865, 35.49999966 ], [ 137.015000864, 35.49979166 ], [ 137.015000863, 35.49958266 ], [ 137.015000862, 35.49937466 ], [ 137.015000862, 35.49916666 ], [ 137.015000861, 35.49895766 ], [ 137.01500086, 35.498749661 ], [ 137.01468886, 35.49874966 ], [ 137.014688859, 35.49854166 ], [ 137.014688858, 35.49833266 ], [ 137.014688857, 35.498124661 ], [ 137.014688856, 35.497916661 ], [ 137.014688855, 35.497707661 ], [ 137.014375855, 35.49770766 ], [ 137.014375854, 35.497499661 ], [ 137.014375854, 35.497291661 ], [ 137.014375853, 35.497082661 ], [ 137.014375852, 35.496874661 ], [ 137.014375851, 35.496666661 ], [ 137.014063851, 35.496666661 ], [ 137.01406385, 35.496457661 ], [ 137.01375085, 35.49645766 ], [ 137.013750851, 35.49666666 ], [ 137.013438851, 35.49666666 ], [ 137.013125851, 35.49666666 ], [ 137.012813851, 35.49666666 ], [ 137.01281385, 35.49645766 ], [ 137.01250085, 35.49645766 ], [ 137.012188849, 35.496457659 ], [ 137.011875849, 35.496457659 ], [ 137.011563849, 35.496457659 ], [ 137.011563848, 35.496249659 ], [ 137.011250848, 35.496249659 ], [ 137.010938847, 35.496249659 ], [ 137.010938846, 35.496041659 ], [ 137.010625846, 35.496041659 ], [ 137.010313846, 35.496041659 ], [ 137.010000846, 35.496041659 ], [ 137.010000845, 35.495832659 ], [ 137.009688844, 35.495832659 ], [ 137.009375844, 35.495832659 ], [ 137.009375843, 35.495624659 ], [ 137.009063843, 35.495624659 ], [ 137.008750843, 35.495624659 ], [ 137.008750842, 35.495416659 ], [ 137.008438842, 35.495416658 ], [ 137.008125841, 35.495416658 ], [ 137.008125841, 35.495207658 ], [ 137.00781384, 35.495207658 ], [ 137.00781384, 35.494999658 ], [ 137.007500839, 35.494999658 ], [ 137.007500838, 35.494791658 ], [ 137.007188838, 35.494791658 ], [ 137.007188837, 35.494582658 ], [ 137.007188837, 35.494374658 ], [ 137.006875836, 35.494374658 ], [ 137.006875836, 35.494166658 ], [ 137.006563835, 35.494166658 ], [ 137.006563835, 35.493957658 ], [ 137.006250834, 35.493957658 ], [ 137.006250834, 35.493749658 ], [ 137.005938833, 35.493749658 ], [ 137.005938833, 35.493541658 ], [ 137.005625832, 35.493541658 ], [ 137.005313832, 35.493541658 ], [ 137.005000832, 35.493541658 ], [ 137.005000831, 35.493332658 ], [ 137.004688831, 35.493332657 ], [ 137.004375831, 35.493332657 ], [ 137.00406383, 35.493332657 ], [ 137.00375083, 35.493332657 ], [ 137.00343883, 35.493332657 ], [ 137.003438829, 35.493124657 ], [ 137.003125829, 35.493124657 ], [ 137.002813829, 35.493124657 ] ] ] } },
{ "type": "Feature", "properties": { "A31a_401": "8505090072", "A31a_402": "川浦川", "A31a_403": "21", "A31a_404": "岐阜県", "A31a_405": 2 }, "geometry": { "type": "Polygon", "coordinates": [ [ [ 137.014063882, 35.504374658 ], [ 137.014063883, 35.504582658 ], [ 137.014063884, 35.504791658 ], [ 137.014375884, 35.504791658 ], [ 137.014688885, 35.504791658 ], [ 137.014688884, 35.504582658 ], [ 137.014375884, 35.504582658 ], [ 137.014375883, 35.504374658 ], [ 137.014063882, 35.504374658 ] ] ] } },
{ "type": "Feature", "properties": { "A31a_401": "8505090072", "A31a_402": "川浦川", "A31a_403": "21", "A31a_404": "岐阜県", "A31a_405": 2 }, "geometry": { "type": "Polygon", "coordinates": [ [ [ 137.06687594, 35.530624667 ], [ 137.066875941, 35.530832667 ], [ 137.066875942, 35.531041666 ], [ 137.066875943, 35.531249666 ], [ 137.066875944, 35.531457666 ], [ 137.067188943, 35.531457666 ], [ 137.067500941, 35.531457666 ], [ 137.06750094, 35.531249667 ], [ 137.067500939, 35.531041667 ], [ 137.06718894, 35.531041667 ], [ 137.067188939, 35.530832667 ], [ 137.067188938, 35.530624667 ], [ 137.06687594, 35.530624667 ] ] ] } },
{ "type": "Feature", "properties": { "A31a_401": "8505090072", "A31a_402": "川浦川", "A31a_403": "21", "A31a_404": "岐阜県", "A31a_405": 2 }, "geometry": { "type": "Polygon", "coordinates": [ [ [ 137.066563946, 35.531457665 ], [ 137.066563947, 35.531666665 ], [ 137.066563948, 35.531874665 ], [ 137.066875946, 35.531874665 ], [ 137.066875945, 35.531666665 ], [ 137.066875944, 35.531457666 ], [ 137.066563946, 35.531457665 ] ] ] } },
{ "type": "Feature", "properties": { "A31a_401": "8505090072", "A31a_402": "川浦川", "A31a_403": "21", "A31a_404": "岐阜県", "A31a_405": 2 }, "geometry": { "type": "Polygon", "coordinates": [ [ [ 137.066563954, 35.533124663 ], [ 137.066563955, 35.533332663 ], [ 137.066875954, 35.533332663 ], [ 137.066875953, 35.533124663 ], [ 137.066563954, 35.533124663 ] ] ] } },
{ "type": "Feature", "properties": { "A31a_401": "8505090072", "A31a_402": "川浦川", "A31a_403": "21", "A31a_404": "岐阜県", "A31a_405": 2 }, "geometry": { "type": "Polygon", "coordinates": [ [ [ 137.066875954, 35.533332663 ], [ 137.066875955, 35.533541663 ], [ 137.066875956, 35.533749663 ], [ 137.066875957, 35.533957662 ], [ 137.067188955, 35.533957663 ], [ 137.067188954, 35.533749663 ], [ 137.067188953, 35.533541663 ], [ 137.067188952, 35.533332664 ], [ 137.066875954, 35.533332663 ] ] ] } },
{ "type": "Feature", "properties": { "A31a_401": "8505090072", "A31a_402": "川浦川", "A31a_403": "21", "A31a_404": "岐阜県", "A31a_405": 2 }, "geometry": { "type": "Polygon", "coordinates": [ [ [ 137.065938967, 35.535207659 ], [ 137.065938968, 35.535416659 ], [ 137.066250967, 35.53541666 ], [ 137.066250966, 35.53520766 ], [ 137.065938967, 35.535207659 ] ] ] } },
{ "type": "Feature", "properties": { "A31a_401": "8505090072", "A31a_402": "川浦川", "A31a_403": "21", "A31a_404": "岐阜県", "A31a_405": 2 }, "geometry": { "type": "Polygon", "coordinates": [ [ [ 137.066250967, 35.53541666 ], [ 137.066250968, 35.535624659 ], [ 137.066563966, 35.53562466 ], [ 137.066563965, 35.53541666 ], [ 137.066250967, 35.53541666 ] ] ] } },
{ "type": "Feature", "properties": { "A31a_401": "8505090072", "A31a_402": "川浦川", "A31a_403": "21", "A31a_404": "岐阜県", "A31a_405": 2 }, "geometry": { "type": "Polygon", "coordinates": [ [ [ 137.065625971, 35.535624659 ], [ 137.065625972, 35.535832658 ], [ 137.065625973, 35.536041658 ], [ 137.065938971, 35.536041658 ], [ 137.06593897, 35.535832659 ], [ 137.065938969, 35.535624659 ], [ 137.065625971, 35.535624659 ] ] ] } },
{ "type": "Feature", "properties": { "A31a_401": "8505090072", "A31a_402": "川浦川", "A31a_403": "21", "A31a_404": "岐阜県", "A31a_405": 2 }, "geometry": { "type": "Polygon", "coordinates": [ [ [ 137.065313976, 35.536249657 ], [ 137.065313977, 35.536457657 ], [ 137.065625975, 35.536457657 ], [ 137.065625974, 35.536249658 ], [ 137.065313976, 35.536249657 ] ] ] } },
{ "type": "Feature", "properties": { "A31a_401": "8505090072", "A31a_402": "川浦川", "A31a_403": "21", "A31a_404": "岐阜県", "A31a_405": 2 }, "geometry": { "type": "Polygon", "coordinates": [ [ [ 137.065313983, 35.537707655 ], [ 137.065313984, 35.537916655 ], [ 137.065625982, 35.537916655 ], [ 137.065625981, 35.537707656 ], [ 137.065313983, 35.537707655 ] ] ] } },
{ "type": "Feature", "properties": { "A31a_401": "8505090072", "A31a_402": "川浦川", "A31a_403": "21", "A31a_404": "岐阜県", "A31a_405": 2 }, "geometry": { "type": "Polygon", "coordinates": [ [ [ 137.065313935, 35.528332668 ], [ 137.065313936, 35.528541668 ], [ 137.065625935, 35.528541668 ], [ 137.065625934, 35.528332668 ], [ 137.065313935, 35.528332668 ] ] ] } },
{ "type": "Feature", "properties": { "A31a_401": "8505090072", "A31a_402": "川浦川", "A31a_403": "21", "A31a_404": "岐阜県", "A31a_405": 2 }, "geometry": { "type": "Polygon", "coordinates": [ [ [ 137.065625935, 35.528541668 ], [ 137.065625936, 35.528749668 ], [ 137.065938935, 35.528749668 ], [ 137.065938934, 35.528541669 ], [ 137.065625935, 35.528541668 ] ] ] } },
{ "type": "Feature", "properties": { "A31a_401": "8505090072", "A31a_402": "川浦川", "A31a_403": "21", "A31a_404": "岐阜県", "A31a_405": 2 }, "geometry": { "type": "Polygon", "coordinates": [ [ [ 137.065938935, 35.528749668 ], [ 137.065938936, 35.528957668 ], [ 137.066250934, 35.528957668 ], [ 137.066250933, 35.528749669 ], [ 137.065938935, 35.528749668 ] ] ] } },
{ "type": "Feature", "properties": { "A31a_401": "8505090072", "A31a_402": "川浦川", "A31a_403": "21", "A31a_404": "岐阜県", "A31a_405": 2 }, "geometry": { "type": "Polygon", "coordinates": [ [ [ 137.066250934, 35.528957668 ], [ 137.066250935, 35.529166668 ], [ 137.066563934, 35.529166668 ], [ 137.066563933, 35.528957669 ], [ 137.066250934, 35.528957668 ] ] ] } },
{ "type": "Feature", "properties": { "A31a_401": "8505090072", "A31a_402": "川浦川", "A31a_403": "21", "A31a_404": "岐阜県", "A31a_405": 2 }, "geometry": { "type": "Polygon", "coordinates": [ [ [ 137.066563934, 35.529166668 ], [ 137.066563935, 35.529374668 ], [ 137.066875933, 35.529374668 ], [ 137.066875932, 35.529166669 ], [ 137.066563934, 35.529166668 ] ] ] } },
{ "type": "Feature", "properties": { "A31a_401": "8505090072", "A31a_402": "川浦川", "A31a_403": "21", "A31a_404": "岐阜県", "A31a_405": 2 }, "geometry": { "type": "Polygon", "coordinates": [ [ [ 137.063125941, 35.527499667 ], [ 137.063125942, 35.527707667 ], [ 137.063438941, 35.527707667 ], [ 137.06343894, 35.527499667 ], [ 137.063125941, 35.527499667 ] ] ] } },
{ "type": "Feature", "properties": { "A31a_401": "8505090072", "A31a_402": "川浦川", "A31a_403": "21", "A31a_404": "岐阜県", "A31a_405": 2 }, "geometry": { "type": "Polygon", "coordinates": [ [ [ 137.061875936, 35.525624668 ], [ 137.061875937, 35.525832668 ], [ 137.062188936, 35.525832668 ], [ 137.062188935, 35.525624668 ], [ 137.061875936, 35.525624668 ] ] ] } },
{ "type": "Feature", "properties": { "A31a_401": "8505090072", "A31a_402": "川浦川", "A31a_403": "21", "A31a_404": "岐阜県", "A31a_405": 2 }, "geometry": { "type": "Polygon", "coordinates": [ [ [ 137.062188937, 35.526041668 ], [ 137.062188938, 35.526249668 ], [ 137.062500937, 35.526249668 ], [ 137.062500936, 35.526041668 ], [ 137.062188937, 35.526041668 ] ] ] } },
{ "type": "Feature", "properties": { "A31a_401": "8505090072", "A31a_402": "川浦川", "A31a_403": "21", "A31a_404": "岐阜県", "A31a_405": 2 }, "geometry": { "type": "Polygon", "coordinates": [ [ [ 137.062500938, 35.526457668 ], [ 137.062500939, 35.526666667 ], [ 137.062813938, 35.526666668 ], [ 137.062813937, 35.526457668 ], [ 137.062500938, 35.526457668 ] ] ] } },
{ "type": "Feature", "properties": { "A31a_401": "8505090072", "A31a_402": "川浦川", "A31a_403": "21", "A31a_404": "岐阜県", "A31a_405": 2 }, "geometry": { "type": "Polygon", "coordinates": [ [ [ 137.055625938, 35.522082668 ], [ 137.055625939, 35.522291668 ], [ 137.055938938, 35.522291668 ], [ 137.056250937, 35.522291668 ], [ 137.056563936, 35.522291669 ], [ 137.056875935, 35.522291669 ], [ 137.056875934, 35.522082669 ], [ 137.056563935, 35.522082669 ], [ 137.056250936, 35.522082669 ], [ 137.055938937, 35.522082668 ], [ 137.055625938, 35.522082668 ] ] ] } },
{ "type": "Feature", "properties": { "A31a_401": "8505090072", "A31a_402": "川浦川", "A31a_403": "21", "A31a_404": "岐阜県", "A31a_405": 2 }, "geometry": { "type": "Polygon", "coordinates": [ [ [ 137.056875932, 35.521874669 ], [ 137.056875934, 35.522082669 ], [ 137.057188932, 35.522082669 ], [ 137.057500931, 35.52208267 ], [ 137.05781393, 35.52208267 ], [ 137.058125929, 35.52208267 ], [ 137.058438928, 35.52208267 ], [ 137.058438927, 35.521874671 ], [ 137.058125928, 35.52187467 ], [ 137.057813929, 35.52187467 ], [ 137.05750093, 35.52187467 ], [ 137.057188931, 35.52187467 ], [ 137.056875932, 35.521874669 ] ] ] } },
{ "type": "Feature", "properties": { "A31a_401": "8505090072", "A31a_402": "川浦川", "A31a_403": "21", "A31a_404": "岐阜県", "A31a_405": 2 }, "geometry": { "type": "Polygon", "coordinates": [ [ [ 137.058438928, 35.52208267 ], [ 137.058438929, 35.52229167 ], [ 137.058750928, 35.52229167 ], [ 137.059063927, 35.522291671 ], [ 137.059063928, 35.52249967 ], [ 137.059375927, 35.52249967 ], [ 137.059688926, 35.522499671 ], [ 137.059688927, 35.52270767 ], [ 137.060000926, 35.522707671 ], [ 137.060000928, 35.52291667 ], [ 137.060313926, 35.522916671 ], [ 137.060313925, 35.522707671 ], [ 137.060313924, 35.522499671 ], [ 137.060000925, 35.522499671 ], [ 137.060000924, 35.522291671 ], [ 137.059688925, 35.522291671 ], [ 137.059375926, 35.522291671 ], [ 137.059375925, 35.522082671 ], [ 137.059063926, 35.522082671 ], [ 137.058750927, 35.522082671 ], [ 137.058438928, 35.52208267 ] ] ] } },
{ "type": "Feature", "properties": { "A31a_401": "8505090072", "A31a_402": "川浦川", "A31a_403": "21", "A31a_404": "岐阜県", "A31a_405": 2 }, "geometry": { "type": "Polygon", "coordinates": [ [ [ 137.060313926, 35.522916671 ], [ 137.060313928, 35.52312467 ], [ 137.060313929, 35.52333267 ], [ 137.060625928, 35.52333267 ], [ 137.060625927, 35.523124671 ], [ 137.060625925, 35.522916671 ], [ 137.060313926, 35.522916671 ] ] ] } },
{ "type": "Feature", "properties": { "A31a_401": "8505090072", "A31a_402": "川浦川", "A31a_403": "21", "A31a_404": "岐阜県", "A31a_405": 2 }, "geometry": { "type": "Polygon", "coordinates": [ [ [ 137.060625928, 35.52333267 ], [ 137.060625929, 35.52354167 ], [ 137.06062593, 35.52374967 ], [ 137.060938929, 35.52374967 ], [ 137.060938928, 35.52354167 ], [ 137.060938927, 35.523332671 ], [ 137.060625928, 35.52333267 ] ] ] } },
{ "type": "Feature", "properties": { "A31a_401": "8505090072", "A31a_402": "川浦川", "A31a_403": "21", "A31a_404": "岐阜県", "A31a_405": 2 }, "geometry": { "type": "Polygon", "coordinates": [ [ [ 137.054375931, 35.520207669 ], [ 137.054375932, 35.520416669 ], [ 137.054688931, 35.520416669 ], [ 137.05468893, 35.52020767 ], [ 137.054375931, 35.520207669 ] ] ] } },
{ "type": "Feature", "properties": { "A31a_401": "8505090072", "A31a_402": "川浦川", "A31a_403": "21", "A31a_404": "岐阜県", "A31a_405": 2 }, "geometry": { "type": "Polygon", "coordinates": [ [ [ 137.054375934, 35.520624669 ], [ 137.054375935, 35.520832669 ], [ 137.054688934, 35.520832669 ], [ 137.054688933, 35.520624669 ], [ 137.054375934, 35.520624669 ] ] ] } },
{ "type": "Feature", "properties": { "A31a_401": "8505090072", "A31a_402": "川浦川", "A31a_403": "21", "A31a_404": "岐阜県", "A31a_405": 2 }, "geometry": { "type": "Polygon", "coordinates": [ [ [ 137.054688931, 35.520416669 ], [ 137.054688933, 35.520624669 ], [ 137.055000932, 35.520624669 ], [ 137.05500093, 35.52041667 ], [ 137.054688931, 35.520416669 ] ] ] } },
{ "type": "Feature", "properties": { "A31a_401": "8505090072", "A31a_402": "川浦川", "A31a_403": "21", "A31a_404": "岐阜県", "A31a_405": 2 }, "geometry": { "type": "Polygon", "coordinates": [ [ [ 137.054688934, 35.520832669 ], [ 137.054688935, 35.521041669 ], [ 137.055000934, 35.521041669 ], [ 137.055000933, 35.520832669 ], [ 137.054688934, 35.520832669 ] ] ] } },
{ "type": "Feature", "properties": { "A31a_401": "8505090072", "A31a_402": "川浦川", "A31a_403": "21", "A31a_404": "岐阜県", "A31a_405": 2 }, "geometry": { "type": "Polygon", "coordinates": [ [ [ 137.055000932, 35.520624669 ], [ 137.055000933, 35.520832669 ], [ 137.055313932, 35.520832669 ], [ 137.05531393, 35.52062467 ], [ 137.055000932, 35.520624669 ] ] ] } },
{ "type": "Feature", "properties": { "A31a_401": "8505090072", "A31a_402": "川浦川", "A31a_403": "21", "A31a_404": "岐阜県", "A31a_405": 2 }, "geometry": { "type": "Polygon", "coordinates": [ [ [ 137.050000945, 35.519999666 ], [ 137.050000946, 35.520207666 ], [ 137.050000948, 35.520416666 ], [ 137.050000949, 35.520624665 ], [ 137.05000095, 35.520832665 ], [ 137.050000951, 35.521041665 ], [ 137.050000952, 35.521249665 ], [ 137.050313951, 35.521249665 ], [ 137.050313953, 35.521457665 ], [ 137.050313954, 35.521666665 ], [ 137.050625953, 35.521666665 ], [ 137.050625952, 35.521457665 ], [ 137.05062595, 35.521249665 ], [ 137.050625949, 35.521041666 ], [ 137.05031395, 35.521041665 ], [ 137.050313949, 35.520832666 ], [ 137.050313948, 35.520624666 ], [ 137.050313946, 35.520416666 ], [ 137.050313945, 35.520207666 ], [ 137.050313944, 35.519999666 ], [ 137.050000945, 35.519999666 ] ] ] } },
{ "type": "Feature", "properties": { "A31a_401": "8505090072", "A31a_402": "川浦川", "A31a_403": "21", "A31a_404": "岐阜県", "A31a_405": 2 }, "geometry": { "type": "Polygon", "coordinates": [ [ [ 137.050625953, 35.521666665 ], [ 137.050625954, 35.521874665 ], [ 137.050938953, 35.521874665 ], [ 137.050938952, 35.521666665 ], [ 137.050625953, 35.521666665 ] ] ] } },
{ "type": "Feature", "properties": { "A31a_401": "8505090072", "A31a_402": "川浦川", "A31a_403": "21", "A31a_404": "岐阜県", "A31a_405": 2 }, "geometry": { "type": "Polygon", "coordinates": [ [ [ 137.050938954, 35.522082665 ], [ 137.050938955, 35.522291665 ], [ 137.051250954, 35.522291665 ], [ 137.051563953, 35.522291665 ], [ 137.051563952, 35.522082665 ], [ 137.051250953, 35.522082665 ], [ 137.050938954, 35.522082665 ] ] ] } },
{ "type": "Feature", "properties": { "A31a_401": "8505090072", "A31a_402": "川浦川", "A31a_403": "21", "A31a_404": "岐阜県", "A31a_405": 2 }, "geometry": { "type": "Polygon", "coordinates": [ [ [ 137.051563951, 35.521874665 ], [ 137.051563952, 35.522082665 ], [ 137.051875951, 35.522082665 ], [ 137.05187595, 35.521874666 ], [ 137.051563951, 35.521874665 ] ] ] } },
{ "type": "Feature", "properties": { "A31a_401": "8505090072", "A31a_402": "川浦川", "A31a_403": "21", "A31a_404": "岐阜県", "A31a_405": 2 }, "geometry": { "type": "Polygon", "coordinates": [ [ [ 137.053125943, 35.521457667 ], [ 137.053125944, 35.521666667 ], [ 137.053438943, 35.521666667 ], [ 137.053438942, 35.521457667 ], [ 137.053125943, 35.521457667 ] ] ] } },
{ "type": "Feature", "properties": { "A31a_401": "8505090072", "A31a_402": "川浦川", "A31a_403": "21", "A31a_404": "岐阜県", "A31a_405": 2 }, "geometry": { "type": "Polygon", "coordinates": [ [ [ 137.052500946, 35.521666666 ], [ 137.052500948, 35.521874666 ], [ 137.052813946, 35.521874666 ], [ 137.052813945, 35.521666667 ], [ 137.052500946, 35.521666666 ] ] ] } },
{ "type": "Feature", "properties": { "A31a_401": "8505090072", "A31a_402": "川浦川", "A31a_403": "21", "A31a_404": "岐阜県", "A31a_405": 2 }, "geometry": { "type": "Polygon", "coordinates": [ [ [ 137.045938938, 35.517707666 ], [ 137.04593894, 35.517916665 ], [ 137.046250939, 35.517916666 ], [ 137.046250938, 35.517707666 ], [ 137.045938938, 35.517707666 ] ] ] } },
{ "type": "Feature", "properties": { "A31a_401": "8505090072", "A31a_402": "川浦川", "A31a_403": "21", "A31a_404": "岐阜県", "A31a_405": 2 }, "geometry": { "type": "Polygon", "coordinates": [ [ [ 137.045938942, 35.518332665 ], [ 137.045938943, 35.518541665 ], [ 137.046250943, 35.518541665 ], [ 137.046250942, 35.518332665 ], [ 137.045938942, 35.518332665 ] ] ] } },
{ "type": "Feature", "properties": { "A31a_401": "8505090072", "A31a_402": "川浦川", "A31a_403": "21", "A31a_404": "岐阜県", "A31a_405": 2 }, "geometry": { "type": "Polygon", "coordinates": [ [ [ 137.046250939, 35.517916666 ], [ 137.04625094, 35.518124665 ], [ 137.04656394, 35.518124666 ], [ 137.046563939, 35.517916666 ], [ 137.046250939, 35.517916666 ] ] ] } },
{ "type": "Feature", "properties": { "A31a_401": "8505090072", "A31a_402": "川浦川", "A31a_403": "21", "A31a_404": "岐阜県", "A31a_405": 2 }, "geometry": { "type": "Polygon", "coordinates": [ [ [ 137.04656394, 35.518124666 ], [ 137.046563941, 35.518332665 ], [ 137.046875941, 35.518332666 ], [ 137.04718894, 35.518332666 ], [ 137.047188939, 35.518124666 ], [ 137.046875939, 35.518124666 ], [ 137.04656394, 35.518124666 ] ] ] } },
{ "type": "Feature", "properties": { "A31a_401": "8505090072", "A31a_402": "川浦川", "A31a_403": "21", "A31a_404": "岐阜県", "A31a_405": 2 }, "geometry": { "type": "Polygon", "coordinates": [ [ [ 137.046250943, 35.518541665 ], [ 137.046250944, 35.518749665 ], [ 137.046563944, 35.518749665 ], [ 137.046563945, 35.518957665 ], [ 137.046875944, 35.518957665 ], [ 137.047188944, 35.518957665 ], [ 137.047500943, 35.518957665 ], [ 137.047813943, 35.518957666 ], [ 137.047813944, 35.519166665 ], [ 137.048125943, 35.519166666 ], [ 137.048438943, 35.519166666 ], [ 137.048438942, 35.518957666 ], [ 137.048125942, 35.518957666 ], [ 137.048125941, 35.518749666 ], [ 137.047813941, 35.518749666 ], [ 137.047500942, 35.518749666 ], [ 137.047188942, 35.518749665 ], [ 137.047188941, 35.518541666 ], [ 137.046875942, 35.518541665 ], [ 137.046563942, 35.518541665 ], [ 137.046250943, 35.518541665 ] ] ] } },
{ "type": "Feature", "properties": { "A31a_401": "8505090072", "A31a_402": "川浦川", "A31a_403": "21", "A31a_404": "岐阜県", "A31a_405": 2 }, "geometry": { "type": "Polygon", "coordinates": [ [ [ 137.048438943, 35.519166666 ], [ 137.048438944, 35.519374666 ], [ 137.048750943, 35.519374666 ], [ 137.048750942, 35.519166666 ], [ 137.048438943, 35.519166666 ] ] ] } },
{ "type": "Feature", "properties": { "A31a_401": "8505090072", "A31a_402": "川浦川", "A31a_403": "21", "A31a_404": "岐阜県", "A31a_405": 2 }, "geometry": { "type": "Polygon", "coordinates": [ [ [ 137.046250922, 35.514999669 ], [ 137.046250923, 35.515207669 ], [ 137.046563923, 35.515207669 ], [ 137.046563922, 35.514999669 ], [ 137.046250922, 35.514999669 ] ] ] } },
{ "type": "Feature", "properties": { "A31a_401": "8505090072", "A31a_402": "川浦川", "A31a_403": "21", "A31a_404": "岐阜県", "A31a_405": 2 }, "geometry": { "type": "Polygon", "coordinates": [ [ [ 137.046563932, 35.516874667 ], [ 137.046563934, 35.517082667 ], [ 137.046875933, 35.517082667 ], [ 137.046875932, 35.516874667 ], [ 137.046563932, 35.516874667 ] ] ] } },
{ "type": "Feature", "properties": { "A31a_401": "8505090072", "A31a_402": "川浦川", "A31a_403": "21", "A31a_404": "岐阜県", "A31a_405": 2 }, "geometry": { "type": "Polygon", "coordinates": [ [ [ 137.046563924, 35.515416669 ], [ 137.046563925, 35.515624668 ], [ 137.046875925, 35.515624669 ], [ 137.046875923, 35.515416669 ], [ 137.046563924, 35.515416669 ] ] ] } },
{ "type": "Feature", "properties": { "A31a_401": "8505090072", "A31a_402": "川浦川", "A31a_403": "21", "A31a_404": "岐阜県", "A31a_405": 2 }, "geometry": { "type": "Polygon", "coordinates": [ [ [ 137.046875926, 35.515832668 ], [ 137.046875927, 35.516041668 ], [ 137.047188926, 35.516041668 ], [ 137.047188925, 35.515832669 ], [ 137.046875926, 35.515832668 ] ] ] } },
{ "type": "Feature", "properties": { "A31a_401": "8505090072", "A31a_402": "川浦川", "A31a_403": "21", "A31a_404": "岐阜県", "A31a_405": 2 }, "geometry": { "type": "Polygon", "coordinates": [ [ [ 137.046875929, 35.516457668 ], [ 137.046875931, 35.516666667 ], [ 137.04718893, 35.516666668 ], [ 137.047188929, 35.516457668 ], [ 137.046875929, 35.516457668 ] ] ] } },
{ "type": "Feature", "properties": { "A31a_401": "8505090072", "A31a_402": "川浦川", "A31a_403": "21", "A31a_404": "岐阜県", "A31a_405": 2 }, "geometry": { "type": "Polygon", "coordinates": [ [ [ 137.042500921, 35.513541668 ], [ 137.042500922, 35.513749668 ], [ 137.042813921, 35.513749668 ], [ 137.04281392, 35.513541668 ], [ 137.042500921, 35.513541668 ] ] ] } },
{ "type": "Feature", "properties": { "A31a_401": "8505090072", "A31a_402": "川浦川", "A31a_403": "21", "A31a_404": "岐阜県", "A31a_405": 2 }, "geometry": { "type": "Polygon", "coordinates": [ [ [ 137.042188922, 35.513749668 ], [ 137.042188924, 35.513957667 ], [ 137.042500923, 35.513957668 ], [ 137.042500922, 35.513749668 ], [ 137.042188922, 35.513749668 ] ] ] } },
{ "type": "Feature", "properties": { "A31a_401": "8505090072", "A31a_402": "川浦川", "A31a_403": "21", "A31a_404": "岐阜県", "A31a_405": 2 }, "geometry": { "type": "Polygon", "coordinates": [ [ [ 137.042813921, 35.513749668 ], [ 137.042813922, 35.513957668 ], [ 137.042813924, 35.514166668 ], [ 137.043125923, 35.514166668 ], [ 137.043125922, 35.513957668 ], [ 137.043125921, 35.513749668 ], [ 137.042813921, 35.513749668 ] ] ] } },
{ "type": "Feature", "properties": { "A31a_401": "8505090072", "A31a_402": "川浦川", "A31a_403": "21", "A31a_404": "岐阜県", "A31a_405": 2 }, "geometry": { "type": "Polygon", "coordinates": [ [ [ 137.043125923, 35.514166668 ], [ 137.043125924, 35.514374667 ], [ 137.043438924, 35.514374668 ], [ 137.043438923, 35.514166668 ], [ 137.043125923, 35.514166668 ] ] ] } },
{ "type": "Feature", "properties": { "A31a_401": "8505090072", "A31a_402": "川浦川", "A31a_403": "21", "A31a_404": "岐阜県", "A31a_405": 2 }, "geometry": { "type": "Polygon", "coordinates": [ [ [ 137.034688919, 35.511457665 ], [ 137.03468892, 35.511666664 ], [ 137.03500092, 35.511666665 ], [ 137.03531392, 35.511666665 ], [ 137.035313919, 35.511457665 ], [ 137.035000919, 35.511457665 ], [ 137.034688919, 35.511457665 ] ] ] } },
{ "type": "Feature", "properties": { "A31a_401": "8505090072", "A31a_402": "川浦川", "A31a_403": "21", "A31a_404": "岐阜県", "A31a_405": 2 }, "geometry": { "type": "Polygon", "coordinates": [ [ [ 137.03531392, 35.511666665 ], [ 137.035313921, 35.511874665 ], [ 137.035625921, 35.511874665 ], [ 137.035625922, 35.512082665 ], [ 137.035938922, 35.512082665 ], [ 137.035938923, 35.512291665 ], [ 137.036250923, 35.512291665 ], [ 137.036250924, 35.512499665 ], [ 137.036563924, 35.512499665 ], [ 137.036563923, 35.512291665 ], [ 137.036563922, 35.512082665 ], [ 137.036250922, 35.512082665 ], [ 137.036250921, 35.511874665 ], [ 137.035938921, 35.511874665 ], [ 137.03593892, 35.511666665 ], [ 137.03562592, 35.511666665 ], [ 137.03531392, 35.511666665 ] ] ] } },
{ "type": "Feature", "properties": { "A31a_401": "8505090072", "A31a_402": "川浦川", "A31a_403": "21", "A31a_404": "岐阜県", "A31a_405": 2 }, "geometry": { "type": "Polygon", "coordinates": [ [ [ 137.038125924, 35.512707666 ], [ 137.038125925, 35.512916665 ], [ 137.038438924, 35.512916666 ], [ 137.038750924, 35.512916666 ], [ 137.038750923, 35.512707666 ], [ 137.038438923, 35.512707666 ], [ 137.038125924, 35.512707666 ] ] ] } },
{ "type": "Feature", "properties": { "A31a_401": "8505090072", "A31a_402": "川浦川", "A31a_403": "21", "A31a_404": "岐阜県", "A31a_405": 2 }, "geometry": { "type": "Polygon", "coordinates": [ [ [ 137.038750924, 35.512916666 ], [ 137.038750925, 35.513124666 ], [ 137.039063924, 35.513124666 ], [ 137.039375924, 35.513124666 ], [ 137.039375923, 35.512916666 ], [ 137.039063923, 35.512916666 ], [ 137.038750924, 35.512916666 ] ] ] } },
{ "type": "Feature", "properties": { "A31a_401": "8505090072", "A31a_402": "川浦川", "A31a_403": "21", "A31a_404": "岐阜県", "A31a_405": 2 }, "geometry": { "type": "Polygon", "coordinates": [ [ [ 137.036875924, 35.512499665 ], [ 137.036875925, 35.512707665 ], [ 137.037188925, 35.512707665 ], [ 137.037500925, 35.512707665 ], [ 137.037813924, 35.512707665 ], [ 137.037813923, 35.512499666 ], [ 137.037500924, 35.512499665 ], [ 137.037188924, 35.512499665 ], [ 137.036875924, 35.512499665 ] ] ] } },
{ "type": "Feature", "properties": { "A31a_401": "8505090072", "A31a_402": "川浦川", "A31a_403": "21", "A31a_404": "岐阜県", "A31a_405": 2 }, "geometry": { "type": "Polygon", "coordinates": [ [ [ 137.028750902, 35.507499664 ], [ 137.028750903, 35.507707664 ], [ 137.029063903, 35.507707664 ], [ 137.029063902, 35.507499664 ], [ 137.028750902, 35.507499664 ] ] ] } },
{ "type": "Feature", "properties": { "A31a_401": "8505090072", "A31a_402": "川浦川", "A31a_403": "21", "A31a_404": "岐阜県", "A31a_405": 2 }, "geometry": { "type": "Polygon", "coordinates": [ [ [ 137.029063903, 35.507707664 ], [ 137.029063904, 35.507916664 ], [ 137.029063905, 35.508124664 ], [ 137.029375904, 35.508124664 ], [ 137.029375905, 35.508332664 ], [ 137.029688905, 35.508332664 ], [ 137.029688906, 35.508541664 ], [ 137.029688907, 35.508749664 ], [ 137.030000907, 35.508749664 ], [ 137.030000908, 35.508957664 ], [ 137.030313908, 35.508957664 ], [ 137.030313909, 35.509166664 ], [ 137.030625909, 35.509166664 ], [ 137.03062591, 35.509374664 ], [ 137.03093891, 35.509374664 ], [ 137.030938909, 35.509166664 ], [ 137.030938908, 35.508957665 ], [ 137.030625908, 35.508957664 ], [ 137.030625907, 35.508749665 ], [ 137.030313907, 35.508749664 ], [ 137.030313906, 35.508541664 ], [ 137.030313905, 35.508332665 ], [ 137.030000905, 35.508332664 ], [ 137.030000904, 35.508124665 ], [ 137.029688904, 35.508124664 ], [ 137.029688903, 35.507916665 ], [ 137.029375903, 35.507916664 ], [ 137.029375902, 35.507707665 ], [ 137.029063903, 35.507707664 ] ] ] } },
{ "type": "Feature", "properties": { "A31a_401": "8505090072", "A31a_402": "川浦川", "A31a_403": "21", "A31a_404": "岐阜県", "A31a_405": 2 }, "geometry": { "type": "Polygon", "coordinates": [ [ [ 137.03093891, 35.509374664 ], [ 137.030938911, 35.509582664 ], [ 137.031250911, 35.509582664 ], [ 137.03125091, 35.509374664 ], [ 137.03093891, 35.509374664 ] ] ] } },
{ "type": "Feature", "properties": { "A31a_401": "8505090072", "A31a_402": "川浦川", "A31a_403": "21", "A31a_404": "岐阜県", "A31a_405": 2 }, "geometry": { "type": "Polygon", "coordinates": [ [ [ 137.031250911, 35.509582664 ], [ 137.031250912, 35.509791664 ], [ 137.031563912, 35.509791664 ], [ 137.031563911, 35.509582664 ], [ 137.031250911, 35.509582664 ] ] ] } },
{ "type": "Feature", "properties": { "A31a_401": "8505090072", "A31a_402": "川浦川", "A31a_403": "21", "A31a_404": "岐阜県", "A31a_405": 2 }, "geometry": { "type": "Polygon", "coordinates": [ [ [ 137.032188916, 35.510624664 ], [ 137.032188917, 35.510832664 ], [ 137.032500917, 35.510832664 ], [ 137.032500916, 35.510624664 ], [ 137.032188916, 35.510624664 ] ] ] } },
{ "type": "Feature", "properties": { "A31a_401": "8505090072", "A31a_402": "川浦川", "A31a_403": "21", "A31a_404": "岐阜県", "A31a_405": 2 }, "geometry": { "type": "Polygon", "coordinates": [ [ [ 137.032500917, 35.510832664 ], [ 137.032500918, 35.511041664 ], [ 137.032813918, 35.511041664 ], [ 137.032813917, 35.510832664 ], [ 137.032500917, 35.510832664 ] ] ] } },
{ "type": "Feature", "properties": { "A31a_401": "8505090072", "A31a_402": "川浦川", "A31a_403": "21", "A31a_404": "岐阜県", "A31a_405": 2 }, "geometry": { "type": "Polygon", "coordinates": [ [ [ 137.025313903, 35.507291662 ], [ 137.025313904, 35.507499662 ], [ 137.025313905, 35.507707662 ], [ 137.025313906, 35.507916662 ], [ 137.025313907, 35.508124661 ], [ 137.025313908, 35.508332661 ], [ 137.025313909, 35.508541661 ], [ 137.02531391, 35.508749661 ], [ 137.025313911, 35.508957661 ], [ 137.025313912, 35.509166661 ], [ 137.025313913, 35.509374661 ], [ 137.025313914, 35.50958266 ], [ 137.025625914, 35.509582661 ], [ 137.025625913, 35.509374661 ], [ 137.025625912, 35.509166661 ], [ 137.025625911, 35.508957661 ], [ 137.02562591, 35.508749661 ], [ 137.025625909, 35.508541661 ], [ 137.025625908, 35.508332662 ], [ 137.025625907, 35.508124662 ], [ 137.025625906, 35.507916662 ], [ 137.025625905, 35.507707662 ], [ 137.025625904, 35.507499662 ], [ 137.025625903, 35.507291662 ], [ 137.025313903, 35.507291662 ] ] ] } },
{ "type": "Feature", "properties": { "A31a_401": "8505090072", "A31a_402": "川浦川", "A31a_403": "21", "A31a_404": "岐阜県", "A31a_405": 2 }, "geometry": { "type": "Polygon", "coordinates": [ [ [ 137.025625914, 35.509582661 ], [ 137.025625915, 35.509791661 ], [ 137.025938915, 35.509791661 ], [ 137.025938914, 35.509582661 ], [ 137.025625914, 35.509582661 ] ] ] } },
{ "type": "Feature", "properties": { "A31a_401": "8505090072", "A31a_402": "川浦川", "A31a_403": "21", "A31a_404": "岐阜県", "A31a_405": 2 }, "geometry": { "type": "Polygon", "coordinates": [ [ [ 137.025938913, 35.509374661 ], [ 137.025938914, 35.509582661 ], [ 137.026250914, 35.509582661 ], [ 137.026250913, 35.509374661 ], [ 137.025938913, 35.509374661 ] ] ] } },
{ "type": "Feature", "properties": { "A31a_401": "8505090072", "A31a_402": "川浦川", "A31a_403": "21", "A31a_404": "岐阜県", "A31a_405": 2 }, "geometry": { "type": "Polygon", "coordinates": [ [ [ 137.026875906, 35.508124663 ], [ 137.026875907, 35.508332662 ], [ 137.026563907, 35.508332662 ], [ 137.026563908, 35.508541662 ], [ 137.026563909, 35.508749662 ], [ 137.02656391, 35.508957662 ], [ 137.026563912, 35.509166662 ], [ 137.026875911, 35.509166662 ], [ 137.02687591, 35.508957662 ], [ 137.026875909, 35.508749662 ], [ 137.026875908, 35.508541662 ], [ 137.027188908, 35.508541662 ], [ 137.027188907, 35.508332663 ], [ 137.027188906, 35.508124663 ], [ 137.026875906, 35.508124663 ] ] ] } },
{ "type": "Feature", "properties": { "A31a_401": "8505090072", "A31a_402": "川浦川", "A31a_403": "21", "A31a_404": "岐阜県", "A31a_405": 2 }, "geometry": { "type": "Polygon", "coordinates": [ [ [ 137.026875911, 35.509166662 ], [ 137.026875912, 35.509374662 ], [ 137.027188912, 35.509374662 ], [ 137.027188911, 35.509166662 ], [ 137.026875911, 35.509166662 ] ] ] } },
{ "type": "Feature", "properties": { "A31a_401": "8505090072", "A31a_402": "川浦川", "A31a_403": "21", "A31a_404": "岐阜県", "A31a_405": 2 }, "geometry": { "type": "Polygon", "coordinates": [ [ [ 137.027500906, 35.508124663 ], [ 137.027500907, 35.508332663 ], [ 137.027500908, 35.508541663 ], [ 137.027188908, 35.508541662 ], [ 137.027188909, 35.508749662 ], [ 137.02718891, 35.508957662 ], [ 137.027188911, 35.509166662 ], [ 137.027500911, 35.509166662 ], [ 137.02750091, 35.508957662 ], [ 137.027500909, 35.508749662 ], [ 137.027813909, 35.508749663 ], [ 137.027813908, 35.508541663 ], [ 137.027813906, 35.508332663 ], [ 137.027813905, 35.508124663 ], [ 137.027500906, 35.508124663 ] ] ] } },
{ "type": "Feature", "properties": { "A31a_401": "8505090072", "A31a_402": "川浦川", "A31a_403": "21", "A31a_404": "岐阜県", "A31a_405": 2 }, "geometry": { "type": "Polygon", "coordinates": [ [ [ 137.026563914, 35.509582661 ], [ 137.026563915, 35.509791661 ], [ 137.026875915, 35.509791661 ], [ 137.026875913, 35.509582661 ], [ 137.026563914, 35.509582661 ] ] ] } },
{ "type": "Feature", "properties": { "A31a_401": "8505090072", "A31a_402": "川浦川", "A31a_403": "21", "A31a_404": "岐阜県", "A31a_405": 2 }, "geometry": { "type": "Polygon", "coordinates": [ [ [ 137.015313886, 35.504999658 ], [ 137.015313887, 35.505207658 ], [ 137.015625887, 35.505207658 ], [ 137.015938887, 35.505207658 ], [ 137.015938886, 35.504999659 ], [ 137.015625886, 35.504999658 ], [ 137.015313886, 35.504999658 ] ] ] } },
{ "type": "Feature", "properties": { "A31a_401": "8505090072", "A31a_402": "川浦川", "A31a_403": "21", "A31a_404": "岐阜県", "A31a_405": 2 }, "geometry": { "type": "Polygon", "coordinates": [ [ [ 137.016875889, 35.505416659 ], [ 137.01687589, 35.505624659 ], [ 137.01718889, 35.505624659 ], [ 137.01750089, 35.505624659 ], [ 137.01781389, 35.505624659 ], [ 137.017813889, 35.505416659 ], [ 137.017500889, 35.505416659 ], [ 137.017188889, 35.505416659 ], [ 137.016875889, 35.505416659 ] ] ] } },
{ "type": "Feature", "properties": { "A31a_401": "8505090072", "A31a_402": "川浦川", "A31a_403": "21", "A31a_404": "岐阜県", "A31a_405": 2 }, "geometry": { "type": "Polygon", "coordinates": [ [ [ 137.01781389, 35.505624659 ], [ 137.017813891, 35.505832659 ], [ 137.018125891, 35.505832659 ], [ 137.018438892, 35.505832659 ], [ 137.018750892, 35.50583266 ], [ 137.019063892, 35.50583266 ], [ 137.019063893, 35.50604166 ], [ 137.019375893, 35.50604166 ], [ 137.019688894, 35.50604166 ], [ 137.019688894, 35.50624966 ], [ 137.020000895, 35.50624966 ], [ 137.020313895, 35.50624966 ], [ 137.020313896, 35.50645766 ], [ 137.020625896, 35.50645766 ], [ 137.020938896, 35.50645766 ], [ 137.020938895, 35.50624966 ], [ 137.020625895, 35.50624966 ], [ 137.020625894, 35.50604166 ], [ 137.020313894, 35.50604166 ], [ 137.020000894, 35.50604166 ], [ 137.020000893, 35.50583266 ], [ 137.019688893, 35.50583266 ], [ 137.019375892, 35.50583266 ], [ 137.019375892, 35.50562466 ], [ 137.019063891, 35.50562466 ], [ 137.018750891, 35.50562466 ], [ 137.018438891, 35.50562466 ], [ 137.018125891, 35.505624659 ], [ 137.01781389, 35.505624659 ] ] ] } },
{ "type": "Feature", "properties": { "A31a_401": "8505090072", "A31a_402": "川浦川", "A31a_403": "21", "A31a_404": "岐阜県", "A31a_405": 2 }, "geometry": { "type": "Polygon", "coordinates": [ [ [ 137.020938896, 35.50645766 ], [ 137.020938897, 35.50666666 ], [ 137.021250898, 35.50666666 ], [ 137.021250898, 35.50687466 ], [ 137.021563899, 35.50687466 ], [ 137.021875899, 35.506874661 ], [ 137.0218759, 35.50708266 ], [ 137.0221889, 35.507082661 ], [ 137.0225009, 35.507082661 ], [ 137.022813901, 35.507082661 ], [ 137.022813902, 35.507291661 ], [ 137.023125902, 35.507291661 ], [ 137.023438902, 35.507291661 ], [ 137.023438903, 35.507499661 ], [ 137.023750903, 35.507499661 ], [ 137.024063904, 35.507499661 ], [ 137.024375904, 35.507499661 ], [ 137.024375905, 35.507707661 ], [ 137.024688905, 35.507707661 ], [ 137.024688906, 35.507916661 ], [ 137.024688907, 35.508124661 ], [ 137.024688908, 35.508332661 ], [ 137.025000908, 35.508332661 ], [ 137.025000907, 35.508124661 ], [ 137.025000906, 35.507916661 ], [ 137.025000905, 35.507707662 ], [ 137.025000904, 35.507499662 ], [ 137.024688904, 35.507499662 ], [ 137.024688903, 35.507291662 ], [ 137.024375903, 35.507291662 ], [ 137.024063903, 35.507291661 ], [ 137.024063902, 35.507082661 ], [ 137.023750901, 35.507082661 ], [ 137.023438901, 35.507082661 ], [ 137.023125901, 35.507082661 ], [ 137.0231259, 35.506874661 ], [ 137.0228139, 35.506874661 ], [ 137.0225009, 35.506874661 ], [ 137.022188899, 35.506874661 ], [ 137.022188898, 35.506666661 ], [ 137.021875898, 35.506666661 ], [ 137.021563898, 35.506666661 ], [ 137.021563897, 35.506457661 ], [ 137.021250897, 35.506457661 ], [ 137.020938896, 35.50645766 ] ] ] } },
{ "type": "Feature", "properties": { "A31a_401": "8505090072", "A31a_402": "川浦川", "A31a_403": "21", "A31a_404": "岐阜県", "A31a_405": 2 }, "geometry": { "type": "Polygon", "coordinates": [ [ [ 137.016250887, 35.505207659 ], [ 137.016250888, 35.505416658 ], [ 137.016563889, 35.505416659 ], [ 137.016563888, 35.505207659 ], [ 137.016250887, 35.505207659 ] ] ] } },
{ "type": "Feature", "properties": { "A31a_401": "8505090072", "A31a_402": "川浦川", "A31a_403": "21", "A31a_404": "岐阜県", "A31a_405": 2 }, "geometry": { "type": "Polygon", "coordinates": [ [ [ 137.006563834, 35.493749658 ], [ 137.006563835, 35.493957658 ], [ 137.006875835, 35.493957658 ], [ 137.006875836, 35.494166658 ], [ 137.007188836, 35.494166658 ], [ 137.007188837, 35.494374658 ], [ 137.007500837, 35.494374658 ], [ 137.007500838, 35.494582658 ], [ 137.007813838, 35.494582658 ], [ 137.007813837, 35.494374658 ], [ 137.007813836, 35.494166659 ], [ 137.007500836, 35.494166658 ], [ 137.007500835, 35.493957658 ], [ 137.007188835, 35.493957658 ], [ 137.007188834, 35.493749658 ], [ 137.006875834, 35.493749658 ], [ 137.006563834, 35.493749658 ] ] ] } },
{ "type": "Feature", "properties": { "A31a_401": "8505090072", "A31a_402": "川浦川", "A31a_403": "21", "A31a_404": "岐阜県", "A31a_405": 2 }, "geometry": { "type": "Polygon", "coordinates": [ [ [ 137.007813838, 35.494582658 ], [ 137.007813839, 35.494791658 ], [ 137.00781384, 35.494999658 ], [ 137.00812584, 35.494999658 ], [ 137.008125841, 35.495207658 ], [ 137.008438841, 35.495207659 ], [ 137.008750841, 35.495207659 ], [ 137.00875084, 35.494999659 ], [ 137.00843884, 35.494999659 ], [ 137.008438839, 35.494791659 ], [ 137.008125839, 35.494791658 ], [ 137.008125838, 35.494582659 ], [ 137.007813838, 35.494582658 ] ] ] } },
{ "type": "Feature", "properties": { "A31a_401": "8505090072", "A31a_402": "川浦川", "A31a_403": "21", "A31a_404": "岐阜県", "A31a_405": 2 }, "geometry": { "type": "Polygon", "coordinates": [ [ [ 137.008750841, 35.495207659 ], [ 137.008750842, 35.495416659 ], [ 137.009063842, 35.495416659 ], [ 137.009063841, 35.495207659 ], [ 137.008750841, 35.495207659 ] ] ] } },
{ "type": "Feature", "properties": { "A31a_401": "8505090072", "A31a_402": "川浦川", "A31a_403": "21", "A31a_404": "岐阜県", "A31a_405": 2 }, "geometry": { "type": "Polygon", "coordinates": [ [ [ 137.014063878, 35.503332658 ], [ 137.014063879, 35.503541658 ], [ 137.014375879, 35.503541658 ], [ 137.014375878, 35.503332658 ], [ 137.014063878, 35.503332658 ] ] ] } },
{ "type": "Feature", "properties": { "A31a_401": "8505090072", "A31a_402": "川浦川", "A31a_403": "21", "A31a_404": "岐阜県", "A31a_405": 2 }, "geometry": { "type": "Polygon", "coordinates": [ [ [ 136.965938735, 35.48416665 ], [ 136.965625734, 35.48416665 ], [ 136.965313733, 35.48416665 ], [ 136.965313733, 35.48437465 ], [ 136.965000732, 35.48437465 ], [ 136.965000732, 35.48458265 ], [ 136.965313733, 35.48458265 ], [ 136.965625734, 35.48458265 ], [ 136.965938735, 35.48458265 ], [ 136.966250736, 35.48458265 ], [ 136.966563737, 35.48458265 ], [ 136.966875738, 35.48458265 ], [ 136.967188738, 35.484582649 ], [ 136.967188739, 35.48479165 ], [ 136.967500739, 35.48479165 ], [ 136.96781374, 35.484791649 ], [ 136.96781374, 35.48499965 ], [ 136.968125741, 35.484999649 ], [ 136.968125741, 35.48520765 ], [ 136.968438742, 35.48520765 ], [ 136.968750743, 35.485207649 ], [ 136.968750743, 35.48541665 ], [ 136.969063744, 35.485416649 ], [ 136.969375745, 35.485416649 ], [ 136.969688746, 35.485416649 ], [ 136.969688746, 35.485624649 ], [ 136.970000747, 35.485624649 ], [ 136.970313748, 35.485624649 ], [ 136.970313748, 35.485832649 ], [ 136.970625749, 35.485832649 ], [ 136.97093875, 35.485832649 ], [ 136.97093875, 35.486041649 ], [ 136.971250751, 35.486041649 ], [ 136.971563752, 35.486041649 ], [ 136.971563752, 35.486249649 ], [ 136.971875753, 35.486249649 ], [ 136.971875753, 35.486457649 ], [ 136.972188754, 35.486457649 ], [ 136.972500755, 35.486457649 ], [ 136.972500755, 35.486666649 ], [ 136.972813756, 35.486666649 ], [ 136.972813757, 35.486874649 ], [ 136.973125758, 35.486874649 ], [ 136.973438758, 35.486874649 ], [ 136.973750759, 35.486874649 ], [ 136.97406376, 35.486874648 ], [ 136.974063761, 35.487082649 ], [ 136.974375761, 35.487082649 ], [ 136.974688762, 35.487082648 ], [ 136.975000763, 35.487082648 ], [ 136.975000764, 35.487291648 ], [ 136.975313764, 35.487291648 ], [ 136.975625765, 35.487291648 ], [ 136.975938766, 35.487291649 ], [ 136.976250766, 35.487291649 ], [ 136.976250767, 35.487499649 ], [ 136.976563767, 35.487499649 ], [ 136.976875768, 35.487499649 ], [ 136.977188769, 35.487499649 ], [ 136.977500769, 35.487499649 ], [ 136.97781377, 35.487499649 ], [ 136.978125771, 35.487499649 ], [ 136.978125771, 35.487291649 ], [ 136.97781377, 35.487291649 ], [ 136.977500769, 35.487291649 ], [ 136.977188768, 35.487291649 ], [ 136.977188768, 35.487082648 ], [ 136.976875767, 35.487082648 ], [ 136.976563767, 35.487082648 ], [ 136.976250766, 35.487082648 ], [ 136.975938765, 35.487082648 ], [ 136.975938765, 35.486874648 ], [ 136.975625764, 35.486874648 ], [ 136.975313764, 35.486874648 ], [ 136.975000763, 35.486874648 ], [ 136.975000763, 35.486666648 ], [ 136.974688762, 35.486666648 ], [ 136.974375761, 35.486666648 ], [ 136.97406376, 35.486666648 ], [ 136.973750759, 35.486666648 ], [ 136.973750759, 35.486457648 ], [ 136.973438758, 35.486457648 ], [ 136.973125757, 35.486457649 ], [ 136.973125757, 35.486249648 ], [ 136.972813756, 35.486249649 ], [ 136.972500755, 35.486249649 ], [ 136.972500755, 35.486041648 ], [ 136.972188754, 35.486041649 ], [ 136.971875753, 35.486041649 ], [ 136.971875753, 35.485832649 ], [ 136.971563752, 35.485832649 ], [ 136.971563752, 35.485624648 ], [ 136.971250751, 35.485624649 ], [ 136.97125075, 35.485416648 ], [ 136.97093875, 35.485416649 ], [ 136.970625749, 35.485416649 ], [ 136.970625749, 35.485207648 ], [ 136.970313748, 35.485207649 ], [ 136.970000747, 35.485207649 ], [ 136.969688746, 35.485207649 ], [ 136.969375745, 35.485207649 ], [ 136.969375745, 35.484999649 ], [ 136.969063744, 35.484999649 ], [ 136.968750743, 35.484999649 ], [ 136.968750743, 35.484791649 ], [ 136.968438742, 35.484791649 ], [ 136.968125741, 35.484791649 ], [ 136.968125741, 35.484582649 ], [ 136.96781374, 35.484582649 ], [ 136.967500739, 35.484582649 ], [ 136.967500739, 35.484374649 ], [ 136.967188738, 35.484374649 ], [ 136.966875737, 35.484374649 ], [ 136.966563737, 35.484374649 ], [ 136.966250736, 35.48437465 ], [ 136.966250736, 35.484166649 ], [ 136.965938735, 35.48416665 ] ] ] } },
{ "type": "Feature", "properties": { "A31a_401": "8505090072", "A31a_402": "川浦川", "A31a_403": "21", "A31a_404": "岐阜県", "A31a_405": 2 }, "geometry": { "type": "Polygon", "coordinates": [ [ [ 136.978125771, 35.487499649 ], [ 136.978125771, 35.487707649 ], [ 136.978438772, 35.487707649 ], [ 136.978750773, 35.487707649 ], [ 136.978750772, 35.487499649 ], [ 136.978438772, 35.487499649 ], [ 136.978125771, 35.487499649 ] ] ] } },
{ "type": "Feature", "properties": { "A31a_401": "8505090072", "A31a_402": "川浦川", "A31a_403": "21", "A31a_404": "岐阜県", "A31a_405": 2 }, "geometry": { "type": "Polygon", "coordinates": [ [ [ 136.992188809, 35.492082654 ], [ 136.99218881, 35.492291654 ], [ 136.99218881, 35.492499654 ], [ 136.992500811, 35.492499654 ], [ 136.992500812, 35.492707654 ], [ 136.992813812, 35.492707654 ], [ 136.992813813, 35.492916654 ], [ 136.993125813, 35.492916654 ], [ 136.993125814, 35.493124654 ], [ 136.993438814, 35.493124654 ], [ 136.993438815, 35.493332654 ], [ 136.993750816, 35.493332654 ], [ 136.993750816, 35.493541654 ], [ 136.994063817, 35.493541655 ], [ 136.994063817, 35.493749655 ], [ 136.994063818, 35.493957655 ], [ 136.994375818, 35.493957655 ], [ 136.994375819, 35.494166655 ], [ 136.99468882, 35.494166655 ], [ 136.99500082, 35.494166655 ], [ 136.995313821, 35.494166655 ], [ 136.995313821, 35.494374655 ], [ 136.995625822, 35.494374655 ], [ 136.995938823, 35.494374655 ], [ 136.995938823, 35.494582655 ], [ 136.996250824, 35.494582655 ], [ 136.996563824, 35.494582655 ], [ 136.996563824, 35.494374655 ], [ 136.996875824, 35.494374655 ], [ 136.996875824, 35.494166655 ], [ 136.997188824, 35.494166655 ], [ 136.997188824, 35.493957655 ], [ 136.997500824, 35.493957655 ], [ 136.997500824, 35.493749655 ], [ 136.997813824, 35.493749655 ], [ 136.997813824, 35.493541655 ], [ 136.998125824, 35.493541655 ], [ 136.998125824, 35.493332655 ], [ 136.998438824, 35.493332655 ], [ 136.998438824, 35.493124655 ], [ 136.998750824, 35.493124655 ], [ 136.998750824, 35.492916655 ], [ 136.999063824, 35.492916655 ], [ 136.999063824, 35.492707655 ], [ 136.998750823, 35.492707655 ], [ 136.998438822, 35.492707655 ], [ 136.998438823, 35.492916655 ], [ 136.998125823, 35.492916655 ], [ 136.998125823, 35.493124655 ], [ 136.997813823, 35.493124655 ], [ 136.997813823, 35.493332655 ], [ 136.997500823, 35.493332655 ], [ 136.997500823, 35.493541655 ], [ 136.997188823, 35.493541655 ], [ 136.997188823, 35.493749655 ], [ 136.996875823, 35.493749655 ], [ 136.996875823, 35.493957655 ], [ 136.996563823, 35.493957655 ], [ 136.996250822, 35.493957655 ], [ 136.995938821, 35.493957655 ], [ 136.995625821, 35.493957655 ], [ 136.99562582, 35.493749655 ], [ 136.99531382, 35.493749655 ], [ 136.995000819, 35.493749655 ], [ 136.994688818, 35.493749655 ], [ 136.994375818, 35.493749655 ], [ 136.994375817, 35.493541655 ], [ 136.994375817, 35.493332655 ], [ 136.994375816, 35.493124655 ], [ 136.994063816, 35.493124654 ], [ 136.994063815, 35.492916654 ], [ 136.994063814, 35.492707654 ], [ 136.993750814, 35.492707654 ], [ 136.993438813, 35.492707654 ], [ 136.993438813, 35.492499654 ], [ 136.993125812, 35.492499654 ], [ 136.992813812, 35.492499654 ], [ 136.992813811, 35.492291654 ], [ 136.992500811, 35.492291654 ], [ 136.99250081, 35.492082654 ], [ 136.992188809, 35.492082654 ] ] ] } },
{ "type": "Feature", "properties": { "A31a_401": "8505090072", "A31a_402": "川浦川", "A31a_403": "21", "A31a_404": "岐阜県", "A31a_405": 2 }, "geometry": { "type": "Polygon", "coordinates": [ [ [ 136.99468882, 35.494374655 ], [ 136.994688821, 35.494582655 ], [ 136.995000821, 35.494582655 ], [ 136.995000821, 35.494374655 ], [ 136.99468882, 35.494374655 ] ] ] } },
{ "type": "Feature", "properties": { "A31a_401": "8505090072", "A31a_402": "川浦川", "A31a_403": "21", "A31a_404": "岐阜県", "A31a_405": 2 }, "geometry": { "type": "Polygon", "coordinates": [ [ [ 136.995000821, 35.494582655 ], [ 136.995000822, 35.494791655 ], [ 136.995313822, 35.494791655 ], [ 136.995313823, 35.494999655 ], [ 136.995625824, 35.494999655 ], [ 136.995938824, 35.494999655 ], [ 136.995938825, 35.495207655 ], [ 136.996250825, 35.495207655 ], [ 136.996563826, 35.495207655 ], [ 136.996563826, 35.494999655 ], [ 136.996875826, 35.494999655 ], [ 136.996875826, 35.494791655 ], [ 136.996563825, 35.494791655 ], [ 136.996250824, 35.494791655 ], [ 136.995938824, 35.494791655 ], [ 136.995938823, 35.494582655 ], [ 136.995625823, 35.494582655 ], [ 136.995313822, 35.494582655 ], [ 136.995000821, 35.494582655 ] ] ] } },
{ "type": "Feature", "properties": { "A31a_401": "8505090072", "A31a_402": "川浦川", "A31a_403": "21", "A31a_404": "岐阜県", "A31a_405": 2 }, "geometry": { "type": "Polygon", "coordinates": [ [ [ 136.965000732, 35.483124649 ], [ 136.965000732, 35.483332649 ], [ 136.965000732, 35.483541649 ], [ 136.965000732, 35.483749649 ], [ 136.965313733, 35.483749649 ], [ 136.965625734, 35.483749649 ], [ 136.965938734, 35.483749649 ], [ 136.966250735, 35.483749649 ], [ 136.966563736, 35.483749649 ], [ 136.966875737, 35.483749649 ], [ 136.967188738, 35.483749648 ], [ 136.967500739, 35.483749648 ], [ 136.967500739, 35.483957649 ], [ 136.96781374, 35.483957648 ], [ 136.96812574, 35.483957648 ], [ 136.968438741, 35.483957648 ], [ 136.968438742, 35.484166648 ], [ 136.968750742, 35.484166648 ], [ 136.969063743, 35.484166648 ], [ 136.969063743, 35.484374648 ], [ 136.969375744, 35.484374648 ], [ 136.969688745, 35.484374648 ], [ 136.969688745, 35.484582648 ], [ 136.970000746, 35.484582648 ], [ 136.970313747, 35.484582648 ], [ 136.970625748, 35.484582648 ], [ 136.970625748, 35.484791648 ], [ 136.970938749, 35.484791648 ], [ 136.97125075, 35.484791648 ], [ 136.97125075, 35.484999648 ], [ 136.971563751, 35.484999648 ], [ 136.971563751, 35.485207648 ], [ 136.971875752, 35.485207648 ], [ 136.971875752, 35.485416648 ], [ 136.972188753, 35.485416648 ], [ 136.972188753, 35.485624648 ], [ 136.972500754, 35.485624648 ], [ 136.972813755, 35.485624648 ], [ 136.972813755, 35.485832648 ], [ 136.973125756, 35.485832648 ], [ 136.973125757, 35.486041648 ], [ 136.973438757, 35.486041648 ], [ 136.973750758, 35.486041648 ], [ 136.973750759, 35.486249648 ], [ 136.97406376, 35.486249648 ], [ 136.97437576, 35.486249648 ], [ 136.974688761, 35.486249648 ], [ 136.974688762, 35.486457648 ], [ 136.975000762, 35.486457648 ], [ 136.975313763, 35.486457648 ], [ 136.975625764, 35.486457648 ], [ 136.975938765, 35.486457648 ], [ 136.976250765, 35.486457648 ], [ 136.976563766, 35.486457648 ], [ 136.976563766, 35.486666648 ], [ 136.976875767, 35.486666648 ], [ 136.977188768, 35.486666648 ], [ 136.977500768, 35.486666648 ], [ 136.977813769, 35.486666648 ], [ 136.977813769, 35.486874648 ], [ 136.97812577, 35.486874648 ], [ 136.978438771, 35.486874648 ], [ 136.978438771, 35.487082649 ], [ 136.978750772, 35.487082649 ], [ 136.979063772, 35.487082649 ], [ 136.979063773, 35.487291649 ], [ 136.979375773, 35.487291649 ], [ 136.979375774, 35.487499649 ], [ 136.979688774, 35.487499649 ], [ 136.980000775, 35.487499649 ], [ 136.980000775, 35.487707649 ], [ 136.980313776, 35.487707649 ], [ 136.980625777, 35.487707649 ], [ 136.980625777, 35.48791665 ], [ 136.980938778, 35.48791665 ], [ 136.981250778, 35.48791665 ], [ 136.981250779, 35.48812465 ], [ 136.98156378, 35.48812465 ], [ 136.98187578, 35.48812465 ], [ 136.981875781, 35.48833265 ], [ 136.982188781, 35.48833265 ], [ 136.982188782, 35.48854165 ], [ 136.982500782, 35.48854165 ], [ 136.982813783, 35.48854165 ], [ 136.982813783, 35.48874965 ], [ 136.983125784, 35.48874965 ], [ 136.983438785, 35.488749651 ], [ 136.983438785, 35.488957651 ], [ 136.983750786, 35.488957651 ], [ 136.983750786, 35.489166651 ], [ 136.984063787, 35.489166651 ], [ 136.984063787, 35.489374651 ], [ 136.984375788, 35.489374651 ], [ 136.984375789, 35.489582651 ], [ 136.984688789, 35.489582651 ], [ 136.98468879, 35.489791651 ], [ 136.98500079, 35.489791651 ], [ 136.985000791, 35.489999652 ], [ 136.985313792, 35.489999652 ], [ 136.985625792, 35.489999652 ], [ 136.985625793, 35.490207652 ], [ 136.985938793, 35.490207652 ], [ 136.986250794, 35.490207652 ], [ 136.986563795, 35.490207652 ], [ 136.986563795, 35.490416652 ], [ 136.986875796, 35.490416652 ], [ 136.987188797, 35.490416652 ], [ 136.987188797, 35.490624652 ], [ 136.987500798, 35.490624652 ], [ 136.987813798, 35.490624652 ], [ 136.988125799, 35.490624652 ], [ 136.9884388, 35.490624652 ], [ 136.9884388, 35.490832652 ], [ 136.9887508, 35.490832653 ], [ 136.9887508, 35.490624652 ], [ 136.989063801, 35.490624652 ], [ 136.989375801, 35.490624653 ], [ 136.989375801, 35.490416652 ], [ 136.989688801, 35.490416653 ], [ 136.990000802, 35.490416653 ], [ 136.990313802, 35.490416653 ], [ 136.990313803, 35.490624653 ], [ 136.990625803, 35.490624653 ], [ 136.990938804, 35.490624653 ], [ 136.990938804, 35.490832653 ], [ 136.991250805, 35.490832653 ], [ 136.991250805, 35.491041653 ], [ 136.991563806, 35.491041653 ], [ 136.991563806, 35.491249653 ], [ 136.991875807, 35.491249654 ], [ 136.991875807, 35.491457654 ], [ 136.991875808, 35.491666654 ], [ 136.991875808, 35.491874654 ], [ 136.991875809, 35.492082654 ], [ 136.992188809, 35.492082654 ], [ 136.992188809, 35.491874654 ], [ 136.992188808, 35.491666654 ], [ 136.992188808, 35.491457654 ], [ 136.992188807, 35.491249654 ], [ 136.992188807, 35.491041653 ], [ 136.992188806, 35.490832653 ], [ 136.991875806, 35.490832653 ], [ 136.991875805, 35.490624653 ], [ 136.991875805, 35.490416653 ], [ 136.991563804, 35.490416653 ], [ 136.991563804, 35.490207653 ], [ 136.991250803, 35.490207653 ], [ 136.990938803, 35.490207653 ], [ 136.990938802, 35.489999653 ], [ 136.990625802, 35.489999653 ], [ 136.990313801, 35.489999652 ], [ 136.990313801, 35.489791652 ], [ 136.9900008, 35.489791652 ], [ 136.990000801, 35.489999652 ], [ 136.9896888, 35.489999652 ], [ 136.9893758, 35.489999652 ], [ 136.989063799, 35.489999652 ], [ 136.9890638, 35.490207652 ], [ 136.988750799, 35.490207652 ], [ 136.988438799, 35.490207652 ], [ 136.988438798, 35.489999652 ], [ 136.988125798, 35.489999652 ], [ 136.987813797, 35.489999652 ], [ 136.987500797, 35.489999652 ], [ 136.987188796, 35.489999652 ], [ 136.987188796, 35.489791652 ], [ 136.986875795, 35.489791651 ], [ 136.986563794, 35.489791651 ], [ 136.986250793, 35.489791651 ], [ 136.985938793, 35.489791651 ], [ 136.985938792, 35.489582651 ], [ 136.985625791, 35.489582651 ], [ 136.985313791, 35.489582651 ], [ 136.98531379, 35.489374651 ], [ 136.98500079, 35.489374651 ], [ 136.985000789, 35.489166651 ], [ 136.984688789, 35.489166651 ], [ 136.984688788, 35.488957651 ], [ 136.984375787, 35.488957651 ], [ 136.984375787, 35.488749651 ], [ 136.984063786, 35.488749651 ], [ 136.984063786, 35.48854165 ], [ 136.983750785, 35.48854165 ], [ 136.983438784, 35.48854165 ], [ 136.983438784, 35.48833265 ], [ 136.983125783, 35.48833265 ], [ 136.982813783, 35.48833265 ], [ 136.982813782, 35.48812465 ], [ 136.982500782, 35.48812465 ], [ 136.982188781, 35.48812465 ], [ 136.982188781, 35.48791665 ], [ 136.98187578, 35.48791665 ], [ 136.981563779, 35.48791665 ], [ 136.981563779, 35.48770765 ], [ 136.981250778, 35.487707649 ], [ 136.981250778, 35.487499649 ], [ 136.980938777, 35.487499649 ], [ 136.980625776, 35.487499649 ], [ 136.980625776, 35.487291649 ], [ 136.980313775, 35.487291649 ], [ 136.980000775, 35.487291649 ], [ 136.980000774, 35.487082649 ], [ 136.979688774, 35.487082649 ], [ 136.979375773, 35.487082649 ], [ 136.979375773, 35.486874649 ], [ 136.979063772, 35.486874649 ], [ 136.978750771, 35.486874648 ], [ 136.978750771, 35.486666648 ], [ 136.97843877, 35.486666648 ], [ 136.97812577, 35.486666648 ], [ 136.978125769, 35.486457648 ], [ 136.977813769, 35.486457648 ], [ 136.977500768, 35.486457648 ], [ 136.977188767, 35.486457648 ], [ 136.977188767, 35.486249648 ], [ 136.976875766, 35.486249648 ], [ 136.976563766, 35.486249648 ], [ 136.976250765, 35.486249648 ], [ 136.975938764, 35.486249647 ], [ 136.975938764, 35.486041647 ], [ 136.975625763, 35.486041647 ], [ 136.975313763, 35.486041647 ], [ 136.975000762, 35.486041647 ], [ 136.974688761, 35.486041647 ], [ 136.97437576, 35.486041647 ], [ 136.97437576, 35.485832647 ], [ 136.974063759, 35.485832647 ], [ 136.973750758, 35.485832648 ], [ 136.973750758, 35.485624647 ], [ 136.973438757, 35.485624648 ], [ 136.973125756, 35.485624648 ], [ 136.973125756, 35.485416647 ], [ 136.972813755, 35.485416648 ], [ 136.972500754, 35.485416648 ], [ 136.972500754, 35.485207648 ], [ 136.972188753, 35.485207648 ], [ 136.972188753, 35.484999647 ], [ 136.971875752, 35.484999648 ], [ 136.971875752, 35.484791647 ], [ 136.971563751, 35.484791648 ], [ 136.97156375, 35.484582647 ], [ 136.97125075, 35.484582647 ], [ 136.970938749, 35.484582648 ], [ 136.970938749, 35.484374647 ], [ 136.970625748, 35.484374648 ], [ 136.970313747, 35.484374648 ], [ 136.970313747, 35.484166647 ], [ 136.970313746, 35.483957647 ], [ 136.970000746, 35.483957647 ], [ 136.970000745, 35.483749647 ], [ 136.969688745, 35.483749647 ], [ 136.969375744, 35.483749647 ], [ 136.969375744, 35.483541647 ], [ 136.969063743, 35.483541647 ], [ 136.968750742, 35.483541647 ], [ 136.968438741, 35.483541648 ], [ 136.968438741, 35.483332647 ], [ 136.96812574, 35.483332647 ], [ 136.967813739, 35.483332648 ], [ 136.967500738, 35.483332648 ], [ 136.967188738, 35.483332648 ], [ 136.966875737, 35.483332648 ], [ 136.966875737, 35.483124648 ], [ 136.966563736, 35.483124648 ], [ 136.966250735, 35.483124648 ], [ 136.965938734, 35.483124648 ], [ 136.965625733, 35.483124648 ], [ 136.965313732, 35.483124648 ], [ 136.965000732, 35.483124649 ] ] ] } },
{ "type": "Feature", "properties": { "A31a_401": "8505090072", "A31a_402": "川浦川", "A31a_403": "21", "A31a_404": "岐阜県", "A31a_405": 2 }, "geometry": { "type": "Polygon", "coordinates": [ [ [ 136.978750773, 35.487707649 ], [ 136.978750773, 35.487916649 ], [ 136.979063774, 35.487916649 ], [ 136.979063774, 35.48812465 ], [ 136.979375775, 35.48812465 ], [ 136.979375775, 35.48833265 ], [ 136.979688776, 35.48833265 ], [ 136.980000776, 35.48833265 ], [ 136.980000777, 35.48854165 ], [ 136.980313777, 35.48854165 ], [ 136.980625778, 35.48854165 ], [ 136.980625778, 35.48874965 ], [ 136.980938779, 35.48874965 ], [ 136.98125078, 35.48874965 ], [ 136.98125078, 35.488957651 ], [ 136.981563781, 35.488957651 ], [ 136.981563781, 35.489166651 ], [ 136.981875782, 35.489166651 ], [ 136.982188783, 35.489166651 ], [ 136.982188783, 35.489374651 ], [ 136.982500784, 35.489374651 ], [ 136.982813785, 35.489374651 ], [ 136.982813785, 35.489582651 ], [ 136.983125786, 35.489582651 ], [ 136.983125786, 35.489791651 ], [ 136.983438787, 35.489791651 ], [ 136.983438787, 35.489999651 ], [ 136.983750788, 35.489999652 ], [ 136.983750788, 35.490207652 ], [ 136.984063789, 35.490207652 ], [ 136.984063789, 35.490416652 ], [ 136.98437579, 35.490416652 ], [ 136.98437579, 35.490624652 ], [ 136.984688791, 35.490624652 ], [ 136.984688792, 35.490832652 ], [ 136.985000792, 35.490832652 ], [ 136.985313793, 35.490832652 ], [ 136.985625794, 35.490832652 ], [ 136.985625794, 35.491041652 ], [ 136.985938795, 35.491041652 ], [ 136.986250796, 35.491041652 ], [ 136.986250796, 35.491249652 ], [ 136.986563797, 35.491249652 ], [ 136.986875798, 35.491249652 ], [ 136.987188798, 35.491249652 ], [ 136.987188799, 35.491457653 ], [ 136.9875008, 35.491457653 ], [ 136.9878138, 35.491457653 ], [ 136.988125801, 35.491457653 ], [ 136.988438801, 35.491457653 ], [ 136.988750802, 35.491457653 ], [ 136.989063802, 35.491457653 ], [ 136.989375803, 35.491457653 ], [ 136.989375802, 35.491249653 ], [ 136.989688803, 35.491249653 ], [ 136.990000804, 35.491249653 ], [ 136.990313804, 35.491249653 ], [ 136.990625805, 35.491249653 ], [ 136.990625805, 35.491457653 ], [ 136.990938806, 35.491457653 ], [ 136.990938806, 35.491666654 ], [ 136.991250807, 35.491666654 ], [ 136.991250807, 35.491874654 ], [ 136.991250808, 35.492082654 ], [ 136.991250808, 35.492291654 ], [ 136.991563809, 35.492291654 ], [ 136.991563809, 35.492499654 ], [ 136.99156381, 35.492707654 ], [ 136.99187581, 35.492707654 ], [ 136.991875811, 35.492916654 ], [ 136.992188812, 35.492916654 ], [ 136.992188812, 35.493124654 ], [ 136.992500813, 35.493124654 ], [ 136.992500813, 35.493332654 ], [ 136.992500814, 35.493541654 ], [ 136.992813814, 35.493541654 ], [ 136.992813815, 35.493749654 ], [ 136.993125815, 35.493749654 ], [ 136.993125816, 35.493957654 ], [ 136.993438817, 35.493957654 ], [ 136.993438817, 35.494166655 ], [ 136.993750818, 35.494166655 ], [ 136.993750818, 35.494374655 ], [ 136.994063819, 35.494374655 ], [ 136.99437582, 35.494374655 ], [ 136.994375819, 35.494166655 ], [ 136.994063818, 35.494166655 ], [ 136.994063818, 35.493957655 ], [ 136.993750817, 35.493957655 ], [ 136.993750817, 35.493749655 ], [ 136.993438816, 35.493749654 ], [ 136.993438816, 35.493541654 ], [ 136.993438815, 35.493332654 ], [ 136.993125814, 35.493332654 ], [ 136.993125814, 35.493124654 ], [ 136.992813813, 35.493124654 ], [ 136.992813813, 35.492916654 ], [ 136.992500812, 35.492916654 ], [ 136.992500812, 35.492707654 ], [ 136.992188811, 35.492707654 ], [ 136.99218881, 35.492499654 ], [ 136.99187581, 35.492499654 ], [ 136.991875809, 35.492291654 ], [ 136.991875809, 35.492082654 ], [ 136.991563808, 35.492082654 ], [ 136.991563808, 35.491874654 ], [ 136.991563807, 35.491666654 ], [ 136.991563807, 35.491457654 ], [ 136.991250806, 35.491457653 ], [ 136.991250806, 35.491249653 ], [ 136.990938805, 35.491249653 ], [ 136.990938805, 35.491041653 ], [ 136.990625804, 35.491041653 ], [ 136.990625804, 35.490832653 ], [ 136.990313803, 35.490832653 ], [ 136.990000803, 35.490832653 ], [ 136.989688802, 35.490832653 ], [ 136.989688803, 35.491041653 ], [ 136.989375802, 35.491041653 ], [ 136.989063801, 35.491041653 ], [ 136.988750801, 35.491041653 ], [ 136.9884388, 35.491041653 ], [ 136.9881258, 35.491041653 ], [ 136.987813799, 35.491041652 ], [ 136.987500799, 35.491041652 ], [ 136.987500798, 35.490832652 ], [ 136.987188798, 35.490832652 ], [ 136.986875797, 35.490832652 ], [ 136.986875796, 35.490624652 ], [ 136.986563796, 35.490624652 ], [ 136.986250795, 35.490624652 ], [ 136.985938794, 35.490624652 ], [ 136.985938794, 35.490416652 ], [ 136.985625793, 35.490416652 ], [ 136.985313792, 35.490416652 ], [ 136.985000792, 35.490416652 ], [ 136.985000791, 35.490207652 ], [ 136.98468879, 35.490207652 ], [ 136.98468879, 35.489999652 ], [ 136.984375789, 35.489999652 ], [ 136.984375789, 35.489791651 ], [ 136.984063788, 35.489791651 ], [ 136.984063788, 35.489582651 ], [ 136.983750787, 35.489582651 ], [ 136.983750787, 35.489374651 ], [ 136.983438786, 35.489374651 ], [ 136.983438786, 35.489166651 ], [ 136.983125785, 35.489166651 ], [ 136.982813784, 35.489166651 ], [ 136.982500783, 35.489166651 ], [ 136.982500783, 35.488957651 ], [ 136.982188782, 35.488957651 ], [ 136.982188782, 35.48874965 ], [ 136.981875781, 35.48874965 ], [ 136.981563781, 35.48874965 ], [ 136.98156378, 35.48854165 ], [ 136.98125078, 35.48854165 ], [ 136.980938779, 35.48854165 ], [ 136.980938778, 35.48833265 ], [ 136.980625778, 35.48833265 ], [ 136.980313777, 35.48833265 ], [ 136.980313777, 35.48812465 ], [ 136.980000776, 35.48812465 ], [ 136.980000776, 35.48791665 ], [ 136.979688775, 35.487916649 ], [ 136.979375774, 35.487916649 ], [ 136.979375774, 35.487707649 ], [ 136.979063773, 35.487707649 ], [ 136.978750773, 35.487707649 ] ] ] } }
]
}
