{
"type": "FeatureCollection",
"name": "A31a-30-25_21_8505090104_20",
"crs": { "type": "name", "properties": { "name": "urn:ogc:def:crs:EPSG::6668" } },
"xy_coordinate_resolution": 1e-09,
"features": [
{ "type": "Feature", "properties": { "A31a_301": "8505090104", "A31a_302": "吉田川", "A31a_303": "21", "A31a_304": "岐阜県", "A31a_305": 1 }, "geometry": { "type": "Polygon", "coordinates": [ [ [ 136.951389623, 35.735555235 ], [ 136.951389623, 35.735777455 ], [ 136.951111823, 35.735777455 ], [ 136.951111823, 35.735999675 ], [ 136.950834023, 35.735999675 ], [ 136.950834023, 35.736221895 ], [ 136.950556323, 35.736221895 ], [ 136.950556323, 35.736444115 ], [ 136.950278523, 35.736444115 ], [ 136.950278523, 35.736666345 ], [ 136.950278523, 35.736888566 ], [ 136.950000723, 35.736888565 ], [ 136.949722923, 35.736888565 ], [ 136.949445122, 35.736888565 ], [ 136.949445123, 35.737110785 ], [ 136.949167422, 35.737110785 ], [ 136.949167423, 35.737333005 ], [ 136.949167423, 35.737555235 ], [ 136.948889623, 35.737555235 ], [ 136.948889623, 35.737777455 ], [ 136.948611823, 35.737777455 ], [ 136.948334022, 35.737777454 ], [ 136.948056322, 35.737777454 ], [ 136.948056322, 35.737999674 ], [ 136.948056323, 35.738221895 ], [ 136.948056323, 35.738444115 ], [ 136.948056323, 35.738666345 ], [ 136.947778523, 35.738666345 ], [ 136.947778523, 35.738888565 ], [ 136.947778523, 35.739110786 ], [ 136.947500723, 35.739110785 ], [ 136.947500723, 35.739333006 ], [ 136.947500724, 35.739555236 ], [ 136.947500724, 35.739777456 ], [ 136.947222924, 35.739777456 ], [ 136.947222924, 35.739999676 ], [ 136.947222924, 35.740221897 ], [ 136.947500724, 35.740221897 ], [ 136.947500725, 35.740444117 ], [ 136.947500725, 35.740666348 ], [ 136.947500725, 35.740888568 ], [ 136.947222925, 35.740888568 ], [ 136.947222925, 35.741110788 ], [ 136.947222926, 35.741333008 ], [ 136.947222926, 35.741555239 ], [ 136.947222926, 35.741777459 ], [ 136.947222926, 35.741999679 ], [ 136.947222927, 35.7422219 ], [ 136.947222927, 35.74244412 ], [ 136.947500727, 35.74244412 ], [ 136.947500728, 35.742666351 ], [ 136.947778528, 35.742666351 ], [ 136.947778527, 35.742444121 ], [ 136.947778527, 35.742221901 ], [ 136.948056327, 35.742221901 ], [ 136.948056327, 35.741999681 ], [ 136.948056327, 35.74177746 ], [ 136.948334027, 35.741777461 ], [ 136.948334027, 35.741555241 ], [ 136.948334026, 35.74133301 ], [ 136.948334026, 35.74111079 ], [ 136.948611826, 35.74111079 ], [ 136.948611826, 35.74088857 ], [ 136.948889626, 35.74088857 ], [ 136.948889626, 35.74066635 ], [ 136.948889626, 35.74044412 ], [ 136.949167426, 35.74044412 ], [ 136.949167426, 35.7402219 ], [ 136.949167425, 35.739999679 ], [ 136.949445126, 35.73999968 ], [ 136.949445125, 35.739777459 ], [ 136.949722926, 35.73977746 ], [ 136.949722925, 35.739555239 ], [ 136.950000726, 35.73955524 ], [ 136.950000725, 35.739333009 ], [ 136.950278526, 35.73933301 ], [ 136.950278525, 35.739110789 ], [ 136.950278525, 35.738888569 ], [ 136.950556325, 35.738888569 ], [ 136.950556325, 35.738666349 ], [ 136.950556325, 35.738444119 ], [ 136.950834025, 35.738444119 ], [ 136.950834025, 35.738221899 ], [ 136.950834025, 35.737999678 ], [ 136.951111825, 35.737999679 ], [ 136.951111825, 35.737777458 ], [ 136.951389625, 35.737777459 ], [ 136.951389625, 35.737555238 ], [ 136.951667425, 35.737555239 ], [ 136.951667425, 35.737333008 ], [ 136.951945125, 35.737333008 ], [ 136.951945125, 35.737110788 ], [ 136.952222925, 35.737110788 ], [ 136.952222925, 35.736888568 ], [ 136.952222925, 35.736666348 ], [ 136.952222925, 35.736444117 ], [ 136.952222924, 35.736221897 ], [ 136.951945124, 35.736221897 ], [ 136.951945124, 35.735999676 ], [ 136.951945124, 35.735777456 ], [ 136.951667424, 35.735777455 ], [ 136.951667423, 35.735555235 ], [ 136.951389623, 35.735555235 ] ], [ [ 136.948056324, 35.739333007 ], [ 136.948334024, 35.739333007 ], [ 136.948334024, 35.739555237 ], [ 136.948334025, 35.739777458 ], [ 136.948056324, 35.739777457 ], [ 136.948056324, 35.739555237 ], [ 136.948056324, 35.739333007 ] ] ] } },
{ "type": "Feature", "properties": { "A31a_301": "8505090104", "A31a_302": "吉田川", "A31a_303": "21", "A31a_304": "岐阜県", "A31a_305": 1 }, "geometry": { "type": "Polygon", "coordinates": [ [ [ 136.948334033, 35.746221907 ], [ 136.948334033, 35.746444127 ], [ 136.948334034, 35.746666357 ], [ 136.948334034, 35.746888577 ], [ 136.948334034, 35.747110798 ], [ 136.948611834, 35.747110798 ], [ 136.948611835, 35.747333019 ], [ 136.948334034, 35.747333018 ], [ 136.948056334, 35.747333018 ], [ 136.948056335, 35.747555248 ], [ 136.948334035, 35.747555248 ], [ 136.948611835, 35.747555249 ], [ 136.948889635, 35.747555249 ], [ 136.948889635, 35.747333019 ], [ 136.949167435, 35.747333019 ], [ 136.949167435, 35.747110799 ], [ 136.949167434, 35.746888579 ], [ 136.949167434, 35.746666359 ], [ 136.948889634, 35.746666358 ], [ 136.948889634, 35.746444128 ], [ 136.948611833, 35.746444127 ], [ 136.948611833, 35.746221907 ], [ 136.948334033, 35.746221907 ] ] ] } },
{ "type": "Feature", "properties": { "A31a_301": "8505090104", "A31a_302": "吉田川", "A31a_303": "21", "A31a_304": "岐阜県", "A31a_305": 1 }, "geometry": { "type": "Polygon", "coordinates": [ [ [ 136.948334035, 35.747777469 ], [ 136.948334035, 35.747999689 ], [ 136.948611836, 35.747999689 ], [ 136.948611835, 35.747777469 ], [ 136.948334035, 35.747777469 ] ] ] } },
{ "type": "Feature", "properties": { "A31a_301": "8505090104", "A31a_302": "吉田川", "A31a_303": "21", "A31a_304": "岐阜県", "A31a_305": 1 }, "geometry": { "type": "Polygon", "coordinates": [ [ [ 136.948611836, 35.747999689 ], [ 136.948611836, 35.74822191 ], [ 136.948889636, 35.74822191 ], [ 136.948889636, 35.74799969 ], [ 136.948611836, 35.747999689 ] ] ] } },
{ "type": "Feature", "properties": { "A31a_301": "8505090104", "A31a_302": "吉田川", "A31a_303": "21", "A31a_304": "岐阜県", "A31a_305": 1 }, "geometry": { "type": "Polygon", "coordinates": [ [ [ 136.947778528, 35.742666351 ], [ 136.947778528, 35.742888571 ], [ 136.947778528, 35.743110792 ], [ 136.947500728, 35.743110791 ], [ 136.947500728, 35.743333012 ], [ 136.947778529, 35.743333012 ], [ 136.947778529, 35.743555242 ], [ 136.947500729, 35.743555242 ], [ 136.947222929, 35.743555241 ], [ 136.947222929, 35.743777462 ], [ 136.947500729, 35.743777462 ], [ 136.947500729, 35.743999682 ], [ 136.94777853, 35.743999683 ], [ 136.94805633, 35.743999683 ], [ 136.94805633, 35.744221904 ], [ 136.94805633, 35.744444124 ], [ 136.948056331, 35.744666354 ], [ 136.948056331, 35.744888574 ], [ 136.948056331, 35.745110795 ], [ 136.948334031, 35.745110795 ], [ 136.948334032, 35.745333015 ], [ 136.948334032, 35.745555246 ], [ 136.948056332, 35.745555245 ], [ 136.948056332, 35.745777466 ], [ 136.948056332, 35.745999686 ], [ 136.948334033, 35.745999686 ], [ 136.948611833, 35.745999687 ], [ 136.948611832, 35.745777467 ], [ 136.948611832, 35.745555246 ], [ 136.948889632, 35.745555247 ], [ 136.949167432, 35.745555247 ], [ 136.949445133, 35.745555248 ], [ 136.949445133, 35.745777468 ], [ 136.949722933, 35.745777468 ], [ 136.949722933, 35.745999689 ], [ 136.949722934, 35.746221909 ], [ 136.949722934, 35.746444129 ], [ 136.950000734, 35.74644413 ], [ 136.950278534, 35.74644413 ], [ 136.950556334, 35.746444131 ], [ 136.950556335, 35.746666361 ], [ 136.950834035, 35.746666361 ], [ 136.950834035, 35.746888582 ], [ 136.951111835, 35.746888582 ], [ 136.951111835, 35.747110802 ], [ 136.950834035, 35.747110802 ], [ 136.950834036, 35.747333022 ], [ 136.951111836, 35.747333023 ], [ 136.951111836, 35.747555253 ], [ 136.951389636, 35.747555253 ], [ 136.951667436, 35.747555254 ], [ 136.951667436, 35.747777474 ], [ 136.951945137, 35.747777475 ], [ 136.951945137, 35.747999695 ], [ 136.952222937, 35.747999695 ], [ 136.952222937, 35.747777475 ], [ 136.952500737, 35.747777476 ], [ 136.952500737, 35.747999696 ], [ 136.952778537, 35.747999696 ], [ 136.953056337, 35.747999697 ], [ 136.953334037, 35.747999697 ], [ 136.953611837, 35.747999698 ], [ 136.953611838, 35.748221918 ], [ 136.953889638, 35.748221919 ], [ 136.953889638, 35.748444139 ], [ 136.954167438, 35.748444139 ], [ 136.954445138, 35.74844414 ], [ 136.954445138, 35.74822192 ], [ 136.954722938, 35.74822192 ], [ 136.955000738, 35.74822192 ], [ 136.955000738, 35.7479997 ], [ 136.954722938, 35.7479997 ], [ 136.954445138, 35.747999699 ], [ 136.954445137, 35.747777479 ], [ 136.954445137, 35.747555259 ], [ 136.954167437, 35.747555258 ], [ 136.954167437, 35.747333028 ], [ 136.954445137, 35.747333028 ], [ 136.954445137, 35.747110808 ], [ 136.954167437, 35.747110807 ], [ 136.954167436, 35.746888587 ], [ 136.953889636, 35.746888587 ], [ 136.953889636, 35.746666366 ], [ 136.953611836, 35.746666366 ], [ 136.953334036, 35.746666365 ], [ 136.953056336, 35.746666365 ], [ 136.952778536, 35.746666364 ], [ 136.952778535, 35.746444134 ], [ 136.952778535, 35.746221914 ], [ 136.952778535, 35.745999693 ], [ 136.952778535, 35.745777473 ], [ 136.952500734, 35.745777473 ], [ 136.952500734, 35.745555252 ], [ 136.952222934, 35.745555252 ], [ 136.952222934, 35.745333022 ], [ 136.951945134, 35.745333021 ], [ 136.951945133, 35.745110801 ], [ 136.951667433, 35.7451108 ], [ 136.951389633, 35.7451108 ], [ 136.951389633, 35.74488858 ], [ 136.951111833, 35.744888579 ], [ 136.951111832, 35.744666359 ], [ 136.950834032, 35.744666359 ], [ 136.950834032, 35.744444128 ], [ 136.950556332, 35.744444128 ], [ 136.950278532, 35.744444127 ], [ 136.950000731, 35.744444127 ], [ 136.949722931, 35.744444127 ], [ 136.949445131, 35.744444126 ], [ 136.949445131, 35.744221906 ], [ 136.949445131, 35.743999686 ], [ 136.94916743, 35.743999685 ], [ 136.94916743, 35.743777465 ], [ 136.94916743, 35.743555245 ], [ 136.94888963, 35.743555244 ], [ 136.948889629, 35.743333014 ], [ 136.948889629, 35.743110793 ], [ 136.948611829, 35.743110793 ], [ 136.948334029, 35.743110793 ], [ 136.948056328, 35.743110792 ], [ 136.948056328, 35.742888572 ], [ 136.948056328, 35.742666352 ], [ 136.947778528, 35.742666351 ] ] ] } },
{ "type": "Feature", "properties": { "A31a_301": "8505090104", "A31a_302": "吉田川", "A31a_303": "21", "A31a_304": "岐阜県", "A31a_305": 1 }, "geometry": { "type": "Polygon", "coordinates": [ [ [ 136.954167439, 35.749333031 ], [ 136.954167439, 35.749555261 ], [ 136.954445139, 35.749555262 ], [ 136.954722939, 35.749555262 ], [ 136.95500074, 35.749555263 ], [ 136.95500074, 35.749777483 ], [ 136.95527854, 35.749777483 ], [ 136.95555634, 35.749777484 ], [ 136.95555634, 35.749555264 ], [ 136.95527854, 35.749555263 ], [ 136.955278539, 35.749333033 ], [ 136.955000739, 35.749333032 ], [ 136.954722939, 35.749333032 ], [ 136.954445139, 35.749333031 ], [ 136.954167439, 35.749333031 ] ] ] } },
{ "type": "Feature", "properties": { "A31a_301": "8505090104", "A31a_302": "吉田川", "A31a_303": "21", "A31a_304": "岐阜県", "A31a_305": 1 }, "geometry": { "type": "Polygon", "coordinates": [ [ [ 136.955000738, 35.74822192 ], [ 136.955000738, 35.748444141 ], [ 136.955278538, 35.748444141 ], [ 136.955278538, 35.748221921 ], [ 136.955000738, 35.74822192 ] ] ] } },
{ "type": "Feature", "properties": { "A31a_301": "8505090104", "A31a_302": "吉田川", "A31a_303": "21", "A31a_304": "岐阜県", "A31a_305": 1 }, "geometry": { "type": "Polygon", "coordinates": [ [ [ 136.95555634, 35.749777484 ], [ 136.95555634, 35.749999704 ], [ 136.95583404, 35.749999705 ], [ 136.95583404, 35.749777484 ], [ 136.95555634, 35.749777484 ] ] ] } },
{ "type": "Feature", "properties": { "A31a_301": "8505090104", "A31a_302": "吉田川", "A31a_303": "21", "A31a_304": "岐阜県", "A31a_305": 1 }, "geometry": { "type": "Polygon", "coordinates": [ [ [ 136.955000737, 35.746888588 ], [ 136.955000737, 35.747110809 ], [ 136.954722937, 35.747110808 ], [ 136.954722937, 35.747333029 ], [ 136.954722937, 35.747555259 ], [ 136.955000737, 35.747555259 ], [ 136.955000738, 35.74777748 ], [ 136.955000738, 35.7479997 ], [ 136.955278538, 35.747999701 ], [ 136.955278538, 35.748221921 ], [ 136.955556338, 35.748221921 ], [ 136.955556339, 35.748444142 ], [ 136.955278538, 35.748444141 ], [ 136.955278539, 35.748666372 ], [ 136.955556339, 35.748666372 ], [ 136.955556339, 35.748888593 ], [ 136.955834039, 35.748888593 ], [ 136.956111839, 35.748888593 ], [ 136.956111839, 35.748666373 ], [ 136.955834039, 35.748666373 ], [ 136.955834039, 35.748444142 ], [ 136.956111839, 35.748444143 ], [ 136.956111839, 35.748666373 ], [ 136.956389639, 35.748666374 ], [ 136.956389639, 35.748888594 ], [ 136.956111839, 35.748888593 ], [ 136.956111839, 35.749110814 ], [ 136.956389639, 35.749110814 ], [ 136.95666744, 35.749110815 ], [ 136.95694514, 35.749110815 ], [ 136.95694514, 35.749333036 ], [ 136.95722294, 35.749333036 ], [ 136.95722294, 35.749555267 ], [ 136.95750074, 35.749555267 ], [ 136.95777854, 35.749555267 ], [ 136.95777854, 35.749777488 ], [ 136.95805634, 35.749777488 ], [ 136.958334041, 35.749777489 ], [ 136.958334041, 35.749999709 ], [ 136.958611841, 35.74999971 ], [ 136.958889641, 35.74999971 ], [ 136.959167441, 35.749999711 ], [ 136.959445141, 35.749999711 ], [ 136.959445141, 35.750221931 ], [ 136.959722941, 35.750221932 ], [ 136.959722941, 35.749999712 ], [ 136.959722941, 35.749777491 ], [ 136.960000741, 35.749777492 ], [ 136.960000741, 35.749999712 ], [ 136.960000741, 35.750221932 ], [ 136.960278541, 35.750221933 ], [ 136.960556342, 35.750221933 ], [ 136.960834042, 35.750221934 ], [ 136.961111842, 35.750221934 ], [ 136.961389642, 35.750221935 ], [ 136.961667442, 35.750221935 ], [ 136.961667442, 35.750444155 ], [ 136.961945142, 35.750444156 ], [ 136.961945142, 35.750666386 ], [ 136.962222942, 35.750666387 ], [ 136.962500743, 35.750666387 ], [ 136.962500743, 35.750888607 ], [ 136.962778543, 35.750888608 ], [ 136.962778543, 35.751110828 ], [ 136.963056344, 35.751110828 ], [ 136.963334044, 35.751110828 ], [ 136.963334044, 35.751333048 ], [ 136.963611844, 35.751333049 ], [ 136.963889644, 35.751333049 ], [ 136.963889644, 35.751110829 ], [ 136.963611844, 35.751110829 ], [ 136.963611844, 35.750888608 ], [ 136.963334043, 35.750888608 ], [ 136.963334043, 35.750666388 ], [ 136.963334043, 35.750444158 ], [ 136.963334043, 35.750221938 ], [ 136.963056342, 35.750221937 ], [ 136.963056342, 35.749999717 ], [ 136.962778542, 35.749999717 ], [ 136.962778542, 35.749777496 ], [ 136.962778542, 35.749555276 ], [ 136.962500741, 35.749555276 ], [ 136.962222941, 35.749555275 ], [ 136.961945141, 35.749555275 ], [ 136.961945141, 35.749333044 ], [ 136.961667441, 35.749333044 ], [ 136.961389641, 35.749333043 ], [ 136.961389641, 35.749110823 ], [ 136.961111841, 35.749110822 ], [ 136.960834041, 35.749110822 ], [ 136.96083404, 35.748888602 ], [ 136.96083404, 35.748666381 ], [ 136.96055634, 35.748666381 ], [ 136.96055634, 35.74844415 ], [ 136.96055634, 35.74822193 ], [ 136.96027854, 35.748221929 ], [ 136.96000074, 35.748221929 ], [ 136.96000074, 35.748444149 ], [ 136.95972294, 35.748444149 ], [ 136.95972294, 35.748221928 ], [ 136.95944514, 35.748221928 ], [ 136.959167439, 35.748221928 ], [ 136.958889639, 35.748221927 ], [ 136.958889639, 35.747999707 ], [ 136.958611839, 35.747999706 ], [ 136.958334039, 35.747999706 ], [ 136.958334039, 35.748221926 ], [ 136.958056339, 35.748221926 ], [ 136.958056339, 35.747999705 ], [ 136.957778539, 35.747999705 ], [ 136.957778539, 35.747777484 ], [ 136.957778538, 35.747555264 ], [ 136.957500738, 35.747555264 ], [ 136.957222938, 35.747555263 ], [ 136.957222938, 35.747333033 ], [ 136.956945138, 35.747333032 ], [ 136.956945138, 35.747110812 ], [ 136.956667438, 35.747110811 ], [ 136.956389637, 35.747110811 ], [ 136.956111837, 35.747110811 ], [ 136.956111837, 35.74688859 ], [ 136.955834037, 35.74688859 ], [ 136.955556337, 35.746888589 ], [ 136.955278537, 35.746888589 ], [ 136.955000737, 35.746888588 ] ] ] } },
{ "type": "Feature", "properties": { "A31a_301": "8505090104", "A31a_302": "吉田川", "A31a_303": "21", "A31a_304": "岐阜県", "A31a_305": 1 }, "geometry": { "type": "Polygon", "coordinates": [ [ [ 136.95611184, 35.749555265 ], [ 136.95611184, 35.749777485 ], [ 136.95611184, 35.749999705 ], [ 136.95638964, 35.749999706 ], [ 136.95638964, 35.749777485 ], [ 136.95666744, 35.749777486 ], [ 136.95694514, 35.749777486 ], [ 136.95694514, 35.749555266 ], [ 136.95666744, 35.749555266 ], [ 136.95638964, 35.749555265 ], [ 136.95611184, 35.749555265 ] ] ] } },
{ "type": "Feature", "properties": { "A31a_301": "8505090104", "A31a_302": "吉田川", "A31a_303": "21", "A31a_304": "岐阜県", "A31a_305": 1 }, "geometry": { "type": "Polygon", "coordinates": [ [ [ 136.955834041, 35.750444145 ], [ 136.955834041, 35.750666375 ], [ 136.956111841, 35.750666376 ], [ 136.956111841, 35.750444146 ], [ 136.955834041, 35.750444145 ] ] ] } },
{ "type": "Feature", "properties": { "A31a_301": "8505090104", "A31a_302": "吉田川", "A31a_303": "21", "A31a_304": "岐阜県", "A31a_305": 1 }, "geometry": { "type": "Polygon", "coordinates": [ [ [ 136.965834046, 35.751333051 ], [ 136.965834046, 35.751555281 ], [ 136.965556346, 35.751555281 ], [ 136.965278546, 35.751555281 ], [ 136.965000745, 35.751555281 ], [ 136.964722945, 35.75155528 ], [ 136.964722945, 35.7517775 ], [ 136.965000746, 35.751777501 ], [ 136.965000746, 35.751999721 ], [ 136.965278546, 35.751999721 ], [ 136.965556346, 35.751999722 ], [ 136.965556346, 35.752221942 ], [ 136.965834047, 35.752221942 ], [ 136.966111847, 35.752221943 ], [ 136.966389647, 35.752221943 ], [ 136.966389647, 35.751999723 ], [ 136.966111847, 35.751999722 ], [ 136.966111846, 35.751777502 ], [ 136.966389647, 35.751777502 ], [ 136.966389646, 35.751555282 ], [ 136.966667447, 35.751555282 ], [ 136.966667446, 35.751333052 ], [ 136.966389646, 35.751333052 ], [ 136.966111846, 35.751333052 ], [ 136.965834046, 35.751333051 ] ] ] } },
{ "type": "Feature", "properties": { "A31a_301": "8505090104", "A31a_302": "吉田川", "A31a_303": "21", "A31a_304": "岐阜県", "A31a_305": 1 }, "geometry": { "type": "Polygon", "coordinates": [ [ [ 136.966945146, 35.751110832 ], [ 136.966945147, 35.751333052 ], [ 136.967222947, 35.751333053 ], [ 136.967222947, 35.751110832 ], [ 136.966945146, 35.751110832 ] ] ] } },
{ "type": "Feature", "properties": { "A31a_301": "8505090104", "A31a_302": "吉田川", "A31a_303": "21", "A31a_304": "岐阜県", "A31a_305": 1 }, "geometry": { "type": "Polygon", "coordinates": [ [ [ 136.959722942, 35.750666382 ], [ 136.959722942, 35.750888602 ], [ 136.960000742, 35.750888603 ], [ 136.960000742, 35.750666383 ], [ 136.959722942, 35.750666382 ] ] ] } },
{ "type": "Feature", "properties": { "A31a_301": "8505090104", "A31a_302": "吉田川", "A31a_303": "21", "A31a_304": "岐阜県", "A31a_305": 1 }, "geometry": { "type": "Polygon", "coordinates": [ [ [ 136.960556342, 35.750666384 ], [ 136.960556342, 35.750888604 ], [ 136.960278542, 35.750888603 ], [ 136.960000742, 35.750888603 ], [ 136.960000743, 35.751110823 ], [ 136.960278543, 35.751110823 ], [ 136.960556343, 35.751110824 ], [ 136.960834043, 35.751110824 ], [ 136.960834043, 35.751333045 ], [ 136.961111843, 35.751333045 ], [ 136.961111843, 35.751555275 ], [ 136.961389644, 35.751555276 ], [ 136.961667444, 35.751555276 ], [ 136.961945144, 35.751555277 ], [ 136.961945144, 35.751777497 ], [ 136.962222944, 35.751777497 ], [ 136.962500744, 35.751777498 ], [ 136.962500744, 35.751999718 ], [ 136.962778545, 35.751999718 ], [ 136.963056345, 35.751999719 ], [ 136.963056345, 35.752221939 ], [ 136.963334045, 35.752221939 ], [ 136.963334045, 35.752444159 ], [ 136.963334046, 35.75266639 ], [ 136.963056346, 35.752666389 ], [ 136.963056346, 35.752888609 ], [ 136.963334046, 35.75288861 ], [ 136.963334046, 35.75311083 ], [ 136.963611846, 35.75311083 ], [ 136.963889646, 35.753110831 ], [ 136.963889646, 35.75288861 ], [ 136.964167446, 35.752888611 ], [ 136.964167447, 35.753110831 ], [ 136.964167447, 35.753333051 ], [ 136.964445147, 35.753333052 ], [ 136.964722947, 35.753333052 ], [ 136.965000747, 35.753333052 ], [ 136.965278547, 35.753333053 ], [ 136.965278548, 35.753555283 ], [ 136.965278548, 35.753777503 ], [ 136.965556348, 35.753777504 ], [ 136.965556348, 35.753999724 ], [ 136.965834048, 35.753999724 ], [ 136.965834048, 35.753777504 ], [ 136.966111848, 35.753777505 ], [ 136.966389648, 35.753777505 ], [ 136.966389648, 35.753999725 ], [ 136.966667448, 35.753999726 ], [ 136.966945149, 35.753999726 ], [ 136.966945149, 35.754221946 ], [ 136.967222949, 35.754221947 ], [ 136.967500749, 35.754221947 ], [ 136.967778549, 35.754221948 ], [ 136.967778549, 35.753999727 ], [ 136.968056349, 35.753999728 ], [ 136.968334049, 35.753999728 ], [ 136.968611849, 35.753999729 ], [ 136.968611849, 35.754221949 ], [ 136.968889649, 35.754221949 ], [ 136.969167449, 35.75422195 ], [ 136.96944515, 35.75422195 ], [ 136.96972295, 35.754221951 ], [ 136.97000075, 35.754221951 ], [ 136.97000075, 35.753999731 ], [ 136.96972295, 35.75399973 ], [ 136.969445149, 35.75399973 ], [ 136.969445149, 35.75377751 ], [ 136.969167449, 35.753777509 ], [ 136.968889649, 35.753777509 ], [ 136.968889649, 35.753555288 ], [ 136.968611849, 35.753555288 ], [ 136.968334049, 35.753555288 ], [ 136.968056349, 35.753555287 ], [ 136.967778549, 35.753555287 ], [ 136.967500748, 35.753555286 ], [ 136.967222948, 35.753555286 ], [ 136.967222948, 35.753333056 ], [ 136.966945148, 35.753333055 ], [ 136.966945148, 35.753110835 ], [ 136.966667448, 35.753110835 ], [ 136.966389648, 35.753110834 ], [ 136.966111848, 35.753110834 ], [ 136.965834047, 35.753110833 ], [ 136.965834047, 35.752888613 ], [ 136.965556347, 35.752888613 ], [ 136.965278547, 35.752888612 ], [ 136.965278547, 35.752666392 ], [ 136.965000747, 35.752666392 ], [ 136.965000746, 35.752444161 ], [ 136.964722946, 35.752444161 ], [ 136.964722946, 35.752221941 ], [ 136.964445146, 35.752221941 ], [ 136.964445146, 35.752444161 ], [ 136.964167446, 35.75244416 ], [ 136.963889646, 35.75244416 ], [ 136.963889645, 35.75222194 ], [ 136.963611845, 35.75222194 ], [ 136.963611845, 35.751999719 ], [ 136.963334045, 35.751999719 ], [ 136.963334045, 35.751777499 ], [ 136.963056344, 35.751777499 ], [ 136.962778544, 35.751777498 ], [ 136.962778544, 35.751555278 ], [ 136.962778544, 35.751333048 ], [ 136.962500743, 35.751333048 ], [ 136.962222943, 35.751333047 ], [ 136.961945143, 35.751333047 ], [ 136.961945143, 35.751110826 ], [ 136.961667443, 35.751110826 ], [ 136.961667443, 35.750888606 ], [ 136.961389643, 35.750888605 ], [ 136.961389642, 35.750666385 ], [ 136.961111842, 35.750666385 ], [ 136.960834042, 35.750666384 ], [ 136.960556342, 35.750666384 ] ] ] } },
{ "type": "Feature", "properties": { "A31a_301": "8505090104", "A31a_302": "吉田川", "A31a_303": "21", "A31a_304": "岐阜県", "A31a_305": 1 }, "geometry": { "type": "Polygon", "coordinates": [ [ [ 136.966945147, 35.751555283 ], [ 136.966945147, 35.751777503 ], [ 136.966667447, 35.751777503 ], [ 136.966667447, 35.751999723 ], [ 136.966667447, 35.752221943 ], [ 136.966667447, 35.752444164 ], [ 136.966945147, 35.752444164 ], [ 136.967222948, 35.752444164 ], [ 136.967222948, 35.752666395 ], [ 136.967500748, 35.752666395 ], [ 136.967778548, 35.752666395 ], [ 136.967778548, 35.752888616 ], [ 136.968056348, 35.752888616 ], [ 136.968334048, 35.752888616 ], [ 136.968334049, 35.753110837 ], [ 136.968611849, 35.753110837 ], [ 136.968889649, 35.753110838 ], [ 136.969167449, 35.753110838 ], [ 136.969167449, 35.752888618 ], [ 136.968889649, 35.752888617 ], [ 136.968889649, 35.752666397 ], [ 136.968889649, 35.752444166 ], [ 136.968611848, 35.752444166 ], [ 136.968334048, 35.752444166 ], [ 136.968334048, 35.752221945 ], [ 136.968056348, 35.752221945 ], [ 136.967778548, 35.752221945 ], [ 136.967500748, 35.752221944 ], [ 136.967500747, 35.751999724 ], [ 136.967500747, 35.751777504 ], [ 136.967222947, 35.751777503 ], [ 136.967222947, 35.751555283 ], [ 136.966945147, 35.751555283 ] ] ] } },
{ "type": "Feature", "properties": { "A31a_301": "8505090104", "A31a_302": "吉田川", "A31a_303": "21", "A31a_304": "岐阜県", "A31a_305": 1 }, "geometry": { "type": "Polygon", "coordinates": [ [ [ 136.969722949, 35.753333059 ], [ 136.969722949, 35.75355529 ], [ 136.97000075, 35.75355529 ], [ 136.970000749, 35.75333306 ], [ 136.969722949, 35.753333059 ] ] ] } },
{ "type": "Feature", "properties": { "A31a_301": "8505090104", "A31a_302": "吉田川", "A31a_303": "21", "A31a_304": "岐阜県", "A31a_305": 1 }, "geometry": { "type": "Polygon", "coordinates": [ [ [ 136.97111185, 35.754444173 ], [ 136.97111185, 35.754666404 ], [ 136.97138965, 35.754666404 ], [ 136.97166745, 35.754666405 ], [ 136.97166745, 35.754444174 ], [ 136.97138965, 35.754444174 ], [ 136.97111185, 35.754444173 ] ] ] } },
{ "type": "Feature", "properties": { "A31a_301": "8505090104", "A31a_302": "吉田川", "A31a_303": "21", "A31a_304": "岐阜県", "A31a_305": 1 }, "geometry": { "type": "Polygon", "coordinates": [ [ [ 136.97166745, 35.754666405 ], [ 136.97166745, 35.754888625 ], [ 136.97194515, 35.754888626 ], [ 136.97194515, 35.755110846 ], [ 136.97222295, 35.755110847 ], [ 136.972222951, 35.755333067 ], [ 136.972500751, 35.755333068 ], [ 136.972778551, 35.755333068 ], [ 136.972778551, 35.755555299 ], [ 136.973056351, 35.755555299 ], [ 136.973334051, 35.7555553 ], [ 136.973611851, 35.7555553 ], [ 136.973889651, 35.755555301 ], [ 136.973889651, 35.75533307 ], [ 136.973611851, 35.75533307 ], [ 136.973334051, 35.755333069 ], [ 136.973334051, 35.755110849 ], [ 136.973056351, 35.755110848 ], [ 136.973056351, 35.754888628 ], [ 136.972778551, 35.754888627 ], [ 136.972500751, 35.754888627 ], [ 136.972500751, 35.754666406 ], [ 136.97222295, 35.754666406 ], [ 136.97194515, 35.754666405 ], [ 136.97166745, 35.754666405 ] ] ] } },
{ "type": "Feature", "properties": { "A31a_301": "8505090104", "A31a_302": "吉田川", "A31a_303": "21", "A31a_304": "岐阜県", "A31a_305": 1 }, "geometry": { "type": "Polygon", "coordinates": [ [ [ 136.946667426, 35.741999679 ], [ 136.946667426, 35.742221899 ], [ 136.946945127, 35.742221899 ], [ 136.946945126, 35.741999679 ], [ 136.946667426, 35.741999679 ] ] ] } },
{ "type": "Feature", "properties": { "A31a_301": "8505090104", "A31a_302": "吉田川", "A31a_303": "21", "A31a_304": "岐阜県", "A31a_305": 1 }, "geometry": { "type": "Polygon", "coordinates": [ [ [ 136.946389626, 35.742444119 ], [ 136.946389627, 35.742666349 ], [ 136.946389627, 35.742888569 ], [ 136.946389627, 35.74311079 ], [ 136.946389628, 35.74333301 ], [ 136.946389628, 35.74355524 ], [ 136.946667428, 35.74355524 ], [ 136.946667429, 35.743777461 ], [ 136.946945129, 35.743777461 ], [ 136.946945128, 35.743555241 ], [ 136.946945128, 35.743333011 ], [ 136.946945128, 35.74311079 ], [ 136.946945127, 35.74288857 ], [ 136.946945127, 35.74266635 ], [ 136.946945127, 35.74244412 ], [ 136.946667427, 35.742444119 ], [ 136.946389626, 35.742444119 ] ] ] } },
{ "type": "Feature", "properties": { "A31a_301": "8505090104", "A31a_302": "吉田川", "A31a_303": "21", "A31a_304": "岐阜県", "A31a_305": 1 }, "geometry": { "type": "Polygon", "coordinates": [ [ [ 136.948611837, 35.748888581 ], [ 136.948611837, 35.749110801 ], [ 136.948889637, 35.749110801 ], [ 136.949167437, 35.749110802 ], [ 136.949445137, 35.749110802 ], [ 136.949445137, 35.748888582 ], [ 136.949167437, 35.748888582 ], [ 136.948889637, 35.748888581 ], [ 136.948611837, 35.748888581 ] ] ] } },
{ "type": "Feature", "properties": { "A31a_301": "8505090104", "A31a_302": "吉田川", "A31a_303": "21", "A31a_304": "岐阜県", "A31a_305": 1 }, "geometry": { "type": "Polygon", "coordinates": [ [ [ 136.97166745, 35.753999733 ], [ 136.97166745, 35.754221954 ], [ 136.97194515, 35.754221954 ], [ 136.97194515, 35.753999734 ], [ 136.97166745, 35.753999733 ] ] ] } },
{ "type": "Feature", "properties": { "A31a_301": "8505090104", "A31a_302": "吉田川", "A31a_303": "21", "A31a_304": "岐阜県", "A31a_305": 1 }, "geometry": { "type": "Polygon", "coordinates": [ [ [ 136.973056351, 35.754221956 ], [ 136.973056351, 35.754444177 ], [ 136.973056351, 35.754666407 ], [ 136.973334051, 35.754666407 ], [ 136.973334051, 35.754888628 ], [ 136.973611851, 35.754888628 ], [ 136.973611851, 35.755110849 ], [ 136.973889651, 35.75511085 ], [ 136.974167451, 35.75511085 ], [ 136.974167451, 35.754888629 ], [ 136.973889651, 35.754888629 ], [ 136.973889651, 35.754666408 ], [ 136.973611851, 35.754666408 ], [ 136.973611851, 35.754444177 ], [ 136.973334051, 35.754444177 ], [ 136.973334051, 35.754221956 ], [ 136.973056351, 35.754221956 ] ] ] } },
{ "type": "Feature", "properties": { "A31a_301": "8505090104", "A31a_302": "吉田川", "A31a_303": "21", "A31a_304": "岐阜県", "A31a_305": 1 }, "geometry": { "type": "Polygon", "coordinates": [ [ [ 136.97027855, 35.754221952 ], [ 136.97027855, 35.754444172 ], [ 136.97055635, 35.754444173 ], [ 136.97083405, 35.754444173 ], [ 136.97083405, 35.754221953 ], [ 136.97055635, 35.754221952 ], [ 136.97027855, 35.754221952 ] ] ] } },
{ "type": "Feature", "properties": { "A31a_301": "8505090104", "A31a_302": "吉田川", "A31a_303": "21", "A31a_304": "岐阜県", "A31a_305": 1 }, "geometry": { "type": "Polygon", "coordinates": [ [ [ 136.968056349, 35.754444169 ], [ 136.968056349, 35.754666399 ], [ 136.968334049, 35.754666399 ], [ 136.968334049, 35.754444169 ], [ 136.968056349, 35.754444169 ] ] ] } },
{ "type": "Feature", "properties": { "A31a_301": "8505090104", "A31a_302": "吉田川", "A31a_303": "21", "A31a_304": "岐阜県", "A31a_305": 1 }, "geometry": { "type": "Polygon", "coordinates": [ [ [ 136.958334041, 35.750221929 ], [ 136.958334041, 35.75044415 ], [ 136.958611841, 35.75044415 ], [ 136.958889641, 35.750444151 ], [ 136.959167442, 35.750444151 ], [ 136.959167441, 35.750221931 ], [ 136.958889641, 35.75022193 ], [ 136.958611841, 35.75022193 ], [ 136.958334041, 35.750221929 ] ] ] } },
{ "type": "Feature", "properties": { "A31a_301": "8505090104", "A31a_302": "吉田川", "A31a_303": "21", "A31a_304": "岐阜県", "A31a_305": 1 }, "geometry": { "type": "Polygon", "coordinates": [ [ [ 136.953334039, 35.749110809 ], [ 136.953334039, 35.749333029 ], [ 136.953611839, 35.74933303 ], [ 136.953611839, 35.74911081 ], [ 136.953334039, 35.749110809 ] ] ] } },
{ "type": "Feature", "properties": { "A31a_301": "8505090104", "A31a_302": "吉田川", "A31a_303": "21", "A31a_304": "岐阜県", "A31a_305": 1 }, "geometry": { "type": "Polygon", "coordinates": [ [ [ 136.951389638, 35.748888585 ], [ 136.951389638, 35.749110806 ], [ 136.951667438, 35.749110806 ], [ 136.951945138, 35.749110807 ], [ 136.952222938, 35.749110807 ], [ 136.952222938, 35.748888587 ], [ 136.951945138, 35.748888586 ], [ 136.951667438, 35.748888586 ], [ 136.951389638, 35.748888585 ] ] ] } },
{ "type": "Feature", "properties": { "A31a_301": "8505090104", "A31a_302": "吉田川", "A31a_303": "21", "A31a_304": "岐阜県", "A31a_305": 1 }, "geometry": { "type": "Polygon", "coordinates": [ [ [ 136.950278536, 35.747777472 ], [ 136.950278536, 35.747999692 ], [ 136.950556336, 35.747999693 ], [ 136.950556336, 35.747777472 ], [ 136.950278536, 35.747777472 ] ] ] } },
{ "type": "Feature", "properties": { "A31a_301": "8505090104", "A31a_302": "吉田川", "A31a_303": "21", "A31a_304": "岐阜県", "A31a_305": 1 }, "geometry": { "type": "Polygon", "coordinates": [ [ [ 136.947222936, 35.748888578 ], [ 136.947222936, 35.749110798 ], [ 136.947222937, 35.749333019 ], [ 136.947222937, 35.749555249 ], [ 136.947500737, 35.749555249 ], [ 136.947500737, 35.74977747 ], [ 136.947778538, 35.74977747 ], [ 136.947778537, 35.74955525 ], [ 136.947778537, 35.74933302 ], [ 136.948056337, 35.74933302 ], [ 136.948334037, 35.749333021 ], [ 136.948334037, 35.7491108 ], [ 136.948334037, 35.74888858 ], [ 136.948056336, 35.74888858 ], [ 136.947778536, 35.748888579 ], [ 136.947500736, 35.748888579 ], [ 136.947222936, 35.748888578 ] ] ] } },
{ "type": "Feature", "properties": { "A31a_301": "8505090104", "A31a_302": "吉田川", "A31a_303": "21", "A31a_304": "岐阜県", "A31a_305": 1 }, "geometry": { "type": "Polygon", "coordinates": [ [ [ 136.946945124, 35.740221896 ], [ 136.946945124, 35.740444117 ], [ 136.946945125, 35.740666347 ], [ 136.947222925, 35.740666347 ], [ 136.947222925, 35.740444117 ], [ 136.947222924, 35.740221897 ], [ 136.946945124, 35.740221896 ] ] ] } },
{ "type": "Feature", "properties": { "A31a_301": "8505090104", "A31a_302": "吉田川", "A31a_303": "21", "A31a_304": "岐阜県", "A31a_305": 2 }, "geometry": { "type": "Polygon", "coordinates": [ [ [ 136.948056324, 35.739333007 ], [ 136.948056324, 35.739555237 ], [ 136.948056324, 35.739777457 ], [ 136.948334025, 35.739777458 ], [ 136.948334024, 35.739555237 ], [ 136.948334024, 35.739333007 ], [ 136.948056324, 35.739333007 ] ] ] } },
{ "type": "Feature", "properties": { "A31a_301": "8505090104", "A31a_302": "吉田川", "A31a_303": "21", "A31a_304": "岐阜県", "A31a_305": 2 }, "geometry": { "type": "Polygon", "coordinates": [ [ [ 136.948611835, 35.747777469 ], [ 136.948611836, 35.747999689 ], [ 136.948889636, 35.74799969 ], [ 136.948889635, 35.74777747 ], [ 136.948611835, 35.747777469 ] ] ] } },
{ "type": "Feature", "properties": { "A31a_301": "8505090104", "A31a_302": "吉田川", "A31a_303": "21", "A31a_304": "岐阜県", "A31a_305": 2 }, "geometry": { "type": "Polygon", "coordinates": [ [ [ 136.948334035, 35.747999689 ], [ 136.948334036, 35.748221909 ], [ 136.948334036, 35.748444129 ], [ 136.948611836, 35.74844413 ], [ 136.948889636, 35.74844413 ], [ 136.949167436, 35.748444131 ], [ 136.949167436, 35.748221911 ], [ 136.949167436, 35.74799969 ], [ 136.948889636, 35.74799969 ], [ 136.948889636, 35.74822191 ], [ 136.948611836, 35.74822191 ], [ 136.948611836, 35.747999689 ], [ 136.948334035, 35.747999689 ] ] ] } },
{ "type": "Feature", "properties": { "A31a_301": "8505090104", "A31a_302": "吉田川", "A31a_303": "21", "A31a_304": "岐阜県", "A31a_305": 2 }, "geometry": { "type": "Polygon", "coordinates": [ [ [ 136.961389642, 35.750666385 ], [ 136.961389643, 35.750888605 ], [ 136.961667443, 35.750888606 ], [ 136.961667442, 35.750666386 ], [ 136.961389642, 35.750666385 ] ] ] } },
{ "type": "Feature", "properties": { "A31a_301": "8505090104", "A31a_302": "吉田川", "A31a_303": "21", "A31a_304": "岐阜県", "A31a_305": 2 }, "geometry": { "type": "Polygon", "coordinates": [ [ [ 136.961667443, 35.750888606 ], [ 136.961667443, 35.751110826 ], [ 136.961945143, 35.751110826 ], [ 136.961945143, 35.751333047 ], [ 136.962222943, 35.751333047 ], [ 136.962500743, 35.751333048 ], [ 136.962500743, 35.751110827 ], [ 136.962222943, 35.751110827 ], [ 136.962222943, 35.750888607 ], [ 136.961945143, 35.750888606 ], [ 136.961667443, 35.750888606 ] ] ] } },
{ "type": "Feature", "properties": { "A31a_301": "8505090104", "A31a_302": "吉田川", "A31a_303": "21", "A31a_304": "岐阜県", "A31a_305": 2 }, "geometry": { "type": "Polygon", "coordinates": [ [ [ 136.964722946, 35.752221941 ], [ 136.964722946, 35.752444161 ], [ 136.965000746, 35.752444161 ], [ 136.965000746, 35.752221941 ], [ 136.964722946, 35.752221941 ] ] ] } },
{ "type": "Feature", "properties": { "A31a_301": "8505090104", "A31a_302": "吉田川", "A31a_303": "21", "A31a_304": "岐阜県", "A31a_305": 2 }, "geometry": { "type": "Polygon", "coordinates": [ [ [ 136.965000746, 35.752444161 ], [ 136.965000747, 35.752666392 ], [ 136.965278547, 35.752666392 ], [ 136.965278547, 35.752888612 ], [ 136.965556347, 35.752888613 ], [ 136.965834047, 35.752888613 ], [ 136.965834047, 35.753110833 ], [ 136.966111848, 35.753110834 ], [ 136.966389648, 35.753110834 ], [ 136.966667448, 35.753110835 ], [ 136.966945148, 35.753110835 ], [ 136.966945148, 35.753333055 ], [ 136.967222948, 35.753333056 ], [ 136.967222948, 35.753555286 ], [ 136.967500748, 35.753555286 ], [ 136.967778549, 35.753555287 ], [ 136.968056349, 35.753555287 ], [ 136.968334049, 35.753555288 ], [ 136.968611849, 35.753555288 ], [ 136.968611849, 35.753333058 ], [ 136.968334049, 35.753333057 ], [ 136.968056349, 35.753333057 ], [ 136.968056348, 35.753110836 ], [ 136.967778548, 35.753110836 ], [ 136.967500748, 35.753110836 ], [ 136.967500748, 35.752888615 ], [ 136.967222948, 35.752888615 ], [ 136.966945148, 35.752888615 ], [ 136.966945148, 35.752666394 ], [ 136.966667447, 35.752666394 ], [ 136.966389647, 35.752666394 ], [ 136.966111847, 35.752666393 ], [ 136.966111847, 35.752444163 ], [ 136.965834047, 35.752444163 ], [ 136.965556347, 35.752444162 ], [ 136.965278546, 35.752444162 ], [ 136.965000746, 35.752444161 ] ] ] } },
{ "type": "Feature", "properties": { "A31a_301": "8505090104", "A31a_302": "吉田川", "A31a_303": "21", "A31a_304": "岐阜県", "A31a_305": 2 }, "geometry": { "type": "Polygon", "coordinates": [ [ [ 136.947500722, 35.738221894 ], [ 136.947500722, 35.738444114 ], [ 136.947500723, 35.738666345 ], [ 136.947222922, 35.738666344 ], [ 136.947222923, 35.738888565 ], [ 136.947222923, 35.739110785 ], [ 136.947222923, 35.739333005 ], [ 136.947222924, 35.739555236 ], [ 136.946945123, 35.739555235 ], [ 136.946945124, 35.739777456 ], [ 136.946945124, 35.739999676 ], [ 136.946667424, 35.739999676 ], [ 136.946667424, 35.740221896 ], [ 136.946667424, 35.740444116 ], [ 136.946667424, 35.740666347 ], [ 136.946667425, 35.740888567 ], [ 136.946389624, 35.740888566 ], [ 136.946389625, 35.741110787 ], [ 136.946389625, 35.741333007 ], [ 136.946389625, 35.741555238 ], [ 136.946389626, 35.741777458 ], [ 136.946389626, 35.741999678 ], [ 136.946389626, 35.742221898 ], [ 136.946389626, 35.742444119 ], [ 136.946667427, 35.742444119 ], [ 136.946945127, 35.74244412 ], [ 136.946945127, 35.74266635 ], [ 136.946945127, 35.74288857 ], [ 136.946945128, 35.74311079 ], [ 136.946945128, 35.743333011 ], [ 136.946945128, 35.743555241 ], [ 136.946945129, 35.743777461 ], [ 136.946667429, 35.743777461 ], [ 136.946667428, 35.74355524 ], [ 136.946389628, 35.74355524 ], [ 136.946389628, 35.74377746 ], [ 136.946389629, 35.743999681 ], [ 136.946389629, 35.744221901 ], [ 136.946389629, 35.744444121 ], [ 136.94666743, 35.744444122 ], [ 136.94666743, 35.744666352 ], [ 136.94666743, 35.744888572 ], [ 136.94666743, 35.745110792 ], [ 136.946667431, 35.745333013 ], [ 136.946945131, 35.745333013 ], [ 136.946945131, 35.745555243 ], [ 136.946945132, 35.745777464 ], [ 136.947222932, 35.745777464 ], [ 136.947222932, 35.745999684 ], [ 136.947222932, 35.746221905 ], [ 136.947500732, 35.746221905 ], [ 136.947500733, 35.746444125 ], [ 136.947500733, 35.746666356 ], [ 136.947500733, 35.746888576 ], [ 136.947778534, 35.746888577 ], [ 136.947778534, 35.747110797 ], [ 136.947778534, 35.747333017 ], [ 136.947778534, 35.747555247 ], [ 136.947778535, 35.747777468 ], [ 136.947778535, 35.747999688 ], [ 136.948056335, 35.747999688 ], [ 136.948056335, 35.747777468 ], [ 136.948334035, 35.747777469 ], [ 136.948611835, 35.747777469 ], [ 136.948611835, 35.747555249 ], [ 136.948334035, 35.747555248 ], [ 136.948056335, 35.747555248 ], [ 136.948056334, 35.747333018 ], [ 136.948334034, 35.747333018 ], [ 136.948611835, 35.747333019 ], [ 136.948611834, 35.747110798 ], [ 136.948334034, 35.747110798 ], [ 136.948334034, 35.746888577 ], [ 136.948334034, 35.746666357 ], [ 136.948334033, 35.746444127 ], [ 136.948334033, 35.746221907 ], [ 136.948611833, 35.746221907 ], [ 136.948611833, 35.746444127 ], [ 136.948889634, 35.746444128 ], [ 136.948889634, 35.746666358 ], [ 136.949167434, 35.746666359 ], [ 136.949167434, 35.746888579 ], [ 136.949167435, 35.747110799 ], [ 136.949167435, 35.747333019 ], [ 136.948889635, 35.747333019 ], [ 136.948889635, 35.747555249 ], [ 136.949167435, 35.74755525 ], [ 136.949445135, 35.74755525 ], [ 136.949445136, 35.747777471 ], [ 136.949445136, 35.747999691 ], [ 136.949445136, 35.748221911 ], [ 136.949445137, 35.748444131 ], [ 136.949722937, 35.748444132 ], [ 136.950000737, 35.748444132 ], [ 136.950278537, 35.748444133 ], [ 136.950556337, 35.748444133 ], [ 136.950556337, 35.748221913 ], [ 136.950556336, 35.747999693 ], [ 136.950278536, 35.747999692 ], [ 136.950278536, 35.747777472 ], [ 136.950556336, 35.747777472 ], [ 136.950556336, 35.747999693 ], [ 136.950834036, 35.747999693 ], [ 136.951111837, 35.747999694 ], [ 136.951111837, 35.748221914 ], [ 136.951111837, 35.748444134 ], [ 136.951389637, 35.748444135 ], [ 136.951667437, 35.748444135 ], [ 136.951945137, 35.748444136 ], [ 136.952222937, 35.748444136 ], [ 136.952500738, 35.748444137 ], [ 136.952500737, 35.748221916 ], [ 136.952778537, 35.748221917 ], [ 136.953056337, 35.748221917 ], [ 136.953056338, 35.748444138 ], [ 136.953334038, 35.748444138 ], [ 136.953611838, 35.748444138 ], [ 136.953889638, 35.748444139 ], [ 136.953889638, 35.748221919 ], [ 136.953611838, 35.748221918 ], [ 136.953611837, 35.747999698 ], [ 136.953334037, 35.747999697 ], [ 136.953056337, 35.747999697 ], [ 136.952778537, 35.747999696 ], [ 136.952500737, 35.747999696 ], [ 136.952500737, 35.747777476 ], [ 136.952222937, 35.747777475 ], [ 136.952222937, 35.747999695 ], [ 136.951945137, 35.747999695 ], [ 136.951945137, 35.747777475 ], [ 136.951667436, 35.747777474 ], [ 136.951667436, 35.747555254 ], [ 136.951389636, 35.747555253 ], [ 136.951111836, 35.747555253 ], [ 136.951111836, 35.747333023 ], [ 136.950834036, 35.747333022 ], [ 136.950834035, 35.747110802 ], [ 136.951111835, 35.747110802 ], [ 136.951111835, 35.746888582 ], [ 136.950834035, 35.746888582 ], [ 136.950834035, 35.746666361 ], [ 136.950556335, 35.746666361 ], [ 136.950556334, 35.746444131 ], [ 136.950278534, 35.74644413 ], [ 136.950000734, 35.74644413 ], [ 136.949722934, 35.746444129 ], [ 136.949722934, 35.746221909 ], [ 136.949722933, 35.745999689 ], [ 136.949722933, 35.745777468 ], [ 136.949445133, 35.745777468 ], [ 136.949445133, 35.745555248 ], [ 136.949167432, 35.745555247 ], [ 136.948889632, 35.745555247 ], [ 136.948611832, 35.745555246 ], [ 136.948611832, 35.745777467 ], [ 136.948611833, 35.745999687 ], [ 136.948334033, 35.745999686 ], [ 136.948056332, 35.745999686 ], [ 136.948056332, 35.745777466 ], [ 136.948056332, 35.745555245 ], [ 136.948334032, 35.745555246 ], [ 136.948334032, 35.745333015 ], [ 136.948334031, 35.745110795 ], [ 136.948056331, 35.745110795 ], [ 136.948056331, 35.744888574 ], [ 136.948056331, 35.744666354 ], [ 136.94805633, 35.744444124 ], [ 136.94805633, 35.744221904 ], [ 136.94805633, 35.743999683 ], [ 136.94777853, 35.743999683 ], [ 136.947500729, 35.743999682 ], [ 136.947500729, 35.743777462 ], [ 136.947222929, 35.743777462 ], [ 136.947222929, 35.743555241 ], [ 136.947500729, 35.743555242 ], [ 136.947778529, 35.743555242 ], [ 136.947778529, 35.743333012 ], [ 136.947500728, 35.743333012 ], [ 136.947500728, 35.743110791 ], [ 136.947778528, 35.743110792 ], [ 136.947778528, 35.742888571 ], [ 136.947778528, 35.742666351 ], [ 136.947500728, 35.742666351 ], [ 136.947500727, 35.74244412 ], [ 136.947222927, 35.74244412 ], [ 136.947222927, 35.7422219 ], [ 136.947222926, 35.741999679 ], [ 136.947222926, 35.741777459 ], [ 136.947222926, 35.741555239 ], [ 136.947222926, 35.741333008 ], [ 136.947222925, 35.741110788 ], [ 136.947222925, 35.740888568 ], [ 136.947500725, 35.740888568 ], [ 136.947500725, 35.740666348 ], [ 136.947500725, 35.740444117 ], [ 136.947500724, 35.740221897 ], [ 136.947222924, 35.740221897 ], [ 136.947222925, 35.740444117 ], [ 136.947222925, 35.740666347 ], [ 136.946945125, 35.740666347 ], [ 136.946945124, 35.740444117 ], [ 136.946945124, 35.740221896 ], [ 136.947222924, 35.740221897 ], [ 136.947222924, 35.739999676 ], [ 136.947222924, 35.739777456 ], [ 136.947500724, 35.739777456 ], [ 136.947500724, 35.739555236 ], [ 136.947500723, 35.739333006 ], [ 136.947500723, 35.739110785 ], [ 136.947778523, 35.739110786 ], [ 136.947778523, 35.738888565 ], [ 136.947778523, 35.738666345 ], [ 136.948056323, 35.738666345 ], [ 136.948056323, 35.738444115 ], [ 136.948056323, 35.738221895 ], [ 136.947778522, 35.738221894 ], [ 136.947500722, 35.738221894 ] ], [ [ 136.946667426, 35.741999679 ], [ 136.946945126, 35.741999679 ], [ 136.946945127, 35.742221899 ], [ 136.946667426, 35.742221899 ], [ 136.946667426, 35.741999679 ] ] ] } },
{ "type": "Feature", "properties": { "A31a_301": "8505090104", "A31a_302": "吉田川", "A31a_303": "21", "A31a_304": "岐阜県", "A31a_305": 2 }, "geometry": { "type": "Polygon", "coordinates": [ [ [ 136.954445138, 35.74822192 ], [ 136.954445138, 35.74844414 ], [ 136.954722938, 35.74844414 ], [ 136.954722938, 35.748666371 ], [ 136.955000739, 35.748666371 ], [ 136.955278539, 35.748666372 ], [ 136.955278538, 35.748444141 ], [ 136.955000738, 35.748444141 ], [ 136.955000738, 35.74822192 ], [ 136.954722938, 35.74822192 ], [ 136.954445138, 35.74822192 ] ] ] } },
{ "type": "Feature", "properties": { "A31a_301": "8505090104", "A31a_302": "吉田川", "A31a_303": "21", "A31a_304": "岐阜県", "A31a_305": 2 }, "geometry": { "type": "Polygon", "coordinates": [ [ [ 136.952222938, 35.748888587 ], [ 136.952222938, 35.749110807 ], [ 136.952500738, 35.749110808 ], [ 136.952778538, 35.749110808 ], [ 136.953056339, 35.749110809 ], [ 136.953334039, 35.749110809 ], [ 136.953611839, 35.74911081 ], [ 136.953611839, 35.74933303 ], [ 136.953889639, 35.74933303 ], [ 136.954167439, 35.749333031 ], [ 136.954445139, 35.749333031 ], [ 136.954722939, 35.749333032 ], [ 136.955000739, 35.749333032 ], [ 136.955278539, 35.749333033 ], [ 136.95527854, 35.749555263 ], [ 136.95555634, 35.749555264 ], [ 136.95555634, 35.749777484 ], [ 136.95583404, 35.749777484 ], [ 136.95583404, 35.749999705 ], [ 136.955834041, 35.750221925 ], [ 136.955834041, 35.750444145 ], [ 136.956111841, 35.750444146 ], [ 136.956111841, 35.750221925 ], [ 136.95611184, 35.749999705 ], [ 136.95611184, 35.749777485 ], [ 136.95611184, 35.749555265 ], [ 136.95638964, 35.749555265 ], [ 136.95638964, 35.749333035 ], [ 136.95611184, 35.749333034 ], [ 136.95583404, 35.749333034 ], [ 136.955556339, 35.749333033 ], [ 136.955556339, 35.749110813 ], [ 136.955278539, 35.749110812 ], [ 136.955000739, 35.749110812 ], [ 136.954722939, 35.749110811 ], [ 136.954722939, 35.748888591 ], [ 136.954445139, 35.748888591 ], [ 136.954167439, 35.74888859 ], [ 136.953889639, 35.74888859 ], [ 136.953611838, 35.748888589 ], [ 136.953334038, 35.748888589 ], [ 136.953056338, 35.748888588 ], [ 136.952778538, 35.748888588 ], [ 136.952500738, 35.748888587 ], [ 136.952222938, 35.748888587 ] ] ] } },
{ "type": "Feature", "properties": { "A31a_301": "8505090104", "A31a_302": "吉田川", "A31a_303": "21", "A31a_304": "岐阜県", "A31a_305": 2 }, "geometry": { "type": "Polygon", "coordinates": [ [ [ 136.970000749, 35.75333306 ], [ 136.97000075, 35.75355529 ], [ 136.97000075, 35.75377751 ], [ 136.97027855, 35.753777511 ], [ 136.97055635, 35.753777511 ], [ 136.97055635, 35.753999732 ], [ 136.97083405, 35.753999732 ], [ 136.97111185, 35.753999732 ], [ 136.97138965, 35.753999733 ], [ 136.97138965, 35.754221953 ], [ 136.97166745, 35.754221954 ], [ 136.97166745, 35.753999733 ], [ 136.97166745, 35.753777513 ], [ 136.97138965, 35.753777512 ], [ 136.97111185, 35.753777512 ], [ 136.97083405, 35.753777512 ], [ 136.97083405, 35.753555291 ], [ 136.97055635, 35.753555291 ], [ 136.97027855, 35.75355529 ], [ 136.97027855, 35.75333306 ], [ 136.970000749, 35.75333306 ] ] ] } },
{ "type": "Feature", "properties": { "A31a_301": "8505090104", "A31a_302": "吉田川", "A31a_303": "21", "A31a_304": "岐阜県", "A31a_305": 2 }, "geometry": { "type": "Polygon", "coordinates": [ [ [ 136.97194515, 35.753999734 ], [ 136.97194515, 35.754221954 ], [ 136.97222295, 35.754221955 ], [ 136.972500751, 35.754221955 ], [ 136.972500751, 35.754444176 ], [ 136.972778551, 35.754444176 ], [ 136.973056351, 35.754444177 ], [ 136.973056351, 35.754221956 ], [ 136.972778551, 35.754221956 ], [ 136.972778551, 35.753999735 ], [ 136.972500751, 35.753999735 ], [ 136.97222295, 35.753999734 ], [ 136.97194515, 35.753999734 ] ] ] } },
{ "type": "Feature", "properties": { "A31a_301": "8505090104", "A31a_302": "吉田川", "A31a_303": "21", "A31a_304": "岐阜県", "A31a_305": 2 }, "geometry": { "type": "Polygon", "coordinates": [ [ [ 136.968889649, 35.753110838 ], [ 136.968889649, 35.753333058 ], [ 136.969167449, 35.753333058 ], [ 136.969445149, 35.753333059 ], [ 136.969445149, 35.753555289 ], [ 136.969722949, 35.75355529 ], [ 136.969722949, 35.753333059 ], [ 136.969722949, 35.753110839 ], [ 136.969445149, 35.753110838 ], [ 136.969167449, 35.753110838 ], [ 136.968889649, 35.753110838 ] ] ] } },
{ "type": "Feature", "properties": { "A31a_301": "8505090104", "A31a_302": "吉田川", "A31a_303": "21", "A31a_304": "岐阜県", "A31a_305": 2 }, "geometry": { "type": "Polygon", "coordinates": [ [ [ 136.966111846, 35.751777502 ], [ 136.966111847, 35.751999722 ], [ 136.966389647, 35.751999723 ], [ 136.966389647, 35.751777502 ], [ 136.966111846, 35.751777502 ] ] ] } },
{ "type": "Feature", "properties": { "A31a_301": "8505090104", "A31a_302": "吉田川", "A31a_303": "21", "A31a_304": "岐阜県", "A31a_305": 2 }, "geometry": { "type": "Polygon", "coordinates": [ [ [ 136.963334045, 35.751777499 ], [ 136.963334045, 35.751999719 ], [ 136.963611845, 35.751999719 ], [ 136.963611845, 35.751777499 ], [ 136.963334045, 35.751777499 ] ] ] } },
{ "type": "Feature", "properties": { "A31a_301": "8505090104", "A31a_302": "吉田川", "A31a_303": "21", "A31a_304": "岐阜県", "A31a_305": 2 }, "geometry": { "type": "Polygon", "coordinates": [ [ [ 136.963611845, 35.751999719 ], [ 136.963611845, 35.75222194 ], [ 136.963889645, 35.75222194 ], [ 136.963889646, 35.75244416 ], [ 136.964167446, 35.75244416 ], [ 136.964445146, 35.752444161 ], [ 136.964445146, 35.752221941 ], [ 136.964167446, 35.75222194 ], [ 136.964167445, 35.75199972 ], [ 136.963889645, 35.75199972 ], [ 136.963611845, 35.751999719 ] ] ] } },
{ "type": "Feature", "properties": { "A31a_301": "8505090104", "A31a_302": "吉田川", "A31a_303": "21", "A31a_304": "岐阜県", "A31a_305": 2 }, "geometry": { "type": "Polygon", "coordinates": [ [ [ 136.962778544, 35.751555278 ], [ 136.962778544, 35.751777498 ], [ 136.963056344, 35.751777499 ], [ 136.963056344, 35.751555278 ], [ 136.962778544, 35.751555278 ] ] ] } },
{ "type": "Feature", "properties": { "A31a_301": "8505090104", "A31a_302": "吉田川", "A31a_303": "21", "A31a_304": "岐阜県", "A31a_305": 2 }, "geometry": { "type": "Polygon", "coordinates": [ [ [ 136.959445142, 35.750444151 ], [ 136.959445142, 35.750666382 ], [ 136.959722942, 35.750666382 ], [ 136.960000742, 35.750666383 ], [ 136.960000742, 35.750888603 ], [ 136.960278542, 35.750888603 ], [ 136.960556342, 35.750888604 ], [ 136.960556342, 35.750666384 ], [ 136.960834042, 35.750666384 ], [ 136.961111842, 35.750666385 ], [ 136.961389642, 35.750666385 ], [ 136.961389642, 35.750444155 ], [ 136.961111842, 35.750444154 ], [ 136.960834042, 35.750444154 ], [ 136.960556342, 35.750444153 ], [ 136.960278542, 35.750444153 ], [ 136.960000742, 35.750444152 ], [ 136.959722942, 35.750444152 ], [ 136.959445142, 35.750444151 ] ] ] } },
{ "type": "Feature", "properties": { "A31a_301": "8505090104", "A31a_302": "吉田川", "A31a_303": "21", "A31a_304": "岐阜県", "A31a_305": 2 }, "geometry": { "type": "Polygon", "coordinates": [ [ [ 136.959722941, 35.749777491 ], [ 136.959722941, 35.749999712 ], [ 136.959722941, 35.750221932 ], [ 136.960000741, 35.750221932 ], [ 136.960000741, 35.749999712 ], [ 136.960000741, 35.749777492 ], [ 136.959722941, 35.749777491 ] ] ] } },
{ "type": "Feature", "properties": { "A31a_301": "8505090104", "A31a_302": "吉田川", "A31a_303": "21", "A31a_304": "岐阜県", "A31a_305": 2 }, "geometry": { "type": "Polygon", "coordinates": [ [ [ 136.949722923, 35.736666345 ], [ 136.949722923, 35.736888565 ], [ 136.950000723, 35.736888565 ], [ 136.950278523, 35.736888566 ], [ 136.950278523, 35.736666345 ], [ 136.950000723, 35.736666345 ], [ 136.949722923, 35.736666345 ] ] ] } },
{ "type": "Feature", "properties": { "A31a_301": "8505090104", "A31a_302": "吉田川", "A31a_303": "21", "A31a_304": "岐阜県", "A31a_305": 2 }, "geometry": { "type": "Polygon", "coordinates": [ [ [ 136.951667423, 35.735333005 ], [ 136.951667423, 35.735555235 ], [ 136.951667424, 35.735777455 ], [ 136.951945124, 35.735777456 ], [ 136.951945124, 35.735555235 ], [ 136.951945123, 35.735333005 ], [ 136.951667423, 35.735333005 ] ] ] } },
{ "type": "Feature", "properties": { "A31a_301": "8505090104", "A31a_302": "吉田川", "A31a_303": "21", "A31a_304": "岐阜県", "A31a_305": 2 }, "geometry": { "type": "Polygon", "coordinates": [ [ [ 136.948611822, 35.737333004 ], [ 136.948611822, 35.737555234 ], [ 136.948334022, 35.737555234 ], [ 136.948334022, 35.737777454 ], [ 136.948611823, 35.737777455 ], [ 136.948889623, 35.737777455 ], [ 136.948889623, 35.737555235 ], [ 136.949167423, 35.737555235 ], [ 136.949167423, 35.737333005 ], [ 136.948889622, 35.737333005 ], [ 136.948611822, 35.737333004 ] ] ] } },
{ "type": "Feature", "properties": { "A31a_301": "8505090104", "A31a_302": "吉田川", "A31a_303": "21", "A31a_304": "岐阜県", "A31a_305": 3 }, "geometry": { "type": "Polygon", "coordinates": [ [ [ 136.952500737, 35.748221916 ], [ 136.952500738, 35.748444137 ], [ 136.952778538, 35.748444137 ], [ 136.953056338, 35.748444138 ], [ 136.953056337, 35.748221917 ], [ 136.952778537, 35.748221917 ], [ 136.952500737, 35.748221916 ] ] ] } },
{ "type": "Feature", "properties": { "A31a_301": "8505090104", "A31a_302": "吉田川", "A31a_303": "21", "A31a_304": "岐阜県", "A31a_305": 3 }, "geometry": { "type": "Polygon", "coordinates": [ [ [ 136.950556336, 35.747999693 ], [ 136.950556337, 35.748221913 ], [ 136.950556337, 35.748444133 ], [ 136.950834037, 35.748444134 ], [ 136.951111837, 35.748444134 ], [ 136.951111837, 35.748221914 ], [ 136.951111837, 35.747999694 ], [ 136.950834036, 35.747999693 ], [ 136.950556336, 35.747999693 ] ] ] } },
{ "type": "Feature", "properties": { "A31a_301": "8505090104", "A31a_302": "吉田川", "A31a_303": "21", "A31a_304": "岐阜県", "A31a_305": 3 }, "geometry": { "type": "Polygon", "coordinates": [ [ [ 136.948056335, 35.747777468 ], [ 136.948056335, 35.747999688 ], [ 136.948056336, 35.748221909 ], [ 136.948056336, 35.748444129 ], [ 136.948334036, 35.748444129 ], [ 136.948334036, 35.748221909 ], [ 136.948334035, 35.747999689 ], [ 136.948334035, 35.747777469 ], [ 136.948056335, 35.747777468 ] ] ] } },
{ "type": "Feature", "properties": { "A31a_301": "8505090104", "A31a_302": "吉田川", "A31a_303": "21", "A31a_304": "岐阜県", "A31a_305": 3 }, "geometry": { "type": "Polygon", "coordinates": [ [ [ 136.948611835, 35.747555249 ], [ 136.948611835, 35.747777469 ], [ 136.948889635, 35.74777747 ], [ 136.948889636, 35.74799969 ], [ 136.949167436, 35.74799969 ], [ 136.949167436, 35.748221911 ], [ 136.949167436, 35.748444131 ], [ 136.949445137, 35.748444131 ], [ 136.949445136, 35.748221911 ], [ 136.949445136, 35.747999691 ], [ 136.949445136, 35.747777471 ], [ 136.949445135, 35.74755525 ], [ 136.949167435, 35.74755525 ], [ 136.948889635, 35.747555249 ], [ 136.948611835, 35.747555249 ] ] ] } }
]
}
