{
"type": "FeatureCollection",
"name": "A31a-42-25_21_8505090063_20",
"crs": { "type": "name", "properties": { "name": "urn:ogc:def:crs:EPSG::6668" } },
"xy_coordinate_resolution": 1e-09,
"features": [
{ "type": "Feature", "properties": { "A31a_401": "8505090063", "A31a_402": "山田川", "A31a_403": "21", "A31a_404": "岐阜県", "A31a_405": 2 }, "geometry": { "type": "Polygon", "coordinates": [ [ [ 136.873614881, 35.457900408 ], [ 136.873812955, 35.457819337 ], [ 136.874298993, 35.457607238 ], [ 136.874783599, 35.457392962 ], [ 136.875268882, 35.457179709 ], [ 136.875759394, 35.456974438 ], [ 136.875958441, 35.456878358 ], [ 136.87627956, 35.456816366 ], [ 136.876798545, 35.456665309 ], [ 136.877316334, 35.45651148 ], [ 136.877651823, 35.456409266 ], [ 136.877848511, 35.456390167 ], [ 136.877973156, 35.456380258 ], [ 136.878688519, 35.456293051 ], [ 136.878961536, 35.456077808 ], [ 136.879158723, 35.455812617 ], [ 136.879171319, 35.455703225 ], [ 136.879046234, 35.455378709 ], [ 136.879038127, 35.455268826 ], [ 136.879077381, 35.455181972 ], [ 136.879039513, 35.455175215 ], [ 136.879003222, 35.455261591 ], [ 136.879004442, 35.455389893 ], [ 136.879118464, 35.455714441 ], [ 136.879112907, 35.455799777 ], [ 136.878925534, 35.456073824 ], [ 136.878675416, 35.45627882 ], [ 136.877968899, 35.456361813 ], [ 136.87783957, 35.456339016 ], [ 136.877644262, 35.456385703 ], [ 136.877307055, 35.456489962 ], [ 136.876787888, 35.456640591 ], [ 136.876271488, 35.456797644 ], [ 136.875940328, 35.45684432 ], [ 136.875707607, 35.456895454 ], [ 136.875224737, 35.457112414 ], [ 136.874736632, 35.457321329 ], [ 136.874250631, 35.45753348 ], [ 136.873758346, 35.457736052 ], [ 136.873581828, 35.457782765 ], [ 136.873302538, 35.457829168 ], [ 136.873121006, 35.457810327 ], [ 136.872885716, 35.457735868 ], [ 136.871975456, 35.457476107 ], [ 136.8709478, 35.457132968 ], [ 136.869767942, 35.457141981 ], [ 136.868794611, 35.456996067 ], [ 136.867685118, 35.456724007 ], [ 136.866915983, 35.456752694 ], [ 136.866360399, 35.456800514 ], [ 136.865814082, 35.456858142 ], [ 136.865268726, 35.456921963 ], [ 136.864723342, 35.456985442 ], [ 136.864173716, 35.457022233 ], [ 136.863631529, 35.457105993 ], [ 136.863102942, 35.457143455 ], [ 136.862620703, 35.457109303 ], [ 136.862079057, 35.457027267 ], [ 136.861588119, 35.456926599 ], [ 136.861014047, 35.456801774 ], [ 136.860349255, 35.456847172 ], [ 136.859839808, 35.457022848 ], [ 136.859326248, 35.457165915 ], [ 136.858792747, 35.457278453 ], [ 136.858260764, 35.457395447 ], [ 136.857768569, 35.457409545 ], [ 136.85726787, 35.457411265 ], [ 136.856721298, 35.457331547 ], [ 136.856159303, 35.457320254 ], [ 136.855608472, 35.457264757 ], [ 136.855060604, 35.457217366 ], [ 136.854519257, 35.457110595 ], [ 136.853967135, 35.457102107 ], [ 136.853420443, 35.457043997 ], [ 136.85287184, 35.457003424 ], [ 136.852336836, 35.456838626 ], [ 136.851759126, 35.456930189 ], [ 136.851183641, 35.45692932 ], [ 136.850718426, 35.456842615 ], [ 136.850610309, 35.456863015 ], [ 136.850070728, 35.456973785 ], [ 136.849528466, 35.457061956 ], [ 136.848978799, 35.457095177 ], [ 136.848431755, 35.457148152 ], [ 136.847884128, 35.457196825 ], [ 136.84733616, 35.457242857 ], [ 136.846790015, 35.457302784 ], [ 136.84623478, 35.457293624 ], [ 136.845892933, 35.457244864 ], [ 136.845851721, 35.457251455 ], [ 136.84568136, 35.457298374 ], [ 136.845086269, 35.457282418 ], [ 136.844887718, 35.457250185 ], [ 136.844769535, 35.457300024 ], [ 136.844314052, 35.457124676 ], [ 136.843916966, 35.456873962 ], [ 136.843535298, 35.456566918 ], [ 136.843144518, 35.456249236 ], [ 136.842770065, 35.455917849 ], [ 136.842381473, 35.455598347 ], [ 136.841986318, 35.455284352 ], [ 136.841886115, 35.455112629 ], [ 136.841567405, 35.454980202 ], [ 136.841127758, 35.454659374 ], [ 136.840629815, 35.454401152 ], [ 136.840111188, 35.454208293 ], [ 136.839435293, 35.453977197 ], [ 136.839245855, 35.454067915 ], [ 136.83893761, 35.454109094 ], [ 136.838818569, 35.454132119 ], [ 136.838217566, 35.454251397 ], [ 136.83759786, 35.454458472 ], [ 136.8369996, 35.454948604 ], [ 136.836977552, 35.455175435 ], [ 136.83677772, 35.455145144 ], [ 136.836243179, 35.455315115 ], [ 136.8362648, 35.455514135 ], [ 136.836810005, 35.455442301 ], [ 136.8372078, 35.455382054 ], [ 136.837288543, 35.455026234 ], [ 136.837763839, 35.454633782 ], [ 136.838301763, 35.454438463 ], [ 136.838856573, 35.454324108 ], [ 136.838966986, 35.454303961 ], [ 136.839255017, 35.454256639 ], [ 136.839427898, 35.454218899 ], [ 136.840033329, 35.454345336 ], [ 136.840531993, 35.454539763 ], [ 136.841011879, 35.454788111 ], [ 136.841447305, 35.455086561 ], [ 136.841698405, 35.455270421 ], [ 136.84185364, 35.455395878 ], [ 136.842239722, 35.455717499 ], [ 136.842635438, 35.456031016 ], [ 136.843022807, 35.45635155 ], [ 136.843414611, 35.456668366 ], [ 136.843806834, 35.456976439 ], [ 136.844230287, 35.457234001 ], [ 136.84470186, 35.457428639 ], [ 136.844801294, 35.457451421 ], [ 136.845040437, 35.457497273 ], [ 136.845708893, 35.457507264 ], [ 136.845882365, 35.457483914 ], [ 136.845923848, 35.457479476 ], [ 136.846255857, 35.45745356 ], [ 136.846806204, 35.457425591 ], [ 136.847354589, 35.457382672 ], [ 136.847902831, 35.457338711 ], [ 136.848450484, 35.457290249 ], [ 136.84899751, 35.457237106 ], [ 136.849545893, 35.457194138 ], [ 136.85009277, 35.457139794 ], [ 136.850640053, 35.457088618 ], [ 136.850748734, 35.457072464 ], [ 136.8511931, 35.457044688 ], [ 136.851754914, 35.457044798 ], [ 136.852312097, 35.457064507 ], [ 136.85285711, 35.45713788 ], [ 136.853406275, 35.457173333 ], [ 136.853954604, 35.457216509 ], [ 136.85450357, 35.457253793 ], [ 136.855053017, 35.457286643 ], [ 136.855601457, 35.457328815 ], [ 136.856151447, 35.457376624 ], [ 136.856698874, 35.457448821 ], [ 136.857242166, 35.457530352 ], [ 136.85777375, 35.457572245 ], [ 136.858292865, 35.457489982 ], [ 136.858822092, 35.457364875 ], [ 136.859352391, 35.457242913 ], [ 136.859878645, 35.457120697 ], [ 136.860404098, 35.456985377 ], [ 136.8609843, 35.456945738 ], [ 136.861527967, 35.457068458 ], [ 136.862045167, 35.457178332 ], [ 136.862586074, 35.457263658 ], [ 136.863112515, 35.457289026 ], [ 136.863652328, 35.457237613 ], [ 136.864198663, 35.457180083 ], [ 136.864744977, 35.457122369 ], [ 136.865291039, 35.457063112 ], [ 136.865837013, 35.457003256 ], [ 136.866382925, 35.456943058 ], [ 136.866932216, 35.456885233 ], [ 136.867649081, 35.456905993 ], [ 136.868729662, 35.457128116 ], [ 136.869778058, 35.457275682 ], [ 136.870889851, 35.457258468 ], [ 136.871918328, 35.457585969 ], [ 136.872820132, 35.457871631 ], [ 136.873093126, 35.457950405 ], [ 136.87331915, 35.457962313 ], [ 136.873614881, 35.457900408 ] ] ] } },
{ "type": "Feature", "properties": { "A31a_401": "8505090063", "A31a_402": "山田川", "A31a_403": "21", "A31a_404": "岐阜県", "A31a_405": 2 }, "geometry": { "type": "Polygon", "coordinates": [ [ [ 136.873677252, 35.458102007 ], [ 136.873929205, 35.457996633 ], [ 136.874389704, 35.457745583 ], [ 136.874877581, 35.457536303 ], [ 136.875356234, 35.457312871 ], [ 136.875835635, 35.457090719 ], [ 136.876043694, 35.456946419 ], [ 136.876302572, 35.456869741 ], [ 136.876824093, 35.45672456 ], [ 136.877343841, 35.456575275 ], [ 136.877637448, 35.456490757 ], [ 136.877863362, 35.456475117 ], [ 136.877985602, 35.456434169 ], [ 136.878712351, 35.456359997 ], [ 136.879038381, 35.45608631 ], [ 136.879223008, 35.455819941 ], [ 136.879229164, 35.455698206 ], [ 136.879118718, 35.455373666 ], [ 136.879110467, 35.455279993 ], [ 136.879138235, 35.45519283 ], [ 136.879100367, 35.455186073 ], [ 136.879066851, 35.455272813 ], [ 136.879075602, 35.455375239 ], [ 136.879193563, 35.455704226 ], [ 136.879184348, 35.455818746 ], [ 136.879002379, 35.456082326 ], [ 136.878705098, 35.456323305 ], [ 136.877981344, 35.456415724 ], [ 136.87785442, 35.456423967 ], [ 136.877622259, 35.456458043 ], [ 136.877334563, 35.456553757 ], [ 136.876813435, 35.456699842 ], [ 136.8762945, 35.456851019 ], [ 136.876019984, 35.456920232 ], [ 136.875812405, 35.45705529 ], [ 136.87532905, 35.457271432 ], [ 136.874843066, 35.457483661 ], [ 136.874357833, 35.457696977 ], [ 136.873874597, 35.457913348 ], [ 136.873636722, 35.458012066 ], [ 136.873331516, 35.458061425 ], [ 136.873010195, 35.458038651 ], [ 136.872765578, 35.457984559 ], [ 136.871853214, 35.457711191 ], [ 136.870820858, 35.457407881 ], [ 136.869788901, 35.457418981 ], [ 136.868658082, 35.457273645 ], [ 136.867623701, 35.457034158 ], [ 136.866951893, 35.457045878 ], [ 136.866408266, 35.457103419 ], [ 136.865861462, 35.457157975 ], [ 136.865315776, 35.4572196 ], [ 136.864769603, 35.45727822 ], [ 136.864223968, 35.457340194 ], [ 136.863677187, 35.457394925 ], [ 136.863123197, 35.457451458 ], [ 136.862553612, 35.457408353 ], [ 136.862011167, 35.45732989 ], [ 136.861464337, 35.457218519 ], [ 136.860955779, 35.45708377 ], [ 136.860455186, 35.457114117 ], [ 136.859937341, 35.457268578 ], [ 136.859404249, 35.457395652 ], [ 136.858874267, 35.457518535 ], [ 136.858345979, 35.457646402 ], [ 136.857778379, 35.457717639 ], [ 136.857213857, 35.457661503 ], [ 136.856673023, 35.457584014 ], [ 136.856130228, 35.457528877 ], [ 136.855584441, 35.457484187 ], [ 136.85503623, 35.45743992 ], [ 136.854487049, 35.457404603 ], [ 136.853937449, 35.457373116 ], [ 136.853389319, 35.457328115 ], [ 136.852841374, 35.457281534 ], [ 136.852291543, 35.457252173 ], [ 136.851747883, 35.457236156 ], [ 136.851209816, 35.457248549 ], [ 136.85077823, 35.457296159 ], [ 136.850669131, 35.457309169 ], [ 136.850122155, 35.4573611 ], [ 136.849573799, 35.457405797 ], [ 136.849025826, 35.45745189 ], [ 136.84847917, 35.457507885 ], [ 136.847931729, 35.45755793 ], [ 136.847384731, 35.457611339 ], [ 136.846837439, 35.457662544 ], [ 136.846289275, 35.457707132 ], [ 136.845957985, 35.45773853 ], [ 136.845916696, 35.457744338 ], [ 136.845742693, 35.457763703 ], [ 136.844985047, 35.457756933 ], [ 136.844695879, 35.457696875 ], [ 136.844581644, 35.4576571 ], [ 136.844081247, 35.45742852 ], [ 136.843616788, 35.457153275 ], [ 136.84322694, 35.45682612 ], [ 136.842834342, 35.456509981 ], [ 136.842438673, 35.456196415 ], [ 136.84204522, 35.45588099 ], [ 136.841638425, 35.455576781 ], [ 136.84148102, 35.455453157 ], [ 136.8412512, 35.455260225 ], [ 136.840840168, 35.454978873 ], [ 136.840386274, 35.45474624 ], [ 136.839906482, 35.454568604 ], [ 136.839418516, 35.454525557 ], [ 136.839267931, 35.454522671 ], [ 136.839004208, 35.454550873 ], [ 136.838903604, 35.454561698 ], [ 136.83840286, 35.454663072 ], [ 136.837967672, 35.454849074 ], [ 136.837791093, 35.455161251 ], [ 136.837497155, 35.455641712 ], [ 136.836846968, 35.455782514 ], [ 136.836302368, 35.455859933 ], [ 136.83632399, 35.456058953 ], [ 136.836879253, 35.456079671 ], [ 136.837727406, 35.45584833 ], [ 136.838080038, 35.455238879 ], [ 136.838133654, 35.455024383 ], [ 136.838487058, 35.454850138 ], [ 136.838941609, 35.454753687 ], [ 136.839033584, 35.45474574 ], [ 136.839277092, 35.454711395 ], [ 136.839411121, 35.45476726 ], [ 136.839831378, 35.454700799 ], [ 136.840288015, 35.454885469 ], [ 136.840724777, 35.455107066 ], [ 136.841123818, 35.45537303 ], [ 136.841293308, 35.455610949 ], [ 136.841505708, 35.455688339 ], [ 136.84191918, 35.455986933 ], [ 136.842314445, 35.456300841 ], [ 136.842713769, 35.456611338 ], [ 136.843109821, 35.456924569 ], [ 136.843479145, 35.45728135 ], [ 136.843983965, 35.457555485 ], [ 136.844506958, 35.457799033 ], [ 136.844609454, 35.457898111 ], [ 136.844939215, 35.457971788 ], [ 136.845766179, 35.457941889 ], [ 136.845941586, 35.457933156 ], [ 136.845988901, 35.457973143 ], [ 136.846307265, 35.45784363 ], [ 136.846855579, 35.457800149 ], [ 136.847402752, 35.457748052 ], [ 136.847947384, 35.457676688 ], [ 136.848501724, 35.457679002 ], [ 136.849039625, 35.457556557 ], [ 136.8495898, 35.457527168 ], [ 136.85014432, 35.457528038 ], [ 136.85069821, 35.457529723 ], [ 136.850808539, 35.457526009 ], [ 136.851223696, 35.457417818 ], [ 136.851743555, 35.457353951 ], [ 136.852266804, 35.457478054 ], [ 136.852828602, 35.457398122 ], [ 136.853376777, 35.457442605 ], [ 136.853926866, 35.457469739 ], [ 136.854471363, 35.457547802 ], [ 136.855023214, 35.457558758 ], [ 136.85557303, 35.457588382 ], [ 136.856114282, 35.457643293 ], [ 136.856650598, 35.457701288 ], [ 136.857188153, 35.45778059 ], [ 136.857783559, 35.45788034 ], [ 136.858389269, 35.457773888 ], [ 136.858915313, 35.457639418 ], [ 136.859445553, 35.457517305 ], [ 136.859988151, 35.457396591 ], [ 136.86051003, 35.457252322 ], [ 136.860926031, 35.457227734 ], [ 136.861404184, 35.457360378 ], [ 136.861977165, 35.457481452 ], [ 136.862518982, 35.457562708 ], [ 136.863132771, 35.457597028 ], [ 136.863697986, 35.457526545 ], [ 136.864248915, 35.457498044 ], [ 136.864784588, 35.457373061 ], [ 136.865332385, 35.457324669 ], [ 136.86588052, 35.457278579 ], [ 136.866426074, 35.45721611 ], [ 136.866968126, 35.457178418 ], [ 136.867587663, 35.457216144 ], [ 136.868593132, 35.457405695 ], [ 136.869799018, 35.457552682 ], [ 136.870762909, 35.457533382 ], [ 136.871796086, 35.457821053 ], [ 136.872699994, 35.458120321 ], [ 136.872968068, 35.458159988 ], [ 136.873348128, 35.45819457 ], [ 136.873677252, 35.458102007 ] ] ] } }
]
}
