{
"type": "FeatureCollection",
"name": "A31a-42-25_21_8505090253_20",
"crs": { "type": "name", "properties": { "name": "urn:ogc:def:crs:EPSG::6668" } },
"xy_coordinate_resolution": 1e-09,
"features": [
{ "type": "Feature", "properties": { "A31a_401": "8505090253", "A31a_402": "加茂川", "A31a_403": "21", "A31a_404": "岐阜県", "A31a_405": 2 }, "geometry": { "type": "Polygon", "coordinates": [ [ [ 137.024994058, 35.455075497 ], [ 137.025038753, 35.455066085 ], [ 137.025259064, 35.455091082 ], [ 137.025453584, 35.455122684 ], [ 137.025683928, 35.455178374 ], [ 137.025670933, 35.455092173 ], [ 137.025576538, 35.455057967 ], [ 137.025454432, 35.45498395 ], [ 137.025335446, 35.454928337 ], [ 137.025275482, 35.45484963 ], [ 137.025132091, 35.454803429 ], [ 137.025063307, 35.454801712 ], [ 137.025021985, 35.454815067 ], [ 137.024953791, 35.454831149 ], [ 137.024850734, 35.454857125 ], [ 137.024773416, 35.454885776 ], [ 137.024576059, 35.454955256 ], [ 137.024454598, 35.454983529 ], [ 137.024331663, 35.45499697 ], [ 137.024274724, 35.454993461 ], [ 137.024184509, 35.454988163 ], [ 137.024116772, 35.454982226 ], [ 137.024105534, 35.45498023 ], [ 137.024059618, 35.45496664 ], [ 137.024013883, 35.454943883 ], [ 137.023968649, 35.454923677 ], [ 137.023864233, 35.454861129 ], [ 137.02379186, 35.45480383 ], [ 137.023671655, 35.454699917 ], [ 137.023433178, 35.454465998 ], [ 137.023411789, 35.454446947 ], [ 137.023230674, 35.454277685 ], [ 137.023089906, 35.454125939 ], [ 137.023018223, 35.454032884 ], [ 137.022973612, 35.453952987 ], [ 137.022935063, 35.45388587 ], [ 137.022881631, 35.453782711 ], [ 137.022874756, 35.453766046 ], [ 137.022806461, 35.453592905 ], [ 137.022756223, 35.453442538 ], [ 137.022715357, 35.453327117 ], [ 137.022709655, 35.453303625 ], [ 137.022678975, 35.453187151 ], [ 137.022678857, 35.453139554 ], [ 137.02266662, 35.453110544 ], [ 137.022647986, 35.453069231 ], [ 137.022611237, 35.452985466 ], [ 137.022571574, 35.452900323 ], [ 137.022559197, 35.452879697 ], [ 137.022422473, 35.452669075 ], [ 137.022240037, 35.452421322 ], [ 137.022050268, 35.452163205 ], [ 137.022003494, 35.452101358 ], [ 137.021919, 35.451981222 ], [ 137.021818411, 35.451819033 ], [ 137.021661043, 35.451578744 ], [ 137.021618013, 35.451527783 ], [ 137.021497618, 35.451348326 ], [ 137.021463931, 35.451315677 ], [ 137.021463793, 35.451315465 ], [ 137.021384627, 35.45119296 ], [ 137.021334387, 35.451093324 ], [ 137.02130075, 35.451034611 ], [ 137.021248454, 35.450922434 ], [ 137.021138326, 35.450780977 ], [ 137.021004785, 35.450619195 ], [ 137.02092959, 35.450518013 ], [ 137.020887459, 35.450460745 ], [ 137.020767846, 35.450292996 ], [ 137.020715437, 35.450215786 ], [ 137.020654344, 35.450128473 ], [ 137.020582473, 35.450021997 ], [ 137.02047857, 35.449875246 ], [ 137.020430595, 35.44980482 ], [ 137.020398453, 35.449748056 ], [ 137.020368269, 35.449680801 ], [ 137.020334426, 35.449608744 ], [ 137.02030743, 35.449549712 ], [ 137.020285296, 35.44949049 ], [ 137.020260237, 35.449418387 ], [ 137.020233251, 35.449346892 ], [ 137.020073172, 35.449096315 ], [ 137.019979516, 35.448991327 ], [ 137.019895259, 35.448893482 ], [ 137.019830593, 35.448828052 ], [ 137.0198198, 35.448819766 ], [ 137.019743563, 35.448782221 ], [ 137.019667763, 35.448758975 ], [ 137.019603102, 35.4487486 ], [ 137.019553172, 35.448739208 ], [ 137.01948498, 35.448723844 ], [ 137.019428851, 35.44870553 ], [ 137.019379085, 35.448668436 ], [ 137.019304955, 35.448617865 ], [ 137.01905404, 35.448435774 ], [ 137.019029845, 35.448416441 ], [ 137.018990804, 35.448378613 ], [ 137.018962699, 35.448344216 ], [ 137.018934691, 35.448287804 ], [ 137.018895216, 35.448246996 ], [ 137.018799902, 35.448057442 ], [ 137.018735885, 35.447912829 ], [ 137.018665784, 35.447793982 ], [ 137.018586376, 35.447682961 ], [ 137.018501302, 35.447589322 ], [ 137.018479861, 35.447566295 ], [ 137.018382244, 35.447466032 ], [ 137.018282981, 35.44737812 ], [ 137.018174599, 35.447303037 ], [ 137.018095887, 35.447254242 ], [ 137.017895245, 35.447150908 ], [ 137.017782757, 35.447109831 ], [ 137.017528874, 35.447038275 ], [ 137.01744859, 35.447024789 ], [ 137.017367122, 35.447013347 ], [ 137.01734419, 35.447011499 ], [ 137.017221552, 35.446995361 ], [ 137.017008302, 35.447003481 ], [ 137.016808642, 35.447024893 ], [ 137.016615776, 35.447046382 ], [ 137.016433999, 35.447061738 ], [ 137.01632033, 35.447060964 ], [ 137.016226958, 35.447053904 ], [ 137.016186114, 35.447052334 ], [ 137.016113117, 35.447045982 ], [ 137.016017506, 35.447028343 ], [ 137.015881274, 35.446991439 ], [ 137.015794646, 35.446960638 ], [ 137.015706146, 35.446923315 ], [ 137.015590627, 35.446870403 ], [ 137.015479595, 35.446816921 ], [ 137.015409384, 35.446777503 ], [ 137.015330935, 35.44673603 ], [ 137.015205788, 35.446664104 ], [ 137.015134296, 35.446617983 ], [ 137.015048116, 35.446553922 ], [ 137.014974945, 35.446488754 ], [ 137.014951855, 35.446460354 ], [ 137.01491736, 35.446405884 ], [ 137.014889625, 35.446335348 ], [ 137.014877436, 35.446267861 ], [ 137.014876135, 35.446264327 ], [ 137.014790148, 35.446121146 ], [ 137.014778276, 35.446092025 ], [ 137.014773368, 35.44605245 ], [ 137.014685232, 35.445978013 ], [ 137.014606116, 35.445910862 ], [ 137.014571322, 35.445858509 ], [ 137.014531487, 35.445797603 ], [ 137.014490942, 35.445714645 ], [ 137.014440411, 35.445628103 ], [ 137.01439911, 35.445550391 ], [ 137.014345642, 35.445461334 ], [ 137.014299264, 35.44528324 ], [ 137.014202797, 35.444885594 ], [ 137.014136049, 35.444629278 ], [ 137.014101901, 35.444542442 ], [ 137.014091305, 35.444526601 ], [ 137.014010678, 35.444415643 ], [ 137.013932652, 35.444324385 ], [ 137.013808598, 35.444202799 ], [ 137.013659079, 35.444062499 ], [ 137.013580422, 35.444009355 ], [ 137.013265864, 35.4438028 ], [ 137.013242424, 35.443781432 ], [ 137.013067726, 35.443661546 ], [ 137.01286889, 35.443543572 ], [ 137.012695609, 35.443468368 ], [ 137.012555424, 35.443411655 ], [ 137.012460517, 35.443380176 ], [ 137.012276525, 35.443326374 ], [ 137.012175932, 35.443301749 ], [ 137.012035765, 35.443273961 ], [ 137.011892227, 35.443250753 ], [ 137.011631967, 35.443221077 ], [ 137.011321023, 35.443183137 ], [ 137.011224649, 35.443175709 ], [ 137.011061816, 35.443170615 ], [ 137.011040067, 35.443169766 ], [ 137.010996241, 35.443176068 ], [ 137.010850351, 35.443185273 ], [ 137.010589981, 35.443205042 ], [ 137.010392641, 35.443222878 ], [ 137.009927701, 35.443273117 ], [ 137.00985342, 35.443260078 ], [ 137.009587211, 35.443214736 ], [ 137.009264861, 35.443158879 ], [ 137.009076917, 35.443115575 ], [ 137.008962906, 35.443087606 ], [ 137.008880553, 35.443063376 ], [ 137.008826298, 35.443055854 ], [ 137.008725356, 35.443038135 ], [ 137.008502176, 35.442987305 ], [ 137.008303584, 35.442933805 ], [ 137.008185812, 35.442886513 ], [ 137.008033784, 35.44281102 ], [ 137.008011205, 35.442797822 ], [ 137.007866373, 35.442712741 ], [ 137.00775956, 35.442641078 ], [ 137.007618821, 35.442542739 ], [ 137.007479361, 35.442427489 ], [ 137.007332876, 35.442310832 ], [ 137.00724637, 35.442243726 ], [ 137.006862454, 35.441946361 ], [ 137.00661029, 35.441750384 ], [ 137.006446971, 35.441623577 ], [ 137.006271264, 35.441485051 ], [ 137.005973991, 35.441252312 ], [ 137.00566114, 35.441002138 ], [ 137.005654892, 35.440997163 ], [ 137.00528803, 35.440703114 ], [ 137.004895265, 35.440379477 ], [ 137.004825376, 35.440317583 ], [ 137.004706585, 35.440216344 ], [ 137.004518967, 35.440046233 ], [ 137.004465227, 35.439997448 ], [ 137.004293083, 35.43983159 ], [ 137.004173847, 35.439718033 ], [ 137.004159136, 35.439703399 ], [ 137.003985997, 35.439515972 ], [ 137.003674004, 35.439211404 ], [ 137.003481451, 35.439016855 ], [ 137.003296817, 35.438841015 ], [ 137.002997908, 35.438559236 ], [ 137.00276193, 35.438334206 ], [ 137.002712534, 35.438285462 ], [ 137.002547592, 35.438112083 ], [ 137.002467606, 35.438023184 ], [ 137.002338363, 35.437905263 ], [ 137.002239018, 35.43779916 ], [ 137.002114874, 35.437662247 ], [ 137.002101997, 35.437646926 ], [ 137.0020135, 35.437536514 ], [ 137.001958695, 35.437461968 ], [ 137.001870051, 35.437338515 ], [ 137.001805507, 35.437239973 ], [ 137.001633667, 35.436964883 ], [ 137.001622191, 35.436946139 ], [ 137.001498919, 35.436765372 ], [ 137.001351763, 35.436528517 ], [ 137.001299437, 35.436450809 ], [ 137.001202125, 35.436273698 ], [ 137.001108653, 35.4361291 ], [ 137.001061622, 35.436052646 ], [ 137.001015427, 35.435959384 ], [ 137.000988496, 35.435897635 ], [ 137.000975998, 35.435839571 ], [ 137.000963026, 35.435778403 ], [ 137.000952559, 35.435738924 ], [ 137.000948652, 35.435662975 ], [ 137.000948467, 35.435605708 ], [ 137.000956956, 35.435510037 ], [ 137.000963324, 35.435458183 ], [ 137.000972265, 35.435389559 ], [ 137.000985802, 35.435286028 ], [ 137.001015141, 35.435101145 ], [ 137.001074511, 35.434702247 ], [ 137.001106979, 35.434515962 ], [ 137.001119467, 35.434443258 ], [ 137.00114493, 35.434274295 ], [ 137.001195872, 35.433982708 ], [ 137.001237958, 35.433751984 ], [ 137.001254496, 35.433656311 ], [ 137.001258566, 35.433633677 ], [ 137.001276219, 35.433543464 ], [ 137.001293561, 35.433437597 ], [ 137.00132643, 35.433357412 ], [ 137.00136862, 35.433280591 ], [ 137.001399241, 35.433242097 ], [ 137.00150085, 35.433131972 ], [ 137.001653247, 35.432956283 ], [ 137.001672045, 35.432935751 ], [ 137.001750145, 35.432862612 ], [ 137.001858244, 35.432748648 ], [ 137.001917326, 35.432675354 ], [ 137.001998406, 35.432556107 ], [ 137.002066731, 35.432426355 ], [ 137.002147386, 35.432238091 ], [ 137.002220554, 35.43205825 ], [ 137.002222666, 35.432035305 ], [ 137.002234421, 35.432018536 ], [ 137.00225122, 35.431970871 ], [ 137.002634121, 35.431766951 ], [ 137.002736496, 35.431774919 ], [ 137.002737158, 35.43177461 ], [ 137.003572724, 35.431405014 ], [ 137.00324328, 35.430901034 ], [ 137.002829109, 35.43108576 ], [ 137.002581941, 35.43119338 ], [ 137.002417702, 35.43128351 ], [ 137.002426094, 35.431292907 ], [ 137.002200173, 35.431424444 ], [ 137.002118549, 35.431449766 ], [ 137.001993425, 35.431481725 ], [ 137.001934555, 35.431506169 ], [ 137.001881968, 35.431542095 ], [ 137.001859644, 35.43160474 ], [ 137.001854622, 35.431684698 ], [ 137.001881528, 35.431901542 ], [ 137.00189144, 35.431977191 ], [ 137.001889867, 35.432023529 ], [ 137.001829617, 35.432180591 ], [ 137.001764908, 35.43234673 ], [ 137.001709181, 35.432462014 ], [ 137.001641264, 35.432568197 ], [ 137.001591188, 35.43263353 ], [ 137.001498864, 35.432735138 ], [ 137.00143214, 35.432800448 ], [ 137.001244122, 35.433022735 ], [ 137.001132875, 35.433150659 ], [ 137.001099489, 35.433195122 ], [ 137.001052695, 35.433283168 ], [ 137.001015882, 35.43337486 ], [ 137.000994548, 35.433495641 ], [ 137.000974359, 35.433599165 ], [ 137.000953022, 35.433720854 ], [ 137.000910376, 35.433951515 ], [ 137.000858725, 35.434243024 ], [ 137.000832853, 35.434411941 ], [ 137.00078773, 35.434670913 ], [ 137.000728381, 35.435069817 ], [ 137.000699051, 35.435254703 ], [ 137.000685521, 35.435358236 ], [ 137.000668606, 35.435488106 ], [ 137.000658387, 35.435600727 ], [ 137.000658249, 35.435667944 ], [ 137.000662506, 35.435756968 ], [ 137.00067351, 35.435803309 ], [ 137.000687791, 35.435875088 ], [ 137.00070208, 35.435943234 ], [ 137.000731631, 35.436016154 ], [ 137.000783282, 35.436126832 ], [ 137.000836463, 35.436218384 ], [ 137.000926888, 35.436367447 ], [ 137.001020693, 35.436549989 ], [ 137.00107147, 35.436630206 ], [ 137.001214148, 35.436874748 ], [ 137.001346659, 35.437081183 ], [ 137.001534433, 35.437367263 ], [ 137.001604859, 35.437469484 ], [ 137.001701133, 35.437597434 ], [ 137.001760622, 35.437674591 ], [ 137.001869449, 35.437804484 ], [ 137.00199603, 35.437944696 ], [ 137.002097329, 35.438053364 ], [ 137.002228936, 35.438174296 ], [ 137.002310607, 35.438265285 ], [ 137.002478986, 35.438442789 ], [ 137.002529393, 35.438492712 ], [ 137.002760179, 35.438721286 ], [ 137.003052555, 35.439007525 ], [ 137.003428129, 35.439379014 ], [ 137.003744007, 35.439680928 ], [ 137.003919439, 35.439866789 ], [ 137.00405417, 35.439998 ], [ 137.004227281, 35.440168442 ], [ 137.004281335, 35.440218614 ], [ 137.004470134, 35.440393573 ], [ 137.004661306, 35.440560186 ], [ 137.005063287, 35.44088637 ], [ 137.005444914, 35.441187476 ], [ 137.00575915, 35.441436465 ], [ 137.006057724, 35.441668091 ], [ 137.006397047, 35.441933169 ], [ 137.006648479, 35.442129775 ], [ 137.007122722, 35.442499353 ], [ 137.007277884, 35.44262288 ], [ 137.007425987, 35.44274447 ], [ 137.007575074, 35.442848503 ], [ 137.007688279, 35.442924264 ], [ 137.007867314, 35.44302959 ], [ 137.008039818, 35.443116527 ], [ 137.008173141, 35.443171298 ], [ 137.008397492, 35.44323518 ], [ 137.008651047, 35.443295419 ], [ 137.008766228, 35.443316593 ], [ 137.008915313, 35.443338626 ], [ 137.009035377, 35.443350987 ], [ 137.009232348, 35.443368586 ], [ 137.009567471, 35.443380585 ], [ 137.009841815, 35.4433896 ], [ 137.010377415, 35.443409899 ], [ 137.010572414, 35.443420819 ], [ 137.010829692, 35.443439034 ], [ 137.010973848, 35.443451135 ], [ 137.011038209, 35.443451218 ], [ 137.011195973, 35.443450137 ], [ 137.011289452, 35.443453871 ], [ 137.011591599, 35.443479694 ], [ 137.011845196, 35.443499095 ], [ 137.0119853, 35.443516534 ], [ 137.012213525, 35.443553308 ], [ 137.012382667, 35.443588355 ], [ 137.012471042, 35.443609884 ], [ 137.012602855, 35.443651313 ], [ 137.012768241, 35.443707142 ], [ 137.012961265, 35.443800784 ], [ 137.013134651, 35.443897904 ], [ 137.013431588, 35.444123173 ], [ 137.013499773, 35.444175306 ], [ 137.013625512, 35.444311544 ], [ 137.013729232, 35.444427694 ], [ 137.013792858, 35.444513965 ], [ 137.013856693, 35.444617845 ], [ 137.013909758, 35.444712715 ], [ 137.014007707, 35.444951183 ], [ 137.01415535, 35.445324545 ], [ 137.014264795, 35.44558601 ], [ 137.014293581, 35.445667041 ], [ 137.014330004, 35.445757324 ], [ 137.014357322, 35.445843791 ], [ 137.014387068, 35.445907372 ], [ 137.01441317, 35.44596203 ], [ 137.014479845, 35.44603248 ], [ 137.014554175, 35.446110579 ], [ 137.014553313, 35.446151685 ], [ 137.014560629, 35.446182013 ], [ 137.01459155, 35.446270558 ], [ 137.014604018, 35.446318746 ], [ 137.014623186, 35.446331408 ], [ 137.014640725, 35.446417064 ], [ 137.01467458, 35.446502503 ], [ 137.014714961, 35.44656873 ], [ 137.014741629, 35.446603457 ], [ 137.01482507, 35.446684407 ], [ 137.014924212, 35.446764904 ], [ 137.015007421, 35.446823594 ], [ 137.015156105, 35.446916243 ], [ 137.015334737, 35.447016729 ], [ 137.015465179, 35.447079738 ], [ 137.015600894, 35.447140855 ], [ 137.015704771, 35.447183383 ], [ 137.015806252, 35.447218424 ], [ 137.015965747, 35.44726052 ], [ 137.016077865, 35.44728083 ], [ 137.016163667, 35.447288698 ], [ 137.016303602, 35.447295157 ], [ 137.016415393, 35.447292503 ], [ 137.016594325, 35.447271703 ], [ 137.016784363, 35.447244457 ], [ 137.016981291, 35.447217095 ], [ 137.017191815, 35.447202572 ], [ 137.01733214, 35.447216891 ], [ 137.017400387, 35.447228353 ], [ 137.017467849, 35.447241313 ], [ 137.017681373, 35.447307673 ], [ 137.017776065, 35.447344701 ], [ 137.017943338, 35.447437297 ], [ 137.018008408, 35.447480412 ], [ 137.01809739, 35.447545961 ], [ 137.018176918, 35.447622177 ], [ 137.018253673, 35.447707445 ], [ 137.018350639, 35.447818607 ], [ 137.01842468, 35.447927629 ], [ 137.01848932, 35.44804432 ], [ 137.01854707, 35.448186306 ], [ 137.018633933, 35.448372047 ], [ 137.018671263, 35.448411837 ], [ 137.018696762, 35.448467032 ], [ 137.018723155, 35.448500582 ], [ 137.018783632, 35.448560708 ], [ 137.019031621, 35.448784176 ], [ 137.019106528, 35.448847396 ], [ 137.019093706, 35.448859251 ], [ 137.019157318, 35.448893592 ], [ 137.019214571, 35.448919354 ], [ 137.019284356, 35.448943189 ], [ 137.019335657, 35.448958763 ], [ 137.01940237, 35.448977198 ], [ 137.019481558, 35.449011746 ], [ 137.019573015, 35.449069447 ], [ 137.019634929, 35.449122833 ], [ 137.019716415, 35.449203862 ], [ 137.0198085, 35.449290734 ], [ 137.019970194, 35.449503481 ], [ 137.01999868, 35.449565494 ], [ 137.020025699, 35.449628154 ], [ 137.020049828, 35.449679535 ], [ 137.020079239, 35.449730506 ], [ 137.020116538, 35.449792765 ], [ 137.020183751, 35.449908388 ], [ 137.020233263, 35.449979546 ], [ 137.020340403, 35.450127803 ], [ 137.020414605, 35.450235331 ], [ 137.020477629, 35.450323497 ], [ 137.020531736, 35.450401441 ], [ 137.020655092, 35.450570761 ], [ 137.020773781, 35.450728735 ], [ 137.020907453, 35.450888873 ], [ 137.021017705, 35.451028922 ], [ 137.021070098, 35.451140102 ], [ 137.021103789, 35.451198274 ], [ 137.021154123, 35.451297013 ], [ 137.021233557, 35.451418573 ], [ 137.021267291, 35.451451201 ], [ 137.021387911, 35.451630558 ], [ 137.02143101, 35.451681489 ], [ 137.021588678, 35.451921644 ], [ 137.021689468, 35.452083743 ], [ 137.021817721, 35.452265664 ], [ 137.021994316, 35.452523525 ], [ 137.022164044, 35.452770606 ], [ 137.022290211, 35.452980357 ], [ 137.022346932, 35.453082879 ], [ 137.022389271, 35.453163608 ], [ 137.022410682, 35.453203431 ], [ 137.022424855, 35.45323141 ], [ 137.02242774, 35.453277544 ], [ 137.022465866, 35.453390137 ], [ 137.022473067, 35.453412858 ], [ 137.022521596, 35.453524392 ], [ 137.022581834, 35.453669818 ], [ 137.022661966, 35.4538373 ], [ 137.022725384, 35.453964703 ], [ 137.022765471, 35.454037142 ], [ 137.022812147, 35.454123283 ], [ 137.022886795, 35.454224098 ], [ 137.023033744, 35.454389187 ], [ 137.02322402, 35.454574183 ], [ 137.023528955, 35.454855881 ], [ 137.023669963, 35.454968625 ], [ 137.023754408, 35.455030105 ], [ 137.023874911, 35.455097244 ], [ 137.02392677, 35.45511903 ], [ 137.023979416, 35.45514325 ], [ 137.024031845, 35.455158047 ], [ 137.024114174, 35.455172594 ], [ 137.024207171, 35.455186296 ], [ 137.024266102, 35.455195132 ], [ 137.024393715, 35.455192658 ], [ 137.024520471, 35.455175033 ], [ 137.024728151, 35.455122939 ], [ 137.024810259, 35.455101311 ], [ 137.024920572, 35.455085057 ], [ 137.024994058, 35.455075497 ] ] ] } },
{ "type": "Feature", "properties": { "A31a_401": "8505090253", "A31a_402": "加茂川", "A31a_403": "21", "A31a_404": "岐阜県", "A31a_405": 2 }, "geometry": { "type": "Polygon", "coordinates": [ [ [ 137.026007112, 35.455512608 ], [ 137.025958846, 35.455470984 ], [ 137.025816777, 35.455379972 ], [ 137.025740029, 35.455345666 ], [ 137.025627695, 35.455307357 ], [ 137.02550633, 35.455267186 ], [ 137.025299839, 35.455246694 ], [ 137.025026101, 35.455231842 ], [ 137.024946562, 35.455225331 ], [ 137.024831343, 35.455230083 ], [ 137.024731469, 35.455243931 ], [ 137.024612345, 35.4552673 ], [ 137.024481302, 35.455292579 ], [ 137.024395996, 35.45530289 ], [ 137.024302094, 35.455304873 ], [ 137.024135288, 35.455289296 ], [ 137.024021985, 35.455266221 ], [ 137.024003382, 35.455262117 ], [ 137.023942051, 35.455248586 ], [ 137.023808523, 35.455198033 ], [ 137.023762103, 35.455179243 ], [ 137.023726377, 35.455156992 ], [ 137.023628367, 35.455092004 ], [ 137.023580549, 35.455054051 ], [ 137.023496684, 35.45498073 ], [ 137.02331798, 35.454825082 ], [ 137.023218408, 35.454736589 ], [ 137.023133807, 35.454655297 ], [ 137.022994348, 35.454518461 ], [ 137.022936294, 35.454451055 ], [ 137.022801009, 35.454301765 ], [ 137.022751616, 35.454243051 ], [ 137.022703945, 35.454175959 ], [ 137.022653616, 35.454086934 ], [ 137.022601985, 35.453986674 ], [ 137.02255085, 35.453893233 ], [ 137.022511706, 35.453821704 ], [ 137.022415638, 35.453640685 ], [ 137.022310395, 35.453436262 ], [ 137.022271225, 35.453356326 ], [ 137.022258303, 35.453310962 ], [ 137.022234527, 35.453244597 ], [ 137.022209302, 35.453193924 ], [ 137.0221857, 35.453158852 ], [ 137.022156928, 35.453089495 ], [ 137.022119735, 35.453011236 ], [ 137.022054333, 35.452896886 ], [ 137.021996011, 35.45280329 ], [ 137.021930888, 35.452703599 ], [ 137.021682579, 35.452336797 ], [ 137.021547143, 35.452133668 ], [ 137.021417198, 35.451933115 ], [ 137.02125671, 35.451693345 ], [ 137.021213228, 35.451626161 ], [ 137.021110224, 35.451473385 ], [ 137.021082133, 35.451431719 ], [ 137.021019485, 35.451348787 ], [ 137.020976404, 35.451297352 ], [ 137.020915306, 35.451225983 ], [ 137.02078593, 35.451040407 ], [ 137.020725872, 35.450933509 ], [ 137.020663472, 35.450825553 ], [ 137.020579471, 35.450695614 ], [ 137.020520804, 35.450606331 ], [ 137.020466, 35.450527262 ], [ 137.020343072, 35.45035562 ], [ 137.020246031, 35.450222192 ], [ 137.02018464, 35.450130896 ], [ 137.020122549, 35.450047271 ], [ 137.020082089, 35.449990568 ], [ 137.019982158, 35.449831709 ], [ 137.019948775, 35.449762638 ], [ 137.019906298, 35.449743709 ], [ 137.019762281, 35.449524689 ], [ 137.019595081, 35.449320794 ], [ 137.019509247, 35.449231809 ], [ 137.019440541, 35.449186299 ], [ 137.019435192, 35.449183492 ], [ 137.019366995, 35.449147697 ], [ 137.019294643, 35.449116008 ], [ 137.019194569, 35.449065522 ], [ 137.019071747, 35.449011053 ], [ 137.018856784, 35.448950414 ], [ 137.018823488, 35.448934029 ], [ 137.018733642, 35.448899521 ], [ 137.018694458, 35.448864789 ], [ 137.018546588, 35.448600623 ], [ 137.01849654, 35.448497794 ], [ 137.018417604, 35.448310789 ], [ 137.018336994, 35.44814806 ], [ 137.018282887, 35.448039367 ], [ 137.018229263, 35.447937318 ], [ 137.018186845, 35.447876954 ], [ 137.01814069, 35.447817665 ], [ 137.018078269, 35.447745824 ], [ 137.017992733, 35.44766573 ], [ 137.017899107, 35.447592982 ], [ 137.017851289, 35.447563625 ], [ 137.017664618, 35.447476458 ], [ 137.017505986, 35.44741949 ], [ 137.017316247, 35.447376109 ], [ 137.017218524, 35.44736457 ], [ 137.017085947, 35.447357202 ], [ 137.016916092, 35.447366529 ], [ 137.016677374, 35.44739757 ], [ 137.016511932, 35.44742189 ], [ 137.016380956, 35.447438909 ], [ 137.016265148, 35.447441385 ], [ 137.016202374, 35.447438991 ], [ 137.016187559, 35.447438426 ], [ 137.016099914, 35.447433348 ], [ 137.015920314, 35.447401168 ], [ 137.015828781, 35.447376528 ], [ 137.015643698, 35.447312322 ], [ 137.01550709, 35.447256678 ], [ 137.015294693, 35.447159678 ], [ 137.015170498, 35.447092299 ], [ 137.01497923, 35.446978061 ], [ 137.014878906, 35.446905721 ], [ 137.014788561, 35.446840206 ], [ 137.014711518, 35.446784246 ], [ 137.014602365, 35.446685099 ], [ 137.014515394, 35.446595971 ], [ 137.014441172, 35.446515943 ], [ 137.014378045, 35.446438654 ], [ 137.014357435, 35.446405762 ], [ 137.01433931, 35.446376838 ], [ 137.014333308, 35.446322329 ], [ 137.014274555, 35.446227756 ], [ 137.014243101, 35.446183693 ], [ 137.014249963, 35.44600105 ], [ 137.014229681, 35.445941602 ], [ 137.014211456, 35.445893436 ], [ 137.014179945, 35.445827087 ], [ 137.014152184, 35.44578654 ], [ 137.014137023, 35.445737241 ], [ 137.014081602, 35.445588522 ], [ 137.014023539, 35.445442482 ], [ 137.013976578, 35.445322318 ], [ 137.013915359, 35.445156393 ], [ 137.013831955, 35.444942826 ], [ 137.013774483, 35.444811043 ], [ 137.013690438, 35.444643801 ], [ 137.013566433, 35.444476508 ], [ 137.013475601, 35.444376474 ], [ 137.013399134, 35.44431143 ], [ 137.01335923, 35.444281859 ], [ 137.013318242, 35.444238206 ], [ 137.013216834, 35.444154963 ], [ 137.013109591, 35.444075929 ], [ 137.013046296, 35.444033379 ], [ 137.012995684, 35.443999354 ], [ 137.012821603, 35.443899668 ], [ 137.012618091, 35.443808574 ], [ 137.012380138, 35.443733785 ], [ 137.012193737, 35.443692217 ], [ 137.011966836, 35.443643329 ], [ 137.011908574, 35.443636442 ], [ 137.011846416, 35.443635454 ], [ 137.011622719, 35.443652425 ], [ 137.011344551, 35.443634445 ], [ 137.011235932, 35.443627856 ], [ 137.011059477, 35.443609915 ], [ 137.011004491, 35.443606776 ], [ 137.010912973, 35.443601551 ], [ 137.01038967, 35.443570444 ], [ 137.010057265, 35.443550029 ], [ 137.009799776, 35.443534252 ], [ 137.009470146, 35.443514294 ], [ 137.009334175, 35.443512754 ], [ 137.009141069, 35.443495243 ], [ 137.008881393, 35.443463111 ], [ 137.008803137, 35.443451947 ], [ 137.008666114, 35.4434324 ], [ 137.008530737, 35.443410422 ], [ 137.008350167, 35.443366042 ], [ 137.008136906, 35.443300221 ], [ 137.007964987, 35.443233459 ], [ 137.00779587, 35.443153302 ], [ 137.007627891, 35.443059067 ], [ 137.007471458, 35.44295964 ], [ 137.007147881, 35.44274687 ], [ 137.007007471, 35.44261696 ], [ 137.006905183, 35.442536183 ], [ 137.00683241, 35.442478713 ], [ 137.006525996, 35.442240014 ], [ 137.006203519, 35.441988126 ], [ 137.005972734, 35.441807333 ], [ 137.005631845, 35.441540967 ], [ 137.005303106, 35.441283929 ], [ 137.004868946, 35.440946588 ], [ 137.004683639, 35.44079977 ], [ 137.004522606, 35.440672057 ], [ 137.004425447, 35.440590355 ], [ 137.004291868, 35.44047135 ], [ 137.004127353, 35.440319546 ], [ 137.004029764, 35.440228468 ], [ 137.003845389, 35.440029168 ], [ 137.003793687, 35.43997717 ], [ 137.003678161, 35.439860981 ], [ 137.003583379, 35.439769325 ], [ 137.003367583, 35.439556111 ], [ 137.003073455, 35.439267642 ], [ 137.002818103, 35.439016799 ], [ 137.002657533, 35.438857612 ], [ 137.002480899, 35.438686199 ], [ 137.002385753, 35.438590623 ], [ 137.002359888, 35.43856464 ], [ 137.002241219, 35.438449186 ], [ 137.002029689, 35.438264236 ], [ 137.00197998, 35.438201545 ], [ 137.001946753, 35.438171334 ], [ 137.001778248, 35.437995769 ], [ 137.001681254, 35.43789671 ], [ 137.001520009, 35.437685815 ], [ 137.001404136, 35.437547562 ], [ 137.001382065, 35.437529347 ], [ 137.001254446, 35.437344494 ], [ 137.001246691, 35.43733326 ], [ 137.001226458, 35.437284973 ], [ 137.001207102, 35.437252246 ], [ 137.001152904, 35.437160429 ], [ 137.001139955, 35.437139503 ], [ 137.001070488, 35.437027243 ], [ 137.000969817, 35.436865419 ], [ 137.000884082, 35.436727687 ], [ 137.000813281, 35.436613592 ], [ 137.000767962, 35.436522695 ], [ 137.000736752, 35.436458652 ], [ 137.000644931, 35.43628121 ], [ 137.000632543, 35.436257271 ], [ 137.00059583, 35.43616189 ], [ 137.000545166, 35.436033546 ], [ 137.0005254, 35.435963617 ], [ 137.000507436, 35.435897429 ], [ 137.000482322, 35.43578778 ], [ 137.000478842, 35.435719637 ], [ 137.000482764, 35.435572503 ], [ 137.000491407, 35.435476726 ], [ 137.000512065, 35.43531 ], [ 137.000532591, 35.435115458 ], [ 137.000559862, 35.43496451 ], [ 137.00059329, 35.434737182 ], [ 137.000639788, 35.434464913 ], [ 137.00065207, 35.434392991 ], [ 137.000690494, 35.434143524 ], [ 137.000717965, 35.433974718 ], [ 137.000752194, 35.433788084 ], [ 137.000791889, 35.43360577 ], [ 137.000799728, 35.433569768 ], [ 137.000829942, 35.433378404 ], [ 137.000864696, 35.433269261 ], [ 137.000913565, 35.433165276 ], [ 137.0009844, 35.433065175 ], [ 137.001103968, 35.432927888 ], [ 137.001250284, 35.432758522 ], [ 137.001396588, 35.432594294 ], [ 137.001465772, 35.432484604 ], [ 137.001519448, 35.43238122 ], [ 137.001596677, 35.43222332 ], [ 137.001637677, 35.432129601 ], [ 137.001675537, 35.432035877 ], [ 137.001680384, 35.4319678 ], [ 137.001619372, 35.43188267 ], [ 137.00159551, 35.431749156 ], [ 137.001586665, 35.431677171 ], [ 137.001586579, 35.431636463 ], [ 137.001590019, 35.431581967 ], [ 137.001601234, 35.431524756 ], [ 137.001620179, 35.431486631 ], [ 137.001675841, 35.43140314 ], [ 137.0017216, 35.431354931 ], [ 137.00177076, 35.431323503 ], [ 137.001815878, 35.431313837 ], [ 137.001866493, 35.431316272 ], [ 137.00196468, 35.431263649 ], [ 137.001890497, 35.431177255 ], [ 137.001898323, 35.431149107 ], [ 137.001955202, 35.431108444 ], [ 137.001995033, 35.431072938 ], [ 137.0020149, 35.431044621 ], [ 137.002028484, 35.430995774 ], [ 137.002027697, 35.430836812 ], [ 137.002045613, 35.430758719 ], [ 137.002082386, 35.430685193 ], [ 137.002117998, 35.430637099 ], [ 137.002210275, 35.430553704 ], [ 137.002320951, 35.430557116 ], [ 137.002382609, 35.430611241 ], [ 137.002434662, 35.430664905 ], [ 137.002522092, 35.430785834 ], [ 137.002590788, 35.430878675 ], [ 137.002807398, 35.430782685 ], [ 137.002841719, 35.430823607 ], [ 137.003116858, 35.430707634 ], [ 137.002787411, 35.430203639 ], [ 137.002788037, 35.430203295 ], [ 137.002532074, 35.430265702 ], [ 137.002249415, 35.430264262 ], [ 137.001882874, 35.430378402 ], [ 137.001613297, 35.430599645 ], [ 137.00160477, 35.430626187 ], [ 137.001579037, 35.430669123 ], [ 137.001531366, 35.43072718 ], [ 137.001466718, 35.430796029 ], [ 137.00128093, 35.431107362 ], [ 137.001237644, 35.431179184 ], [ 137.001189062, 35.431298037 ], [ 137.001174346, 35.431350898 ], [ 137.001170038, 35.431427763 ], [ 137.001174206, 35.431500077 ], [ 137.001180735, 35.431553814 ], [ 137.001202509, 35.431648082 ], [ 137.001257531, 35.431822322 ], [ 137.001342741, 35.431931263 ], [ 137.001347162, 35.431951502 ], [ 137.001347668, 35.43199567 ], [ 137.001318398, 35.432074487 ], [ 137.001286989, 35.432153972 ], [ 137.001228169, 35.432289341 ], [ 137.00118799, 35.432379053 ], [ 137.001134852, 35.432474798 ], [ 137.001034635, 35.432597497 ], [ 137.001011033, 35.432624253 ], [ 137.000849262, 35.432815361 ], [ 137.000719714, 35.432970335 ], [ 137.000643158, 35.433082738 ], [ 137.000589558, 35.43319886 ], [ 137.000550813, 35.433320573 ], [ 137.000515675, 35.433534277 ], [ 137.000507186, 35.433574665 ], [ 137.000468545, 35.433750119 ], [ 137.000433242, 35.433938783 ], [ 137.000415559, 35.434045229 ], [ 137.000373683, 35.434309093 ], [ 137.000352997, 35.434433576 ], [ 137.00030873, 35.434692866 ], [ 137.00027264, 35.434935717 ], [ 137.000245835, 35.43508413 ], [ 137.00022532, 35.435278675 ], [ 137.000213235, 35.435376245 ], [ 137.000211241, 35.435455729 ], [ 137.000212351, 35.435564684 ], [ 137.000224671, 35.435729747 ], [ 137.000236151, 35.435805337 ], [ 137.000274965, 35.43592608 ], [ 137.00030165, 35.435998398 ], [ 137.000330965, 35.436074313 ], [ 137.000400408, 35.436212478 ], [ 137.000451741, 35.436313907 ], [ 137.000468022, 35.436339239 ], [ 137.000536556, 35.436527207 ], [ 137.000559524, 35.436595157 ], [ 137.000593191, 35.436691744 ], [ 137.000648965, 35.436813471 ], [ 137.000716753, 35.436960772 ], [ 137.000796631, 35.437134321 ], [ 137.000851882, 35.437255012 ], [ 137.000865925, 35.437276751 ], [ 137.000924909, 35.437372032 ], [ 137.000945982, 35.437405966 ], [ 137.000968603, 35.437455903 ], [ 137.000976971, 35.437467554 ], [ 137.001114785, 35.437659032 ], [ 137.001138065, 35.437677994 ], [ 137.001262158, 35.437821116 ], [ 137.001431949, 35.438033853 ], [ 137.001436199, 35.438038366 ], [ 137.001547508, 35.438132338 ], [ 137.001740791, 35.438298358 ], [ 137.001778456, 35.438326757 ], [ 137.001836283, 35.438386052 ], [ 137.002074855, 35.438558879 ], [ 137.002209349, 35.438666636 ], [ 137.002238695, 35.438690863 ], [ 137.002331542, 35.438788007 ], [ 137.002503997, 35.438962271 ], [ 137.002660719, 35.439124083 ], [ 137.002909985, 35.439379078 ], [ 137.002926041, 35.439395477 ], [ 137.003207589, 35.439665176 ], [ 137.003426404, 35.439876329 ], [ 137.003522495, 35.439967091 ], [ 137.003639654, 35.440082166 ], [ 137.003696209, 35.440131816 ], [ 137.003898368, 35.440322087 ], [ 137.00400443, 35.440408614 ], [ 137.004182908, 35.440552554 ], [ 137.0043274, 35.440665079 ], [ 137.004349598, 35.440681402 ], [ 137.00442427, 35.440748041 ], [ 137.004581498, 35.44088039 ], [ 137.004762562, 35.441032636 ], [ 137.005187439, 35.441382955 ], [ 137.005196264, 35.441390275 ], [ 137.005521821, 35.441635275 ], [ 137.005868919, 35.441896318 ], [ 137.006007171, 35.44200056 ], [ 137.006105637, 35.442072027 ], [ 137.006439827, 35.442313875 ], [ 137.006757357, 35.442543047 ], [ 137.006832787, 35.442598238 ], [ 137.006937823, 35.442679694 ], [ 137.007082263, 35.442810469 ], [ 137.007413701, 35.443024488 ], [ 137.007573844, 35.443124305 ], [ 137.007700878, 35.443194205 ], [ 137.007744515, 35.443221814 ], [ 137.00791429, 35.443313306 ], [ 137.008088466, 35.443391139 ], [ 137.008306539, 35.443470238 ], [ 137.008492889, 35.443525585 ], [ 137.008633591, 35.443555563 ], [ 137.008776997, 35.443583145 ], [ 137.008857062, 35.443590701 ], [ 137.009122276, 35.443610819 ], [ 137.009319041, 35.443619364 ], [ 137.009457345, 35.443614614 ], [ 137.009791917, 35.443619076 ], [ 137.009899412, 35.443620551 ], [ 137.010050475, 35.443633427 ], [ 137.010382235, 35.443661754 ], [ 137.010904526, 35.443705315 ], [ 137.010995867, 35.443712717 ], [ 137.011049478, 35.443722644 ], [ 137.011220836, 35.443762371 ], [ 137.01132583, 35.443782241 ], [ 137.011592993, 35.443833929 ], [ 137.011806374, 35.443842976 ], [ 137.011865361, 35.443851226 ], [ 137.01192048, 35.443865032 ], [ 137.012038762, 35.443907243 ], [ 137.012126107, 35.443926777 ], [ 137.012287693, 35.443962812 ], [ 137.012494568, 35.44402785 ], [ 137.01267106, 35.444107599 ], [ 137.012821184, 35.444194613 ], [ 137.012864544, 35.444224243 ], [ 137.012920862, 35.444259252 ], [ 137.013017076, 35.444324896 ], [ 137.013108981, 35.444394682 ], [ 137.013145993, 35.444431991 ], [ 137.013182941, 35.444456496 ], [ 137.013253895, 35.444511078 ], [ 137.013338272, 35.444596434 ], [ 137.013454839, 35.444740111 ], [ 137.013476739, 35.444780239 ], [ 137.013550332, 35.444892366 ], [ 137.013621823, 35.445015185 ], [ 137.013728374, 35.445215362 ], [ 137.013808077, 35.445371752 ], [ 137.01386882, 35.445485423 ], [ 137.013917334, 35.445574918 ], [ 137.013931271, 35.445628388 ], [ 137.013967758, 35.445782129 ], [ 137.013976741, 35.445833065 ], [ 137.013998951, 35.445875085 ], [ 137.014021806, 35.44594373 ], [ 137.01403389, 35.445993523 ], [ 137.014046661, 35.446054963 ], [ 137.014018847, 35.446243162 ], [ 137.014089721, 35.446443026 ], [ 137.014103937, 35.446472987 ], [ 137.014126174, 35.44651149 ], [ 137.014194042, 35.446602352 ], [ 137.014274503, 35.446696581 ], [ 137.014370014, 35.446801426 ], [ 137.014491119, 35.446918356 ], [ 137.014576797, 35.446985167 ], [ 137.014678582, 35.447063235 ], [ 137.014793321, 35.447149159 ], [ 137.01500046, 35.447277431 ], [ 137.015014742, 35.447285961 ], [ 137.015156267, 35.447362836 ], [ 137.015397603, 35.44747263 ], [ 137.01555276, 35.447534734 ], [ 137.015762849, 35.447605746 ], [ 137.015866695, 35.447632992 ], [ 137.016070623, 35.447668961 ], [ 137.016170354, 35.447675273 ], [ 137.016187244, 35.447676008 ], [ 137.016248907, 35.447676448 ], [ 137.01636273, 35.447670379 ], [ 137.016491568, 35.44764933 ], [ 137.016654449, 35.447619937 ], [ 137.016889724, 35.447581583 ], [ 137.01705729, 35.447567014 ], [ 137.017188157, 35.447570226 ], [ 137.017257448, 35.447576288 ], [ 137.017278815, 35.4475797 ], [ 137.017426764, 35.447620856 ], [ 137.017550862, 35.447671603 ], [ 137.017696572, 35.44774583 ], [ 137.017733267, 35.447770513 ], [ 137.017803048, 35.447831321 ], [ 137.017864671, 35.447896381 ], [ 137.017901973, 35.44794597 ], [ 137.017909356, 35.447954864 ], [ 137.017952405, 35.448013066 ], [ 137.017991758, 35.448072318 ], [ 137.018040569, 35.448172545 ], [ 137.018089595, 35.448279211 ], [ 137.018162579, 35.448438693 ], [ 137.01823297, 35.448621759 ], [ 137.018278184, 35.448722214 ], [ 137.018291504, 35.448747621 ], [ 137.018476582, 35.448987191 ], [ 137.018524683, 35.449021432 ], [ 137.018628007, 35.449054762 ], [ 137.018666866, 35.449070504 ], [ 137.018911516, 35.449126087 ], [ 137.019054262, 35.4491755 ], [ 137.019171195, 35.449220537 ], [ 137.019254979, 35.449247855 ], [ 137.019334483, 35.449278733 ], [ 137.019339074, 35.449281807 ], [ 137.01939702, 35.449330793 ], [ 137.019465559, 35.449424197 ], [ 137.019592882, 35.449633518 ], [ 137.019693197, 35.44985185 ], [ 137.019749164, 35.449937411 ], [ 137.019778617, 35.450005432 ], [ 137.019835899, 35.450094449 ], [ 137.019877582, 35.450151732 ], [ 137.019941498, 35.450236209 ], [ 137.020004838, 35.450328397 ], [ 137.020104789, 35.450463122 ], [ 137.02023146, 35.450636374 ], [ 137.020287979, 35.450716158 ], [ 137.02034334, 35.450798463 ], [ 137.0203484, 35.450806081 ], [ 137.020432491, 35.450934763 ], [ 137.020494973, 35.451041702 ], [ 137.020555116, 35.451147602 ], [ 137.020684663, 35.451331362 ], [ 137.020745837, 35.451401996 ], [ 137.020788973, 35.451452907 ], [ 137.020851712, 35.451535017 ], [ 137.02087985, 35.451576281 ], [ 137.020983046, 35.451728971 ], [ 137.021026611, 35.451796118 ], [ 137.021187401, 35.452035753 ], [ 137.021317597, 35.452236195 ], [ 137.021405882, 35.452368283 ], [ 137.021449573, 35.452439254 ], [ 137.021678959, 35.452805525 ], [ 137.021738948, 35.452904913 ], [ 137.021792486, 35.452998165 ], [ 137.021852119, 35.453112024 ], [ 137.021872893, 35.453160537 ], [ 137.021888934, 35.453188938 ], [ 137.021922359, 35.453255736 ], [ 137.021948516, 35.453289419 ], [ 137.02197725, 35.4533382 ], [ 137.02200544, 35.453402213 ], [ 137.022021318, 35.453446019 ], [ 137.022066066, 35.45352305 ], [ 137.022185792, 35.453720157 ], [ 137.02229487, 35.453894869 ], [ 137.022339211, 35.453963946 ], [ 137.022391925, 35.454064069 ], [ 137.022445557, 35.454171355 ], [ 137.022497972, 35.454266654 ], [ 137.022547488, 35.454338679 ], [ 137.022598726, 35.454401899 ], [ 137.022739541, 35.454562901 ], [ 137.022800397, 35.454635493 ], [ 137.022946668, 35.454783494 ], [ 137.022957982, 35.454794674 ], [ 137.023042613, 35.454873494 ], [ 137.023156335, 35.454970983 ], [ 137.023360516, 35.455139701 ], [ 137.023456365, 35.455217978 ], [ 137.023510747, 35.455258355 ], [ 137.023621456, 35.455327483 ], [ 137.023661749, 35.455351053 ], [ 137.023713591, 35.455371296 ], [ 137.023862899, 35.455425401 ], [ 137.023931237, 35.455440197 ], [ 137.023950292, 35.455445974 ], [ 137.0240667, 35.455479159 ], [ 137.02423901, 35.455509069 ], [ 137.024336475, 35.455514909 ], [ 137.024425291, 35.455511558 ], [ 137.024562336, 35.455496915 ], [ 137.024687713, 35.455483366 ], [ 137.024793512, 35.45547793 ], [ 137.024916396, 35.455483055 ], [ 137.025001749, 35.455496447 ], [ 137.025084257, 35.455507153 ], [ 137.025233806, 35.455489266 ], [ 137.02540503, 35.455478119 ], [ 137.025509744, 35.455497453 ], [ 137.025610146, 35.455516036 ], [ 137.025680264, 35.455535864 ], [ 137.025813795, 35.455595941 ], [ 137.025860757, 35.455625165 ], [ 137.025959864, 35.455709602 ], [ 137.026070068, 35.455832373 ], [ 137.026212687, 35.456015761 ], [ 137.026261677, 35.45608827 ], [ 137.026285387, 35.456154722 ], [ 137.026301862, 35.456202628 ], [ 137.026320207, 35.456279021 ], [ 137.026382509, 35.45655235 ], [ 137.026419386, 35.456803837 ], [ 137.026442234, 35.456945187 ], [ 137.026478025, 35.457129466 ], [ 137.026499624, 35.457204377 ], [ 137.026506105, 35.457223044 ], [ 137.026520216, 35.4572549 ], [ 137.026594811, 35.457446074 ], [ 137.026681163, 35.457617932 ], [ 137.026816115, 35.457867523 ], [ 137.026857711, 35.457968251 ], [ 137.026877897, 35.458025458 ], [ 137.026883009, 35.458066391 ], [ 137.026885008, 35.458097082 ], [ 137.026918436, 35.458159254 ], [ 137.027000615, 35.458273722 ], [ 137.027024351, 35.458330007 ], [ 137.027021202, 35.458402324 ], [ 137.027007133, 35.458453376 ], [ 137.026949459, 35.458590511 ], [ 137.026921334, 35.458724576 ], [ 137.026911573, 35.458839922 ], [ 137.026906692, 35.458885516 ], [ 137.026902107, 35.459011438 ], [ 137.026902714, 35.45914035 ], [ 137.026917769, 35.459278781 ], [ 137.026970833, 35.459538106 ], [ 137.027008858, 35.459775445 ], [ 137.027089351, 35.460035601 ], [ 137.027112331, 35.460078513 ], [ 137.027153373, 35.460131388 ], [ 137.027612765, 35.460601442 ], [ 137.027628402, 35.460621852 ], [ 137.027738456, 35.460759042 ], [ 137.028208556, 35.461370729 ], [ 137.028264179, 35.461450092 ], [ 137.028423111, 35.461626089 ], [ 137.028730605, 35.461913881 ], [ 137.02891377, 35.462089779 ], [ 137.029109385, 35.462248604 ], [ 137.029166613, 35.462318575 ], [ 137.029429963, 35.462485259 ], [ 137.029701382, 35.462681649 ], [ 137.029736383, 35.462703951 ], [ 137.029833854, 35.462772303 ], [ 137.029954959, 35.462834415 ], [ 137.030258498, 35.462967367 ], [ 137.030557146, 35.463085047 ], [ 137.030748106, 35.463169358 ], [ 137.031123434, 35.463333341 ], [ 137.031278538, 35.463415704 ], [ 137.031445468, 35.463488998 ], [ 137.031546369, 35.463503465 ], [ 137.031785378, 35.463572946 ], [ 137.031847097, 35.463582228 ], [ 137.031879213, 35.463563164 ], [ 137.031887205, 35.463482808 ], [ 137.031956714, 35.463410511 ], [ 137.031864831, 35.463398608 ], [ 137.031807226, 35.463391145 ], [ 137.031583711, 35.463329447 ], [ 137.031488807, 35.463318431 ], [ 137.031332058, 35.463251656 ], [ 137.031186236, 35.463176079 ], [ 137.03064549, 35.462954117 ], [ 137.030354137, 35.462849162 ], [ 137.030056103, 35.462729304 ], [ 137.02993671, 35.462672608 ], [ 137.029806271, 35.462586573 ], [ 137.02954117, 35.462387961 ], [ 137.029283702, 35.462219384 ], [ 137.029228281, 35.462148864 ], [ 137.029037666, 35.461988595 ], [ 137.028844824, 35.461826453 ], [ 137.028519247, 35.461560038 ], [ 137.02834886, 35.46139545 ], [ 137.027803758, 35.460722683 ], [ 137.027690191, 35.46058841 ], [ 137.027290196, 35.460093643 ], [ 137.027257, 35.460041932 ], [ 137.027240037, 35.460000116 ], [ 137.027194563, 35.459749964 ], [ 137.027152921, 35.459520899 ], [ 137.027095318, 35.459270151 ], [ 137.027077627, 35.459136062 ], [ 137.027074428, 35.459011067 ], [ 137.027076346, 35.458888871 ], [ 137.027091103, 35.458720558 ], [ 137.027119675, 35.458576693 ], [ 137.02717699, 35.458430221 ], [ 137.027190739, 35.458375772 ], [ 137.027193245, 35.458298544 ], [ 137.0271688, 35.458238115 ], [ 137.027084508, 35.458114494 ], [ 137.027049633, 35.458047419 ], [ 137.027043555, 35.457973523 ], [ 137.027025963, 35.457916116 ], [ 137.026989025, 35.45781507 ], [ 137.026866054, 35.457564896 ], [ 137.026787902, 35.457392832 ], [ 137.026722214, 35.457201611 ], [ 137.02670961, 35.457169765 ], [ 137.026703993, 35.457151106 ], [ 137.026682073, 35.457078282 ], [ 137.026645379, 35.456898987 ], [ 137.02662172, 35.456761399 ], [ 137.026583143, 35.456516515 ], [ 137.026497683, 35.456164142 ], [ 137.026479251, 35.456110209 ], [ 137.026452422, 35.45603564 ], [ 137.026399152, 35.455953839 ], [ 137.026241995, 35.455747062 ], [ 137.02611849, 35.45560866 ], [ 137.026007112, 35.455512608 ] ] ] } },
{ "type": "Feature", "properties": { "A31a_401": "8505090253", "A31a_402": "加茂川", "A31a_403": "21", "A31a_404": "岐阜県", "A31a_405": 2 }, "geometry": { "type": "Polygon", "coordinates": [ [ [ 137.034938398, 35.462617694 ], [ 137.034708332, 35.462599239 ], [ 137.034904494, 35.462739483 ], [ 137.035022598, 35.462822421 ], [ 137.035095525, 35.462850071 ], [ 137.035111018, 35.462864904 ], [ 137.035114812, 35.462890021 ], [ 137.035102887, 35.463056467 ], [ 137.035110245, 35.463221219 ], [ 137.035120259, 35.463332023 ], [ 137.035154011, 35.463502513 ], [ 137.035214646, 35.463769935 ], [ 137.035464784, 35.463932306 ], [ 137.035357034, 35.46375203 ], [ 137.035292282, 35.463490113 ], [ 137.035255758, 35.463322947 ], [ 137.035243893, 35.463214218 ], [ 137.035219464, 35.462990355 ], [ 137.035210198, 35.462800136 ], [ 137.03520292, 35.462772097 ], [ 137.035183637, 35.462754301 ], [ 137.035095585, 35.462716679 ], [ 137.034938398, 35.462617694 ] ] ] } },
{ "type": "Feature", "properties": { "A31a_401": "8505090253", "A31a_402": "加茂川", "A31a_403": "21", "A31a_404": "岐阜県", "A31a_405": 2 }, "geometry": { "type": "Polygon", "coordinates": [ [ [ 137.035256221, 35.462474754 ], [ 137.035070908, 35.462439527 ], [ 137.03499056, 35.462430315 ], [ 137.034864642, 35.462403242 ], [ 137.034685007, 35.462379752 ], [ 137.034543945, 35.462385215 ], [ 137.034418631, 35.462405971 ], [ 137.034220704, 35.462454873 ], [ 137.033835877, 35.462574765 ], [ 137.033569077, 35.462690812 ], [ 137.032864721, 35.462998811 ], [ 137.032720405, 35.463056908 ], [ 137.032591114, 35.46309564 ], [ 137.032378314, 35.463140493 ], [ 137.032058509, 35.463198154 ], [ 137.031981143, 35.463201123 ], [ 137.031899349, 35.463192416 ], [ 137.031885249, 35.463187191 ], [ 137.031679449, 35.463110154 ], [ 137.031582537, 35.463096914 ], [ 137.031485853, 35.463068008 ], [ 137.031347962, 35.463020484 ], [ 137.031139415, 35.46293603 ], [ 137.030936677, 35.462850699 ], [ 137.03070614, 35.462751601 ], [ 137.030290706, 35.46257109 ], [ 137.030105337, 35.462509767 ], [ 137.030034624, 35.462467886 ], [ 137.030013208, 35.462451931 ], [ 137.029864067, 35.462346898 ], [ 137.029486818, 35.462028422 ], [ 137.029432767, 35.461974653 ], [ 137.029232696, 35.461829316 ], [ 137.029184121, 35.461790785 ], [ 137.028989184, 35.461610567 ], [ 137.028682195, 35.461314004 ], [ 137.028534604, 35.461165813 ], [ 137.028515674, 35.461149276 ], [ 137.028250981, 35.460838152 ], [ 137.027904987, 35.460443942 ], [ 137.027758994, 35.460257559 ], [ 137.027623434, 35.460076225 ], [ 137.027597871, 35.460026053 ], [ 137.027560564, 35.459971475 ], [ 137.027539488, 35.459900995 ], [ 137.02751264, 35.459706319 ], [ 137.027469856, 35.459495084 ], [ 137.027390668, 35.459059096 ], [ 137.027384838, 35.45895295 ], [ 137.02739691, 35.458853398 ], [ 137.027402413, 35.458814491 ], [ 137.027437974, 35.458605719 ], [ 137.02748494, 35.458471108 ], [ 137.027527771, 35.458385225 ], [ 137.027547178, 35.458255435 ], [ 137.027527124, 35.458183484 ], [ 137.027397733, 35.45790376 ], [ 137.027391407, 35.457888931 ], [ 137.027231021, 35.457487114 ], [ 137.027128923, 35.457234885 ], [ 137.027091603, 35.457127068 ], [ 137.027072194, 35.457055129 ], [ 137.027059179, 35.457015777 ], [ 137.026953752, 35.456554871 ], [ 137.026872362, 35.456199163 ], [ 137.026839169, 35.456059582 ], [ 137.026768887, 35.45591481 ], [ 137.02672666, 35.455850637 ], [ 137.026711822, 35.455828088 ], [ 137.026654012, 35.455814612 ], [ 137.026515063, 35.455752218 ], [ 137.026352358, 35.455668879 ], [ 137.026474756, 35.455814695 ], [ 137.026579333, 35.455970202 ], [ 137.026644387, 35.456101383 ], [ 137.02666222, 35.456172949 ], [ 137.02675234, 35.456593562 ], [ 137.02685499, 35.457067857 ], [ 137.026890607, 35.457180362 ], [ 137.026933061, 35.457288162 ], [ 137.027047286, 35.457540109 ], [ 137.027226777, 35.457940783 ], [ 137.027358719, 35.458217901 ], [ 137.027378096, 35.458285616 ], [ 137.027357901, 35.458408219 ], [ 137.027314801, 35.458489416 ], [ 137.027267814, 35.458616229 ], [ 137.027233379, 35.458812237 ], [ 137.027228256, 35.458848715 ], [ 137.027213828, 35.458951453 ], [ 137.02721726, 35.459061071 ], [ 137.027287694, 35.459512444 ], [ 137.027326936, 35.459731801 ], [ 137.027364205, 35.459940124 ], [ 137.027389423, 35.460015204 ], [ 137.02743036, 35.460073515 ], [ 137.027459236, 35.460126873 ], [ 137.027608571, 35.46031961 ], [ 137.027770669, 35.460516336 ], [ 137.028105963, 35.46092325 ], [ 137.028363023, 35.461244849 ], [ 137.028539714, 35.461408916 ], [ 137.028867521, 35.461701594 ], [ 137.029074826, 35.461878595 ], [ 137.029326777, 35.462063547 ], [ 137.029381001, 35.462117921 ], [ 137.029759458, 35.46244028 ], [ 137.029931855, 35.462562927 ], [ 137.030006619, 35.462605474 ], [ 137.030200844, 35.462667907 ], [ 137.030637482, 35.462849115 ], [ 137.030879458, 35.462947392 ], [ 137.031093427, 35.463034293 ], [ 137.031312964, 35.463119465 ], [ 137.031457728, 35.463167028 ], [ 137.031559071, 35.46319578 ], [ 137.03166044, 35.463208731 ], [ 137.031875834, 35.463284671 ], [ 137.031890848, 35.463289965 ], [ 137.031977739, 35.463298949 ], [ 137.032059822, 35.463296078 ], [ 137.032399096, 35.463237206 ], [ 137.032624889, 35.463190057 ], [ 137.032762301, 35.463149244 ], [ 137.032916155, 35.463088016 ], [ 137.033634603, 35.462802097 ], [ 137.033906854, 35.462694361 ], [ 137.034211935, 35.462573631 ], [ 137.034377392, 35.46251555 ], [ 137.034534369, 35.462476222 ], [ 137.034680442, 35.462461569 ], [ 137.03485181, 35.462473923 ], [ 137.034973294, 35.462492339 ], [ 137.035044947, 35.462503201 ], [ 137.035211405, 35.462539175 ], [ 137.035322372, 35.462587684 ], [ 137.035370597, 35.462622299 ], [ 137.035397105, 35.462650966 ], [ 137.03542429, 35.462727976 ], [ 137.035445241, 35.462817016 ], [ 137.035467622, 35.463202498 ], [ 137.035472244, 35.463282117 ], [ 137.035488878, 35.463371947 ], [ 137.035529505, 35.463536944 ], [ 137.035587228, 35.463759158 ], [ 137.035647534, 35.46395467 ], [ 137.035698976, 35.46407232 ], [ 137.035699801, 35.46407549 ], [ 137.035781748, 35.464390387 ], [ 137.03582439, 35.464538738 ], [ 137.03587784, 35.464682794 ], [ 137.035918373, 35.464780459 ], [ 137.035993419, 35.464867584 ], [ 137.036023106, 35.464897768 ], [ 137.036078979, 35.464954577 ], [ 137.036154493, 35.465011434 ], [ 137.036233243, 35.465061478 ], [ 137.036326437, 35.46510518 ], [ 137.036448032, 35.465145566 ], [ 137.036901737, 35.465238881 ], [ 137.037287871, 35.465317309 ], [ 137.037514734, 35.46535804 ], [ 137.037724042, 35.465424437 ], [ 137.038040711, 35.465496207 ], [ 137.038494487, 35.465599051 ], [ 137.038632036, 35.465634747 ], [ 137.038814197, 35.465702091 ], [ 137.038981864, 35.465775344 ], [ 137.039201356, 35.465899015 ], [ 137.039283388, 35.465929715 ], [ 137.039343667, 35.465977179 ], [ 137.039404642, 35.466057446 ], [ 137.039538397, 35.466216095 ], [ 137.039608985, 35.466313693 ], [ 137.039688271, 35.466437606 ], [ 137.039743835, 35.466547588 ], [ 137.039831221, 35.466720557 ], [ 137.039966505, 35.466994423 ], [ 137.039975422, 35.466754126 ], [ 137.039930556, 35.466682958 ], [ 137.03982526, 35.466519735 ], [ 137.039773056, 35.466400588 ], [ 137.039695803, 35.466265609 ], [ 137.039625434, 35.46615888 ], [ 137.039425793, 35.465896639 ], [ 137.039363108, 35.465843436 ], [ 137.0392779, 35.465806501 ], [ 137.039140304, 35.465721743 ], [ 137.039050341, 35.465666699 ], [ 137.038881038, 35.465585143 ], [ 137.038696426, 35.465509053 ], [ 137.038556642, 35.465467047 ], [ 137.038092678, 35.465343504 ], [ 137.037765456, 35.46529998 ], [ 137.037549208, 35.465252821 ], [ 137.037315327, 35.465232129 ], [ 137.036996518, 35.465196882 ], [ 137.036922572, 35.465183097 ], [ 137.036480764, 35.46510072 ], [ 137.036361511, 35.4650635 ], [ 137.036269983, 35.465022461 ], [ 137.036192581, 35.464974948 ], [ 137.036118248, 35.464920756 ], [ 137.036063225, 35.464866305 ], [ 137.036037624, 35.464834583 ], [ 137.035974166, 35.464744054 ], [ 137.035944834, 35.464644272 ], [ 137.035908912, 35.464498921 ], [ 137.035885254, 35.464351688 ], [ 137.035847438, 35.464049262 ], [ 137.035846569, 35.464046169 ], [ 137.035793413, 35.463931427 ], [ 137.035730159, 35.463740467 ], [ 137.035668884, 35.463523135 ], [ 137.035625478, 35.463361584 ], [ 137.03560729, 35.463273559 ], [ 137.03560127, 35.463195496 ], [ 137.035530703, 35.462763064 ], [ 137.035500152, 35.462669988 ], [ 137.035464803, 35.46259035 ], [ 137.035434218, 35.462560629 ], [ 137.035379829, 35.462524733 ], [ 137.035256221, 35.462474754 ] ] ] } },
{ "type": "Feature", "properties": { "A31a_401": "8505090253", "A31a_402": "加茂川", "A31a_403": "21", "A31a_404": "岐阜県", "A31a_405": 2 }, "geometry": { "type": "Polygon", "coordinates": [ [ [ 137.040957983, 35.467914034 ], [ 137.040825099, 35.467767289 ], [ 137.040649046, 35.467804907 ], [ 137.040696647, 35.467856858 ], [ 137.040845407, 35.468011358 ], [ 137.040876069, 35.468036495 ], [ 137.040894157, 35.468045878 ], [ 137.040927907, 35.468063383 ], [ 137.040974059, 35.468095278 ], [ 137.041035361, 35.468137643 ], [ 137.041119008, 35.468181175 ], [ 137.041073854, 35.468128345 ], [ 137.041055891, 35.468065817 ], [ 137.041092841, 35.468005361 ], [ 137.041041358, 35.46796871 ], [ 137.041003851, 35.467948116 ], [ 137.040986705, 35.467938872 ], [ 137.040957983, 35.467914034 ] ] ] } },
{ "type": "Feature", "properties": { "A31a_401": "8505090253", "A31a_402": "加茂川", "A31a_403": "21", "A31a_404": "岐阜県", "A31a_405": 2 }, "geometry": { "type": "Polygon", "coordinates": [ [ [ 137.041395632, 35.469687261 ], [ 137.041421673, 35.469607677 ], [ 137.041489384, 35.46943429 ], [ 137.041576446, 35.469211794 ], [ 137.041530984, 35.469200166 ], [ 137.041500825, 35.469158968 ], [ 137.041481535, 35.469260329 ], [ 137.041443851, 35.469430141 ], [ 137.041407366, 35.469605879 ], [ 137.041395632, 35.469687261 ] ] ] } },
{ "type": "Feature", "properties": { "A31a_401": "8505090253", "A31a_402": "加茂川", "A31a_403": "21", "A31a_404": "岐阜県", "A31a_405": 2 }, "geometry": { "type": "Polygon", "coordinates": [ [ [ 137.041395632, 35.469687261 ], [ 137.041390283, 35.469724363 ], [ 137.041362575, 35.469909832 ], [ 137.041303518, 35.470032296 ], [ 137.041180352, 35.470271175 ], [ 137.041021818, 35.470554851 ], [ 137.040928827, 35.470716327 ], [ 137.040899682, 35.470827885 ], [ 137.040882548, 35.470978956 ], [ 137.040888185, 35.471235714 ], [ 137.040883247, 35.471305822 ], [ 137.040890477, 35.471413093 ], [ 137.040896227, 35.471498399 ], [ 137.040961843, 35.471777038 ], [ 137.04097637, 35.471834747 ], [ 137.041040496, 35.471999884 ], [ 137.041045899, 35.472060265 ], [ 137.041036067, 35.472181762 ], [ 137.041033834, 35.472245876 ], [ 137.041046956, 35.472341189 ], [ 137.041062219, 35.472406843 ], [ 137.041092849, 35.472471116 ], [ 137.041120905, 35.472512787 ], [ 137.041184868, 35.472580142 ], [ 137.041634815, 35.473068004 ], [ 137.04197088, 35.473462877 ], [ 137.042090107, 35.473643853 ], [ 137.042338772, 35.474027461 ], [ 137.042563584, 35.474381019 ], [ 137.042728302, 35.474582609 ], [ 137.042831972, 35.474709483 ], [ 137.042822965, 35.47477426 ], [ 137.042839702, 35.474808613 ], [ 137.042875928, 35.474908223 ], [ 137.042904586, 35.47499975 ], [ 137.042915571, 35.47507308 ], [ 137.042895606, 35.475290222 ], [ 137.042864499, 35.475535983 ], [ 137.042803083, 35.476064512 ], [ 137.042813183, 35.476158789 ], [ 137.042782123, 35.476373825 ], [ 137.042750229, 35.476576292 ], [ 137.042718513, 35.476661448 ], [ 137.042690273, 35.476707505 ], [ 137.04256688, 35.476844888 ], [ 137.04249847, 35.476922326 ], [ 137.042345782, 35.477076854 ], [ 137.042258262, 35.47713994 ], [ 137.042183874, 35.477218069 ], [ 137.04194961, 35.47745524 ], [ 137.041895299, 35.477520143 ], [ 137.041834991, 35.477612787 ], [ 137.041826375, 35.477655517 ], [ 137.041828882, 35.477690433 ], [ 137.041872475, 35.47780396 ], [ 137.041921, 35.477926672 ], [ 137.041973435, 35.478059271 ], [ 137.042021134, 35.478128449 ], [ 137.042135192, 35.478344333 ], [ 137.042263412, 35.478554823 ], [ 137.04229612, 35.478613334 ], [ 137.04233867, 35.478699964 ], [ 137.042348009, 35.478733491 ], [ 137.042350499, 35.478764633 ], [ 137.042350522, 35.478764915 ], [ 137.042335956, 35.478799814 ], [ 137.042348685, 35.478849404 ], [ 137.042323005, 35.478894766 ], [ 137.042272449, 35.479018308 ], [ 137.042257832, 35.479086723 ], [ 137.042252605, 35.479155149 ], [ 137.042252315, 35.479343682 ], [ 137.042252067, 35.479504983 ], [ 137.042264315, 35.479582943 ], [ 137.042285506, 35.479644182 ], [ 137.0423075, 35.47970774 ], [ 137.042416977, 35.479962521 ], [ 137.042446933, 35.480020916 ], [ 137.04254709, 35.480288748 ], [ 137.042575113, 35.480313319 ], [ 137.042604113, 35.480348033 ], [ 137.042650665, 35.480390225 ], [ 137.042716869, 35.480444131 ], [ 137.042852301, 35.480554406 ], [ 137.042924787, 35.480604756 ], [ 137.042954626, 35.480631321 ], [ 137.043044127, 35.480720093 ], [ 137.043128789, 35.480775697 ], [ 137.043167218, 35.480807209 ], [ 137.043175832, 35.480822633 ], [ 137.043181274, 35.480858607 ], [ 137.043182746, 35.480922838 ], [ 137.043193937, 35.481007237 ], [ 137.043213974, 35.481042336 ], [ 137.043258712, 35.481076432 ], [ 137.043304774, 35.481100919 ], [ 137.043348091, 35.48114781 ], [ 137.043390836, 35.481206446 ], [ 137.043411552, 35.481242934 ], [ 137.043444477, 35.481279578 ], [ 137.043472526, 35.481380399 ], [ 137.043541471, 35.481514538 ], [ 137.043541447, 35.481543018 ], [ 137.043562139, 35.481588173 ], [ 137.043567462, 35.481599791 ], [ 137.043575095, 35.481633316 ], [ 137.043573023, 35.481675494 ], [ 137.043563882, 35.481708718 ], [ 137.043532928, 35.481751754 ], [ 137.043489874, 35.481796562 ], [ 137.043446166, 35.481844316 ], [ 137.043398305, 35.481916026 ], [ 137.043374311, 35.481978322 ], [ 137.043363018, 35.482116279 ], [ 137.043366214, 35.4822053 ], [ 137.043358441, 35.482205292 ], [ 137.043352518, 35.482243352 ], [ 137.043338592, 35.482270988 ], [ 137.043325737, 35.482387994 ], [ 137.043334741, 35.482421085 ], [ 137.043361817, 35.482479376 ], [ 137.043380494, 35.482503095 ], [ 137.043402797, 35.482524349 ], [ 137.043468383, 35.482570103 ], [ 137.043506853, 35.482604052 ], [ 137.043519428, 35.482596999 ], [ 137.043554723, 35.482624654 ], [ 137.043590147, 35.482666807 ], [ 137.043654425, 35.482802498 ], [ 137.043609521, 35.482659839 ], [ 137.043580769, 35.482615236 ], [ 137.043550372, 35.482585767 ], [ 137.043504799, 35.482556827 ], [ 137.043447545, 35.482507928 ], [ 137.043428748, 35.482485338 ], [ 137.04341372, 35.482460221 ], [ 137.043394836, 35.482398763 ], [ 137.043390223, 35.482363958 ], [ 137.043416694, 35.482241564 ], [ 137.043433288, 35.482212859 ], [ 137.043443455, 35.482173089 ], [ 137.043450879, 35.482173238 ], [ 137.043458328, 35.482079885 ], [ 137.043485262, 35.481935434 ], [ 137.043515419, 35.481870538 ], [ 137.043569421, 35.481796214 ], [ 137.043616662, 35.481746944 ], [ 137.043662923, 35.481700755 ], [ 137.04369741, 35.481656189 ], [ 137.04370993, 35.481621494 ], [ 137.043716709, 35.481577255 ], [ 137.043713226, 35.481541902 ], [ 137.043709459, 35.481529595 ], [ 137.043686151, 35.481484671 ], [ 137.043684787, 35.481456323 ], [ 137.043608009, 35.48132305 ], [ 137.043574622, 35.481222938 ], [ 137.043539308, 35.481186642 ], [ 137.043516466, 35.481150481 ], [ 137.043483337, 35.481108981 ], [ 137.043470373, 35.48109197 ], [ 137.043424732, 35.481044235 ], [ 137.043377066, 35.481019192 ], [ 137.0433304, 35.480984456 ], [ 137.043308819, 35.480948866 ], [ 137.043294592, 35.480863556 ], [ 137.043290976, 35.480798727 ], [ 137.043284268, 35.480762417 ], [ 137.043275001, 35.480746825 ], [ 137.043234862, 35.480714887 ], [ 137.043146851, 35.480658516 ], [ 137.043052842, 35.480568846 ], [ 137.043021595, 35.480542033 ], [ 137.042946112, 35.480491205 ], [ 137.042804565, 35.480380169 ], [ 137.042743436, 35.480327949 ], [ 137.042700588, 35.480287141 ], [ 137.042674292, 35.480253523 ], [ 137.042648395, 35.480229865 ], [ 137.042565164, 35.479971087 ], [ 137.042539054, 35.479915247 ], [ 137.042445312, 35.479673402 ], [ 137.042426972, 35.479613559 ], [ 137.042404225, 35.479554662 ], [ 137.042389996, 35.479479502 ], [ 137.042385994, 35.47932363 ], [ 137.042380861, 35.479141102 ], [ 137.042384018, 35.479074745 ], [ 137.042396525, 35.479008326 ], [ 137.042443133, 35.478888243 ], [ 137.042467306, 35.478844116 ], [ 137.042466184, 35.478761922 ], [ 137.042466151, 35.478761647 ], [ 137.042466205, 35.478729491 ], [ 137.042459607, 35.478694819 ], [ 137.042424168, 35.478604957 ], [ 137.042396262, 35.478544039 ], [ 137.042285217, 35.478323298 ], [ 137.042187981, 35.478094393 ], [ 137.042145624, 35.478020308 ], [ 137.042102455, 35.477878084 ], [ 137.042067317, 35.477777419 ], [ 137.042031603, 35.477683501 ], [ 137.042030794, 35.477654384 ], [ 137.042041129, 35.477618786 ], [ 137.042103937, 35.477542766 ], [ 137.042158789, 35.47749096 ], [ 137.042378525, 35.477316522 ], [ 137.042410096, 35.47728919 ], [ 137.042448713, 35.477246348 ], [ 137.042540455, 35.47717396 ], [ 137.042699717, 35.477000249 ], [ 137.042770254, 35.47691386 ], [ 137.042895945, 35.476761138 ], [ 137.042924552, 35.476710396 ], [ 137.042956528, 35.476617046 ], [ 137.042985661, 35.476406944 ], [ 137.042986707, 35.476396422 ], [ 137.043005638, 35.476177548 ], [ 137.042990315, 35.476081723 ], [ 137.043021497, 35.475545448 ], [ 137.043025182, 35.475491264 ], [ 137.043053752, 35.47528354 ], [ 137.043075608, 35.475049395 ], [ 137.043064639, 35.474970229 ], [ 137.043035534, 35.474871149 ], [ 137.042998184, 35.474763113 ], [ 137.042988834, 35.47465623 ], [ 137.042881283, 35.474516694 ], [ 137.04271652, 35.474316183 ], [ 137.042491611, 35.473964398 ], [ 137.042342314, 35.473735359 ], [ 137.042222619, 35.473585393 ], [ 137.04208017, 35.473409846 ], [ 137.041692974, 35.473033244 ], [ 137.041653826, 35.472998101 ], [ 137.041275969, 35.472552955 ], [ 137.041217291, 35.472487582 ], [ 137.041192255, 35.47244719 ], [ 137.041166051, 35.472384996 ], [ 137.041155078, 35.472321603 ], [ 137.041151197, 35.472270665 ], [ 137.041150972, 35.472228211 ], [ 137.041161505, 35.472164157 ], [ 137.041187091, 35.472043228 ], [ 137.041189729, 35.471983366 ], [ 137.041148173, 35.471820512 ], [ 137.041112664, 35.471492325 ], [ 137.041118027, 35.471409825 ], [ 137.041101536, 35.4713121 ], [ 137.041100194, 35.47124772 ], [ 137.041070765, 35.471008441 ], [ 137.04107319, 35.470865498 ], [ 137.041090916, 35.470759079 ], [ 137.041162999, 35.470603162 ], [ 137.041170732, 35.470592339 ], [ 137.041278389, 35.470298312 ], [ 137.041361365, 35.470044938 ], [ 137.04139948, 35.469916843 ], [ 137.04139654, 35.4697253 ], [ 137.041395632, 35.469687261 ] ] ] } },
{ "type": "Feature", "properties": { "A31a_401": "8505090253", "A31a_402": "加茂川", "A31a_403": "21", "A31a_404": "岐阜県", "A31a_405": 2 }, "geometry": { "type": "Polygon", "coordinates": [ [ [ 137.043654425, 35.482802498 ], [ 137.043709284, 35.482918306 ], [ 137.043707523, 35.482953916 ], [ 137.043676679, 35.483026505 ], [ 137.043677452, 35.483079575 ], [ 137.043699152, 35.483181028 ], [ 137.04371795, 35.483213162 ], [ 137.043752462, 35.483238888 ], [ 137.043809489, 35.483269639 ], [ 137.043876766, 35.483291298 ], [ 137.043948151, 35.483335493 ], [ 137.043999134, 35.483380059 ], [ 137.044041004, 35.483437559 ], [ 137.044074823, 35.483518167 ], [ 137.044084843, 35.483565678 ], [ 137.044090046, 35.483650648 ], [ 137.044095101, 35.483686743 ], [ 137.044126934, 35.483706025 ], [ 137.044179919, 35.483717497 ], [ 137.044184201, 35.483720156 ], [ 137.044170546, 35.483709937 ], [ 137.04416905, 35.483666691 ], [ 137.044168133, 35.483563102 ], [ 137.0441533, 35.483514385 ], [ 137.044111163, 35.483432088 ], [ 137.044063116, 35.483373651 ], [ 137.04400704, 35.483328515 ], [ 137.043930171, 35.483283906 ], [ 137.043859618, 35.4832621 ], [ 137.043798375, 35.483231269 ], [ 137.043760478, 35.483205568 ], [ 137.043737873, 35.483173558 ], [ 137.043705029, 35.483073066 ], [ 137.043698814, 35.483020798 ], [ 137.043723307, 35.482949432 ], [ 137.043721701, 35.482914601 ], [ 137.043654425, 35.482802498 ] ] ] } },
{ "type": "Feature", "properties": { "A31a_401": "8505090253", "A31a_402": "加茂川", "A31a_403": "21", "A31a_404": "岐阜県", "A31a_405": 2 }, "geometry": { "type": "Polygon", "coordinates": [ [ [ 137.044303302, 35.484393221 ], [ 137.044297014, 35.484379225 ], [ 137.044160694, 35.484431981 ], [ 137.043999326, 35.484468452 ], [ 137.043931494, 35.484483624 ], [ 137.043896591, 35.484496882 ], [ 137.043892986, 35.484521195 ], [ 137.043889085, 35.48455689 ], [ 137.043901279, 35.484656822 ], [ 137.043924131, 35.4847192 ], [ 137.043979458, 35.484614964 ], [ 137.043971369, 35.484554504 ], [ 137.043966968, 35.484545494 ], [ 137.043962413, 35.484531878 ], [ 137.043985079, 35.484528957 ], [ 137.044007167, 35.484527779 ], [ 137.044183369, 35.484489902 ], [ 137.044247958, 35.484466186 ], [ 137.044303302, 35.484393221 ] ] ] } },
{ "type": "Feature", "properties": { "A31a_401": "8505090253", "A31a_402": "加茂川", "A31a_403": "21", "A31a_404": "岐阜県", "A31a_405": 2 }, "geometry": { "type": "Polygon", "coordinates": [ [ [ 137.04316588, 35.486338194 ], [ 137.043146683, 35.48628205 ], [ 137.043128334, 35.486438057 ], [ 137.043145718, 35.48655188 ], [ 137.043055447, 35.487124503 ], [ 137.043050406, 35.487176106 ], [ 137.043060856, 35.487215789 ], [ 137.043145962, 35.48712732 ], [ 137.043225487, 35.486617976 ], [ 137.043235768, 35.486557984 ], [ 137.04321993, 35.486444059 ], [ 137.043210583, 35.48642575 ], [ 137.04316588, 35.486338194 ] ] ] } },
{ "type": "Feature", "properties": { "A31a_401": "8505090253", "A31a_402": "加茂川", "A31a_403": "21", "A31a_404": "岐阜県", "A31a_405": 2 }, "geometry": { "type": "Polygon", "coordinates": [ [ [ 137.043160589, 35.487402094 ], [ 137.043069458, 35.487401099 ], [ 137.043077168, 35.48744289 ], [ 137.043081389, 35.487587775 ], [ 137.043061101, 35.487659324 ], [ 137.043056223, 35.487704016 ], [ 137.043061725, 35.4877575 ], [ 137.043077745, 35.487792602 ], [ 137.043099899, 35.487830775 ], [ 137.043102626, 35.487856292 ], [ 137.043083228, 35.48790861 ], [ 137.043070758, 35.488004238 ], [ 137.043049057, 35.488146564 ], [ 137.043045471, 35.488199959 ], [ 137.043046284, 35.488381488 ], [ 137.043003195, 35.488603315 ], [ 137.043000929, 35.488640458 ], [ 137.042975853, 35.488697203 ], [ 137.042954175, 35.48871126 ], [ 137.04295137, 35.488729878 ], [ 137.04295686, 35.488779816 ], [ 137.042925002, 35.488905161 ], [ 137.042884349, 35.488980511 ], [ 137.042819811, 35.489060378 ], [ 137.042804282, 35.489086397 ], [ 137.042788622, 35.489120297 ], [ 137.042752907, 35.489184102 ], [ 137.042716899, 35.489281125 ], [ 137.042702212, 35.48934048 ], [ 137.042702186, 35.489357284 ], [ 137.042697439, 35.489373869 ], [ 137.042743272, 35.489363205 ], [ 137.042799046, 35.489301688 ], [ 137.042801082, 35.489296522 ], [ 137.042835953, 35.489202693 ], [ 137.042872112, 35.489137696 ], [ 137.042887992, 35.489103176 ], [ 137.042903689, 35.48907667 ], [ 137.042968726, 35.488995262 ], [ 137.043009788, 35.48891853 ], [ 137.043042225, 35.488790979 ], [ 137.043036933, 35.488740196 ], [ 137.043039811, 35.488721251 ], [ 137.043061552, 35.488706908 ], [ 137.043086839, 35.488649137 ], [ 137.043089229, 35.488611348 ], [ 137.043127081, 35.488415798 ], [ 137.043133012, 35.48838597 ], [ 137.043133181, 35.488203608 ], [ 137.043137055, 35.488149964 ], [ 137.043159519, 35.488006963 ], [ 137.043172497, 35.487910876 ], [ 137.043192172, 35.487858304 ], [ 137.043189578, 35.487832663 ], [ 137.043167622, 35.487794306 ], [ 137.043151784, 35.487759035 ], [ 137.04314656, 35.487705288 ], [ 137.04315167, 35.487660374 ], [ 137.043172329, 35.487588468 ], [ 137.043170393, 35.487507422 ], [ 137.043168388, 35.487443607 ], [ 137.043160589, 35.487402094 ] ] ] } },
{ "type": "Feature", "properties": { "A31a_401": "8505090253", "A31a_402": "加茂川", "A31a_403": "21", "A31a_404": "岐阜県", "A31a_405": 2 }, "geometry": { "type": "Polygon", "coordinates": [ [ [ 137.042641235, 35.489572055 ], [ 137.042651238, 35.489535265 ], [ 137.04264905, 35.489542907 ], [ 137.042641235, 35.489572055 ] ] ] } },
{ "type": "Feature", "properties": { "A31a_401": "8505090253", "A31a_402": "加茂川", "A31a_403": "21", "A31a_404": "岐阜県", "A31a_405": 2 }, "geometry": { "type": "Polygon", "coordinates": [ [ [ 137.042506052, 35.480309782 ], [ 137.042400553, 35.48007645 ], [ 137.042377157, 35.480081803 ], [ 137.042330232, 35.479978067 ], [ 137.042276078, 35.479865435 ], [ 137.04221012, 35.479707902 ], [ 137.042149637, 35.479720685 ], [ 137.042118302, 35.479714279 ], [ 137.042126559, 35.479678588 ], [ 137.042143678, 35.479604597 ], [ 137.042154393, 35.479448182 ], [ 137.042155219, 35.479165168 ], [ 137.042174522, 35.479012643 ], [ 137.042197436, 35.47889868 ], [ 137.042165303, 35.47883488 ], [ 137.042174167, 35.478769185 ], [ 137.042174834, 35.478764238 ], [ 137.042192185, 35.478714799 ], [ 137.042204015, 35.478681412 ], [ 137.042190699, 35.478660202 ], [ 137.042043332, 35.478448799 ], [ 137.041972996, 35.478332512 ], [ 137.04194165, 35.478236031 ], [ 137.04192607, 35.478204636 ], [ 137.041808635, 35.477929519 ], [ 137.041721684, 35.477681485 ], [ 137.041722963, 35.477635073 ], [ 137.041727458, 35.477614068 ], [ 137.041712601, 35.477574231 ], [ 137.042087799, 35.477170871 ], [ 137.042126435, 35.477121113 ], [ 137.042207904, 35.477016189 ], [ 137.042351487, 35.47685597 ], [ 137.042434144, 35.476774703 ], [ 137.04261524, 35.476497883 ], [ 137.042640022, 35.476351274 ], [ 137.042683967, 35.47603433 ], [ 137.042737732, 35.475611732 ], [ 137.042755311, 35.475475854 ], [ 137.042804923, 35.475092372 ], [ 137.042795628, 35.474992779 ], [ 137.042783415, 35.474947187 ], [ 137.042723539, 35.474831612 ], [ 137.042675343, 35.474771324 ], [ 137.04261508, 35.474708062 ], [ 137.04259084, 35.474656199 ], [ 137.042583084, 35.474645178 ], [ 137.042529922, 35.474569633 ], [ 137.042493524, 35.474465997 ], [ 137.04246343, 35.474409678 ], [ 137.042105372, 35.473831386 ], [ 137.042098739, 35.473820674 ], [ 137.041882922, 35.473486554 ], [ 137.041746921, 35.473327023 ], [ 137.041515417, 35.47308246 ], [ 137.041489903, 35.473055506 ], [ 137.041297278, 35.472849197 ], [ 137.041243931, 35.472800729 ], [ 137.04104889, 35.472586475 ], [ 137.040972835, 35.472466669 ], [ 137.040940763, 35.472388244 ], [ 137.040930609, 35.472330975 ], [ 137.040928347, 35.472305856 ], [ 137.040923973, 35.472257292 ], [ 137.040942141, 35.472218798 ], [ 137.04095429, 35.472168448 ], [ 137.040953164, 35.472097775 ], [ 137.040920903, 35.471984622 ], [ 137.04086327, 35.471868474 ], [ 137.040782392, 35.471701177 ], [ 137.040796239, 35.471464765 ], [ 137.04076228, 35.471414934 ], [ 137.040714768, 35.471345213 ], [ 137.040652756, 35.471228026 ], [ 137.040680638, 35.471152017 ], [ 137.04068584, 35.471109382 ], [ 137.040655708, 35.470882401 ], [ 137.040655746, 35.470857714 ], [ 137.040826438, 35.47054584 ], [ 137.040874692, 35.470489211 ], [ 137.040983653, 35.47036134 ], [ 137.041065934, 35.470235025 ], [ 137.041103531, 35.4701215 ], [ 137.041210095, 35.46990436 ], [ 137.04127923, 35.469692117 ], [ 137.041283358, 35.46967135 ], [ 137.041327894, 35.469447266 ], [ 137.041360809, 35.469238936 ], [ 137.041366968, 35.469158954 ], [ 137.041386556, 35.468982211 ], [ 137.041378301, 35.468855801 ], [ 137.041360698, 35.468792427 ], [ 137.041330284, 35.468682938 ], [ 137.041270095, 35.468575237 ], [ 137.041205043, 35.468490243 ], [ 137.040935074, 35.46821741 ], [ 137.040820514, 35.46811151 ], [ 137.040716902, 35.46801573 ], [ 137.040545724, 35.467867425 ], [ 137.040250494, 35.467541238 ], [ 137.040150484, 35.467426582 ], [ 137.040127445, 35.467396965 ], [ 137.039997491, 35.467229907 ], [ 137.03987468, 35.467030302 ], [ 137.039813321, 35.466900873 ], [ 137.039751953, 35.46677737 ], [ 137.039653282, 35.466578565 ], [ 137.039608763, 35.466488867 ], [ 137.039520882, 35.466338673 ], [ 137.039410042, 35.466204255 ], [ 137.03927265, 35.466067834 ], [ 137.039202733, 35.466008509 ], [ 137.039109893, 35.465942248 ], [ 137.039039944, 35.465903661 ], [ 137.038632231, 35.46572844 ], [ 137.038460915, 35.465672957 ], [ 137.038013601, 35.465575868 ], [ 137.037788811, 35.465527077 ], [ 137.037498849, 35.465482364 ], [ 137.037431615, 35.465467444 ], [ 137.037318209, 35.465430784 ], [ 137.036951226, 35.465340647 ], [ 137.036817475, 35.465307795 ], [ 137.03640118, 35.465219457 ], [ 137.036267268, 35.465174875 ], [ 137.03618404, 35.465138247 ], [ 137.036065862, 35.465068006 ], [ 137.035940481, 35.464973069 ], [ 137.03586604, 35.464902874 ], [ 137.035765783, 35.464718807 ], [ 137.035813037, 35.464940404 ], [ 137.035889749, 35.465002355 ], [ 137.035895851, 35.465008398 ], [ 137.036022092, 35.465109034 ], [ 137.03614165, 35.465184097 ], [ 137.036226077, 35.46522381 ], [ 137.036362301, 35.46527308 ], [ 137.036789529, 35.465375459 ], [ 137.036928464, 35.465412894 ], [ 137.037299266, 35.465489286 ], [ 137.037413926, 35.465521607 ], [ 137.037481892, 35.465534033 ], [ 137.037775025, 35.465568234 ], [ 137.038002415, 35.465608736 ], [ 137.038430171, 35.465738206 ], [ 137.03859163, 35.465805694 ], [ 137.03895482, 35.466000714 ], [ 137.03903045, 35.466044707 ], [ 137.039111252, 35.46610841 ], [ 137.039171552, 35.466165023 ], [ 137.039288754, 35.466293665 ], [ 137.039381527, 35.46641838 ], [ 137.039413111, 35.466480463 ], [ 137.039451326, 35.46655558 ], [ 137.039485553, 35.466635941 ], [ 137.039620795, 35.466827635 ], [ 137.039704203, 35.466945552 ], [ 137.03978787, 35.467068262 ], [ 137.039945558, 35.467255041 ], [ 137.040105221, 35.46740869 ], [ 137.040126566, 35.467439477 ], [ 137.040220083, 35.467559089 ], [ 137.040499398, 35.467901719 ], [ 137.04066419, 35.468059461 ], [ 137.040764393, 35.468161526 ], [ 137.040867059, 35.468262006 ], [ 137.041114394, 35.468516743 ], [ 137.041174564, 35.468595535 ], [ 137.041229732, 35.468695086 ], [ 137.041256163, 35.468795695 ], [ 137.041276084, 35.468857723 ], [ 137.041288977, 35.468981652 ], [ 137.041276006, 35.469155317 ], [ 137.041272885, 35.469234054 ], [ 137.04124805, 35.469439559 ], [ 137.041212429, 35.469661298 ], [ 137.041206436, 35.469681464 ], [ 137.041118324, 35.469886455 ], [ 137.040992589, 35.470093968 ], [ 137.040945704, 35.470201866 ], [ 137.040852615, 35.470320714 ], [ 137.040732508, 35.47043968 ], [ 137.040677569, 35.47049829 ], [ 137.040474995, 35.470823879 ], [ 137.040472802, 35.470849772 ], [ 137.040483599, 35.471089463 ], [ 137.040474712, 35.471134951 ], [ 137.040508214, 35.471207423 ], [ 137.040543387, 35.47133122 ], [ 137.040570788, 35.471417683 ], [ 137.040573445, 35.471469736 ], [ 137.040581964, 35.471713084 ], [ 137.040679396, 35.471884419 ], [ 137.040748777, 35.472002887 ], [ 137.040792373, 35.472117859 ], [ 137.040800364, 35.472189434 ], [ 137.040792913, 35.472240315 ], [ 137.040778191, 35.472279155 ], [ 137.040787284, 35.472328132 ], [ 137.040788956, 35.472354828 ], [ 137.040797858, 35.472415758 ], [ 137.040837443, 35.472477989 ], [ 137.04094281, 35.472621301 ], [ 137.041114743, 35.472843102 ], [ 137.041173, 35.472904534 ], [ 137.041345929, 35.473140024 ], [ 137.0413722, 35.473169749 ], [ 137.041599671, 35.473405556 ], [ 137.041733543, 35.47355958 ], [ 137.041946067, 35.473882927 ], [ 137.041952613, 35.473893295 ], [ 137.042310496, 35.47447446 ], [ 137.042340577, 35.474531052 ], [ 137.042376955, 35.474635158 ], [ 137.042430103, 35.474711092 ], [ 137.042437429, 35.474720928 ], [ 137.042459973, 35.474767677 ], [ 137.042518316, 35.474823896 ], [ 137.042565211, 35.474877982 ], [ 137.042623686, 35.474982851 ], [ 137.04263565, 35.475024516 ], [ 137.042644894, 35.47511581 ], [ 137.042601401, 35.475467066 ], [ 137.042575932, 35.475601171 ], [ 137.042497824, 35.476017432 ], [ 137.042435821, 35.476328803 ], [ 137.042431991, 35.476345444 ], [ 137.042409018, 35.476462112 ], [ 137.042230306, 35.476708096 ], [ 137.042150009, 35.476778918 ], [ 137.042013555, 35.476918312 ], [ 137.041938514, 35.477009765 ], [ 137.041892946, 35.477072852 ], [ 137.041505415, 35.477562782 ], [ 137.041518322, 35.47768633 ], [ 137.041624291, 35.47797403 ], [ 137.041637615, 35.478002552 ], [ 137.041763267, 35.478235245 ], [ 137.041781343, 35.478264619 ], [ 137.041820307, 35.478355392 ], [ 137.041900426, 35.478465254 ], [ 137.042065934, 35.478667039 ], [ 137.042081061, 35.478687434 ], [ 137.042071972, 35.478719636 ], [ 137.042058761, 35.478767388 ], [ 137.042058515, 35.47877217 ], [ 137.042047437, 35.478839567 ], [ 137.04205087, 35.479022237 ], [ 137.042026982, 35.479179195 ], [ 137.04201835, 35.479471163 ], [ 137.042003832, 35.479632783 ], [ 137.041985094, 35.47970921 ], [ 137.041978501, 35.479746634 ], [ 137.042146157, 35.47990681 ], [ 137.042207213, 35.480024682 ], [ 137.042260578, 35.480132668 ], [ 137.042404599, 35.4803686 ], [ 137.042449881, 35.480433333 ], [ 137.042471115, 35.480454238 ], [ 137.042571413, 35.480542777 ], [ 137.042575314, 35.480547377 ], [ 137.042660908, 35.480661724 ], [ 137.042712607, 35.480716506 ], [ 137.04281413, 35.480787566 ], [ 137.042895168, 35.480869833 ], [ 137.042911775, 35.480893656 ], [ 137.042972724, 35.48095827 ], [ 137.04302925, 35.481039899 ], [ 137.043049804, 35.481081435 ], [ 137.043069304, 35.481108909 ], [ 137.043133005, 35.481189898 ], [ 137.043167099, 35.481251732 ], [ 137.043220491, 35.481353776 ], [ 137.043271049, 35.481476943 ], [ 137.043286402, 35.481527926 ], [ 137.043300336, 35.481566562 ], [ 137.043309411, 35.481602654 ], [ 137.043305487, 35.481637327 ], [ 137.043316097, 35.481686005 ], [ 137.043320833, 35.481701848 ], [ 137.043330368, 35.481723659 ], [ 137.043335432, 35.481759728 ], [ 137.043327534, 35.481805509 ], [ 137.043309913, 35.481848226 ], [ 137.043228448, 35.481944694 ], [ 137.043189433, 35.481980514 ], [ 137.043165311, 35.482030512 ], [ 137.043124584, 35.482243859 ], [ 137.043122565, 35.48236775 ], [ 137.043150231, 35.482486452 ], [ 137.043205157, 35.48257321 ], [ 137.043325908, 35.482712626 ], [ 137.043398813, 35.482809995 ], [ 137.043430112, 35.482881935 ], [ 137.043431237, 35.48288428 ], [ 137.043435297, 35.482949506 ], [ 137.043465664, 35.483214397 ], [ 137.043488842, 35.483268934 ], [ 137.043539482, 35.483329672 ], [ 137.04372356, 35.48347894 ], [ 137.043812457, 35.483518916 ], [ 137.04388068, 35.483571992 ], [ 137.043888768, 35.483577103 ], [ 137.043930576, 35.483626698 ], [ 137.043969887, 35.483701865 ], [ 137.043980918, 35.483744654 ], [ 137.044031581, 35.483781074 ], [ 137.044052932, 35.483789193 ], [ 137.044073589, 35.48379717 ], [ 137.04408574, 35.483802155 ], [ 137.044095606, 35.483824895 ], [ 137.04408366, 35.483867585 ], [ 137.044063854, 35.483917773 ], [ 137.044063789, 35.483960677 ], [ 137.044093112, 35.484095668 ], [ 137.044146827, 35.484207011 ], [ 137.044183158, 35.484302232 ], [ 137.044185751, 35.484310616 ], [ 137.044183717, 35.484324935 ], [ 137.044170081, 35.484335319 ], [ 137.044038843, 35.484375873 ], [ 137.044013685, 35.484380896 ], [ 137.043988515, 35.484386647 ], [ 137.043832176, 35.484413372 ], [ 137.043806471, 35.484423172 ], [ 137.0437932, 35.484432983 ], [ 137.043773888, 35.484551104 ], [ 137.043773257, 35.484560249 ], [ 137.043770628, 35.484598594 ], [ 137.043767492, 35.484659722 ], [ 137.043760221, 35.484792842 ], [ 137.043792919, 35.484860514 ], [ 137.043805991, 35.484916888 ], [ 137.043747997, 35.484994979 ], [ 137.043712586, 35.48508907 ], [ 137.04363324, 35.485225829 ], [ 137.043625802, 35.485252644 ], [ 137.043624595, 35.485283297 ], [ 137.043599746, 35.485319669 ], [ 137.043542587, 35.485363664 ], [ 137.043506739, 35.485400018 ], [ 137.043489027, 35.485431281 ], [ 137.043461919, 35.485488378 ], [ 137.043458865, 35.485533629 ], [ 137.043452483, 35.485543766 ], [ 137.043352024, 35.485625167 ], [ 137.043230364, 35.485678402 ], [ 137.043177009, 35.48572268 ], [ 137.043175956, 35.485781362 ], [ 137.043160124, 35.485809964 ], [ 137.043124446, 35.485890295 ], [ 137.043122312, 35.485901545 ], [ 137.043117583, 35.485930638 ], [ 137.043115346, 35.48600441 ], [ 137.043113705, 35.486062788 ], [ 137.043109177, 35.486077538 ], [ 137.043095304, 35.486098053 ], [ 137.043048137, 35.486155101 ], [ 137.043007265, 35.486213442 ], [ 137.042992938, 35.486260905 ], [ 137.042984872, 35.486307093 ], [ 137.042971014, 35.486427351 ], [ 137.042972543, 35.486460523 ], [ 137.042960574, 35.486599694 ], [ 137.042939731, 35.486804569 ], [ 137.042914249, 35.487092863 ], [ 137.042900286, 35.487254474 ], [ 137.042886948, 35.487465877 ], [ 137.042885858, 35.487506525 ], [ 137.042883341, 35.487633137 ], [ 137.042888015, 35.487833825 ], [ 137.042894186, 35.488011527 ], [ 137.042873958, 35.488262097 ], [ 137.042862974, 35.48840171 ], [ 137.042850214, 35.488556224 ], [ 137.042829353, 35.488661936 ], [ 137.042778565, 35.488835812 ], [ 137.042639269, 35.489072139 ], [ 137.042602819, 35.489134737 ], [ 137.042565034, 35.48923851 ], [ 137.042487843, 35.48947342 ], [ 137.042464173, 35.489554539 ], [ 137.042419736, 35.489648969 ], [ 137.04237917, 35.489670058 ], [ 137.04230645, 35.489696543 ], [ 137.042235172, 35.489726903 ], [ 137.042035759, 35.489824101 ], [ 137.041998775, 35.489839141 ], [ 137.04199446, 35.489841211 ], [ 137.041821152, 35.489922606 ], [ 137.041696728, 35.48998146 ], [ 137.041400392, 35.490113024 ], [ 137.041379813, 35.490127189 ], [ 137.041275825, 35.490219472 ], [ 137.041266693, 35.490231061 ], [ 137.041097888, 35.490382719 ], [ 137.041094896, 35.490385167 ], [ 137.041135065, 35.490415547 ], [ 137.041305979, 35.490265751 ], [ 137.041315036, 35.490254437 ], [ 137.04141821, 35.49016472 ], [ 137.041438625, 35.490151006 ], [ 137.041732372, 35.490025083 ], [ 137.041855349, 35.489968675 ], [ 137.042030926, 35.48988857 ], [ 137.042070553, 35.489873103 ], [ 137.042283601, 35.489772191 ], [ 137.042359043, 35.489740155 ], [ 137.042435524, 35.48971191 ], [ 137.042478351, 35.489689642 ], [ 137.042528478, 35.489591799 ], [ 137.042556726, 35.489507403 ], [ 137.042647417, 35.489258757 ], [ 137.042685969, 35.489153057 ], [ 137.042722864, 35.489089244 ], [ 137.042863574, 35.488848373 ], [ 137.042915123, 35.488671309 ], [ 137.042936355, 35.488563667 ], [ 137.042949538, 35.488406327 ], [ 137.042961291, 35.48826607 ], [ 137.042982879, 35.488014313 ], [ 137.042977655, 35.487835751 ], [ 137.042974036, 35.487634067 ], [ 137.042977211, 35.487506813 ], [ 137.042978219, 35.487466433 ], [ 137.042991104, 35.487256416 ], [ 137.0430047, 35.487095857 ], [ 137.043029482, 35.48680942 ], [ 137.043049791, 35.486605851 ], [ 137.043063689, 35.486466556 ], [ 137.043062615, 35.486433353 ], [ 137.043078143, 35.486312977 ], [ 137.043086852, 35.486266741 ], [ 137.043101845, 35.486219226 ], [ 137.043143556, 35.48616082 ], [ 137.043191546, 35.486103706 ], [ 137.043205713, 35.486083167 ], [ 137.043210447, 35.486068399 ], [ 137.043212892, 35.486009953 ], [ 137.043216146, 35.485936092 ], [ 137.043223275, 35.485895635 ], [ 137.043257951, 35.485814742 ], [ 137.043273424, 35.485785941 ], [ 137.043280658, 35.485763963 ], [ 137.043273758, 35.485726867 ], [ 137.043326541, 35.485682281 ], [ 137.043447491, 35.485628671 ], [ 137.043546916, 35.485546733 ], [ 137.043553171, 35.485536532 ], [ 137.043555672, 35.485491 ], [ 137.043582073, 35.485433551 ], [ 137.043599397, 35.485402096 ], [ 137.043634791, 35.485365522 ], [ 137.043691399, 35.485321261 ], [ 137.043715799, 35.485284675 ], [ 137.043716631, 35.485253846 ], [ 137.04372374, 35.485226877 ], [ 137.043801402, 35.485089353 ], [ 137.043835658, 35.484994756 ], [ 137.043892696, 35.484916257 ], [ 137.04387893, 35.484859593 ], [ 137.043845391, 35.484791578 ], [ 137.043851013, 35.484657806 ], [ 137.04385339, 35.484596387 ], [ 137.043855542, 35.484557863 ], [ 137.043855831, 35.48455269 ], [ 137.043857274, 35.48446977 ], [ 137.043867557, 35.484462741 ], [ 137.043888389, 35.484456858 ], [ 137.043996356, 35.484445974 ], [ 137.04402421, 35.484443166 ], [ 137.044052312, 35.484434961 ], [ 137.044247165, 35.484372012 ], [ 137.044252668, 35.484367843 ], [ 137.044257515, 35.484362085 ], [ 137.044258639, 35.484353229 ], [ 137.044183122, 35.484140722 ], [ 137.044151017, 35.484080314 ], [ 137.044122141, 35.48396146 ], [ 137.044126917, 35.483919073 ], [ 137.044153565, 35.483840161 ], [ 137.044164346, 35.483813817 ], [ 137.044161861, 35.483801926 ], [ 137.044157217, 35.48379149 ], [ 137.04414741, 35.483784149 ], [ 137.044086317, 35.483764239 ], [ 137.04403846, 35.483734645 ], [ 137.044010332, 35.483640842 ], [ 137.043971939, 35.483576202 ], [ 137.04396397, 35.483569416 ], [ 137.04389927, 35.483514325 ], [ 137.043813236, 35.483472559 ], [ 137.043639577, 35.483315463 ], [ 137.043592975, 35.483251024 ], [ 137.043573102, 35.483193113 ], [ 137.043555538, 35.482910815 ], [ 137.043553937, 35.482840986 ], [ 137.043552908, 35.482838449 ], [ 137.043523318, 35.482765542 ], [ 137.043452936, 35.482666725 ], [ 137.043335869, 35.482525144 ], [ 137.043283074, 35.482437108 ], [ 137.043258015, 35.482316814 ], [ 137.043262548, 35.48219136 ], [ 137.043307165, 35.481975536 ], [ 137.043332075, 35.481925027 ], [ 137.043371489, 35.481888948 ], [ 137.043454196, 35.481791667 ], [ 137.043472501, 35.481748499 ], [ 137.043481211, 35.481702181 ], [ 137.04347687, 35.48166563 ], [ 137.043467819, 35.481643495 ], [ 137.043450149, 35.481578984 ], [ 137.043452422, 35.48154447 ], [ 137.043441372, 35.481508579 ], [ 137.043425248, 35.481470181 ], [ 137.043407081, 35.481419526 ], [ 137.04334952, 35.481297296 ], [ 137.043290156, 35.481196184 ], [ 137.043253245, 35.481133315 ], [ 137.04318554, 35.481050968 ], [ 137.043164721, 35.481023074 ], [ 137.043142337, 35.480980981 ], [ 137.04308194, 35.48089826 ], [ 137.043017631, 35.480832794 ], [ 137.042999899, 35.480808705 ], [ 137.042914517, 35.480725504 ], [ 137.042808582, 35.480653643 ], [ 137.042754031, 35.480598424 ], [ 137.042659455, 35.480478922 ], [ 137.042566535, 35.480392939 ], [ 137.042546932, 35.480372669 ], [ 137.042506052, 35.480309782 ] ] ] } },
{ "type": "Feature", "properties": { "A31a_401": "8505090253", "A31a_402": "加茂川", "A31a_403": "21", "A31a_404": "岐阜県", "A31a_405": 2 }, "geometry": { "type": "Polygon", "coordinates": [ [ [ 137.042641235, 35.489572055 ], [ 137.042620664, 35.489648777 ], [ 137.042611195, 35.489667389 ], [ 137.042558874, 35.48974636 ], [ 137.042490537, 35.48976809 ], [ 137.042385687, 35.489803091 ], [ 137.042072425, 35.489936849 ], [ 137.042059918, 35.489942969 ], [ 137.042011294, 35.489966761 ], [ 137.041993177, 35.489970373 ], [ 137.041935752, 35.4899794 ], [ 137.041467298, 35.490186924 ], [ 137.041446174, 35.490200981 ], [ 137.041269885, 35.490364753 ], [ 137.041175314, 35.490445987 ], [ 137.041215493, 35.490476373 ], [ 137.04130963, 35.490397536 ], [ 137.041484615, 35.49023839 ], [ 137.041505569, 35.490224805 ], [ 137.041969232, 35.490026565 ], [ 137.042025979, 35.49001852 ], [ 137.042043866, 35.490015229 ], [ 137.042091744, 35.489992445 ], [ 137.042105093, 35.489986202 ], [ 137.042436644, 35.489847394 ], [ 137.042546287, 35.489810241 ], [ 137.042617459, 35.489787049 ], [ 137.042674334, 35.489705403 ], [ 137.042684802, 35.489686147 ], [ 137.042641235, 35.489572055 ] ] ] } }
]
}
