{
"type": "FeatureCollection",
"name": "A31a-42-25_21_8505090088_10",
"crs": { "type": "name", "properties": { "name": "urn:ogc:def:crs:EPSG::6668" } },
"xy_coordinate_resolution": 1e-09,
"features": [
{ "type": "Feature", "properties": { "A31a_401": "8505090088", "A31a_402": "武儀川", "A31a_403": "21", "A31a_404": "岐阜県", "A31a_405": 2 }, "geometry": { "type": "Polygon", "coordinates": [ [ [ 136.8436111, 35.49066667 ], [ 136.8436111, 35.49044444 ], [ 136.8438889, 35.49044444 ], [ 136.8438889, 35.49022222 ], [ 136.8438889, 35.49 ], [ 136.8441667, 35.49 ], [ 136.8441667, 35.48977778 ], [ 136.8441667, 35.48955556 ], [ 136.8444444, 35.48955556 ], [ 136.8444444, 35.48933333 ], [ 136.8447222, 35.48933333 ], [ 136.8447222, 35.48911111 ], [ 136.845, 35.48911111 ], [ 136.845, 35.48888889 ], [ 136.8452778, 35.48888889 ], [ 136.8452778, 35.48866667 ], [ 136.845, 35.48866667 ], [ 136.8447222, 35.48866667 ], [ 136.8444444, 35.48866667 ], [ 136.8441667, 35.48866667 ], [ 136.8438889, 35.48866667 ], [ 136.8438889, 35.48888889 ], [ 136.8436111, 35.48888889 ], [ 136.8436111, 35.48911111 ], [ 136.8433333, 35.48911111 ], [ 136.8433333, 35.48933333 ], [ 136.8433333, 35.48955556 ], [ 136.8433333, 35.48977778 ], [ 136.8433333, 35.49 ], [ 136.8433333, 35.49022222 ], [ 136.8433333, 35.49044444 ], [ 136.8433333, 35.49066667 ], [ 136.8436111, 35.49066667 ] ] ] } },
{ "type": "Feature", "properties": { "A31a_401": "8505090088", "A31a_402": "武儀川", "A31a_403": "21", "A31a_404": "岐阜県", "A31a_405": 2 }, "geometry": { "type": "Polygon", "coordinates": [ [ [ 136.8427778, 35.49222222 ], [ 136.8427778, 35.492 ], [ 136.8430556, 35.492 ], [ 136.8430556, 35.49177778 ], [ 136.8430556, 35.49155556 ], [ 136.8430556, 35.49133333 ], [ 136.8430556, 35.49111111 ], [ 136.8427778, 35.49111111 ], [ 136.8427778, 35.49088889 ], [ 136.8427778, 35.49066667 ], [ 136.8427778, 35.49044444 ], [ 136.8427778, 35.49022222 ], [ 136.8427778, 35.49 ], [ 136.8425, 35.49 ], [ 136.8425, 35.48977778 ], [ 136.8425, 35.48955556 ], [ 136.8422222, 35.48955556 ], [ 136.8422222, 35.48933333 ], [ 136.8422222, 35.48911111 ], [ 136.8422222, 35.48888889 ], [ 136.8422222, 35.48866667 ], [ 136.8419444, 35.48866667 ], [ 136.8419444, 35.48844444 ], [ 136.8416667, 35.48844444 ], [ 136.8413889, 35.48844444 ], [ 136.8411111, 35.48844444 ], [ 136.8408333, 35.48844444 ], [ 136.8408333, 35.48866667 ], [ 136.8408333, 35.48888889 ], [ 136.8411111, 35.48888889 ], [ 136.8411111, 35.48911111 ], [ 136.8413889, 35.48911111 ], [ 136.8413889, 35.48933333 ], [ 136.8413889, 35.48955556 ], [ 136.8416667, 35.48955556 ], [ 136.8416667, 35.48977778 ], [ 136.8416667, 35.49 ], [ 136.8416667, 35.49022222 ], [ 136.8419444, 35.49022222 ], [ 136.8419444, 35.49044444 ], [ 136.8419444, 35.49066667 ], [ 136.8419444, 35.49088889 ], [ 136.8422222, 35.49088889 ], [ 136.8422222, 35.49111111 ], [ 136.8422222, 35.49133333 ], [ 136.8425, 35.49133333 ], [ 136.8425, 35.49155556 ], [ 136.8425, 35.49177778 ], [ 136.8425, 35.492 ], [ 136.8425, 35.49222222 ], [ 136.8427778, 35.49222222 ] ] ] } },
{ "type": "Feature", "properties": { "A31a_401": "8505090088", "A31a_402": "武儀川", "A31a_403": "21", "A31a_404": "岐阜県", "A31a_405": 2 }, "geometry": { "type": "Polygon", "coordinates": [ [ [ 136.8419444, 35.49577778 ], [ 136.8419444, 35.49555556 ], [ 136.8422222, 35.49555556 ], [ 136.8422222, 35.49533333 ], [ 136.8422222, 35.49511111 ], [ 136.8422222, 35.49488889 ], [ 136.8425, 35.49488889 ], [ 136.8425, 35.49466667 ], [ 136.8425, 35.49444444 ], [ 136.8425, 35.49422222 ], [ 136.8427778, 35.49422222 ], [ 136.8427778, 35.494 ], [ 136.8427778, 35.49377778 ], [ 136.8427778, 35.49355556 ], [ 136.8427778, 35.49333333 ], [ 136.8427778, 35.49311111 ], [ 136.8425, 35.49311111 ], [ 136.8425, 35.49333333 ], [ 136.8422222, 35.49333333 ], [ 136.8422222, 35.49355556 ], [ 136.8422222, 35.49377778 ], [ 136.8422222, 35.494 ], [ 136.8419444, 35.494 ], [ 136.8419444, 35.49422222 ], [ 136.8419444, 35.49444444 ], [ 136.8419444, 35.49466667 ], [ 136.8416667, 35.49466667 ], [ 136.8416667, 35.49488889 ], [ 136.8416667, 35.49511111 ], [ 136.8416667, 35.49533333 ], [ 136.8416667, 35.49555556 ], [ 136.8416667, 35.49577778 ], [ 136.8419444, 35.49577778 ] ] ] } },
{ "type": "Feature", "properties": { "A31a_401": "8505090088", "A31a_402": "武儀川", "A31a_403": "21", "A31a_404": "岐阜県", "A31a_405": 2 }, "geometry": { "type": "Polygon", "coordinates": [ [ [ 136.8433333, 35.49688889 ], [ 136.8433333, 35.49666667 ], [ 136.8436111, 35.49666667 ], [ 136.8436111, 35.49644444 ], [ 136.8433333, 35.49644444 ], [ 136.8433333, 35.49622222 ], [ 136.8433333, 35.496 ], [ 136.8433333, 35.49577778 ], [ 136.8433333, 35.49555556 ], [ 136.8433333, 35.49533333 ], [ 136.8433333, 35.49511111 ], [ 136.8433333, 35.49488889 ], [ 136.8430556, 35.49488889 ], [ 136.8430556, 35.49511111 ], [ 136.8430556, 35.49533333 ], [ 136.8427778, 35.49533333 ], [ 136.8427778, 35.49555556 ], [ 136.8427778, 35.49577778 ], [ 136.8427778, 35.496 ], [ 136.8427778, 35.49622222 ], [ 136.8427778, 35.49644444 ], [ 136.8427778, 35.49666667 ], [ 136.8427778, 35.49688889 ], [ 136.8427778, 35.49711111 ], [ 136.8427778, 35.49733333 ], [ 136.8430556, 35.49733333 ], [ 136.8433333, 35.49733333 ], [ 136.8433333, 35.49711111 ], [ 136.8433333, 35.49688889 ] ] ] } },
{ "type": "Feature", "properties": { "A31a_401": "8505090088", "A31a_402": "武儀川", "A31a_403": "21", "A31a_404": "岐阜県", "A31a_405": 2 }, "geometry": { "type": "Polygon", "coordinates": [ [ [ 136.8480556, 35.50333333 ], [ 136.8483333, 35.50333333 ], [ 136.8483333, 35.50355556 ], [ 136.8486111, 35.50355556 ], [ 136.8488889, 35.50355556 ], [ 136.8488889, 35.50333333 ], [ 136.8488889, 35.50311111 ], [ 136.8486111, 35.50311111 ], [ 136.8486111, 35.50288889 ], [ 136.8486111, 35.50266667 ], [ 136.8483333, 35.50266667 ], [ 136.8483333, 35.50244444 ], [ 136.8480556, 35.50244444 ], [ 136.8477778, 35.50244444 ], [ 136.8477778, 35.50222222 ], [ 136.8475, 35.50222222 ], [ 136.8472222, 35.50222222 ], [ 136.8472222, 35.502 ], [ 136.8469444, 35.502 ], [ 136.8469444, 35.50177778 ], [ 136.8466667, 35.50177778 ], [ 136.8466667, 35.50155556 ], [ 136.8466667, 35.50133333 ], [ 136.8463889, 35.50133333 ], [ 136.8463889, 35.50111111 ], [ 136.8461111, 35.50111111 ], [ 136.8461111, 35.50088889 ], [ 136.8458333, 35.50088889 ], [ 136.8458333, 35.50066667 ], [ 136.8458333, 35.50044444 ], [ 136.8455556, 35.50044444 ], [ 136.8455556, 35.50022222 ], [ 136.8452778, 35.50022222 ], [ 136.8452778, 35.5 ], [ 136.8452778, 35.49977778 ], [ 136.845, 35.49977778 ], [ 136.845, 35.49955556 ], [ 136.8447222, 35.49955556 ], [ 136.8447222, 35.49933333 ], [ 136.8447222, 35.49911111 ], [ 136.8444444, 35.49911111 ], [ 136.8441667, 35.49911111 ], [ 136.8441667, 35.49888889 ], [ 136.8438889, 35.49888889 ], [ 136.8438889, 35.49866667 ], [ 136.8438889, 35.49844444 ], [ 136.8436111, 35.49844444 ], [ 136.8436111, 35.49822222 ], [ 136.8436111, 35.498 ], [ 136.8433333, 35.498 ], [ 136.8430556, 35.498 ], [ 136.8430556, 35.49822222 ], [ 136.8430556, 35.49844444 ], [ 136.8433333, 35.49844444 ], [ 136.8433333, 35.49866667 ], [ 136.8436111, 35.49866667 ], [ 136.8436111, 35.49888889 ], [ 136.8436111, 35.49911111 ], [ 136.8438889, 35.49911111 ], [ 136.8438889, 35.49933333 ], [ 136.8441667, 35.49933333 ], [ 136.8441667, 35.49955556 ], [ 136.8441667, 35.49977778 ], [ 136.8444444, 35.49977778 ], [ 136.8444444, 35.5 ], [ 136.8444444, 35.50022222 ], [ 136.8447222, 35.50022222 ], [ 136.8447222, 35.50044444 ], [ 136.845, 35.50044444 ], [ 136.845, 35.50066667 ], [ 136.8452778, 35.50066667 ], [ 136.8452778, 35.50088889 ], [ 136.8452778, 35.50111111 ], [ 136.8455556, 35.50111111 ], [ 136.8455556, 35.50133333 ], [ 136.8458333, 35.50133333 ], [ 136.8458333, 35.50155556 ], [ 136.8461111, 35.50155556 ], [ 136.8461111, 35.50177778 ], [ 136.8463889, 35.50177778 ], [ 136.8463889, 35.502 ], [ 136.8463889, 35.50222222 ], [ 136.8466667, 35.50222222 ], [ 136.8466667, 35.50244444 ], [ 136.8469444, 35.50244444 ], [ 136.8469444, 35.50266667 ], [ 136.8472222, 35.50266667 ], [ 136.8472222, 35.50288889 ], [ 136.8475, 35.50288889 ], [ 136.8477778, 35.50288889 ], [ 136.8477778, 35.50311111 ], [ 136.8480556, 35.50311111 ], [ 136.8480556, 35.50333333 ] ] ] } },
{ "type": "Feature", "properties": { "A31a_401": "8505090088", "A31a_402": "武儀川", "A31a_403": "21", "A31a_404": "岐阜県", "A31a_405": 2 }, "geometry": { "type": "Polygon", "coordinates": [ [ [ 136.8483333, 35.50355556 ], [ 136.8480556, 35.50355556 ], [ 136.8480556, 35.50333333 ], [ 136.8477778, 35.50333333 ], [ 136.8475, 35.50333333 ], [ 136.8472222, 35.50333333 ], [ 136.8472222, 35.50355556 ], [ 136.8475, 35.50355556 ], [ 136.8475, 35.50377778 ], [ 136.8477778, 35.50377778 ], [ 136.8480556, 35.50377778 ], [ 136.8480556, 35.504 ], [ 136.8483333, 35.504 ], [ 136.8483333, 35.50422222 ], [ 136.8486111, 35.50422222 ], [ 136.8488889, 35.50422222 ], [ 136.8488889, 35.50444444 ], [ 136.8491667, 35.50444444 ], [ 136.8494444, 35.50444444 ], [ 136.8497222, 35.50444444 ], [ 136.85, 35.50444444 ], [ 136.8502778, 35.50444444 ], [ 136.8502778, 35.50466667 ], [ 136.8505556, 35.50466667 ], [ 136.8505556, 35.50488889 ], [ 136.8508333, 35.50488889 ], [ 136.8508333, 35.50511111 ], [ 136.8508333, 35.50533333 ], [ 136.8511111, 35.50533333 ], [ 136.8513889, 35.50533333 ], [ 136.8513889, 35.50555556 ], [ 136.8516667, 35.50555556 ], [ 136.8516667, 35.50533333 ], [ 136.8516667, 35.50511111 ], [ 136.8516667, 35.50488889 ], [ 136.8516667, 35.50466667 ], [ 136.8513889, 35.50466667 ], [ 136.8513889, 35.50444444 ], [ 136.8513889, 35.50422222 ], [ 136.8513889, 35.504 ], [ 136.8511111, 35.504 ], [ 136.8508333, 35.504 ], [ 136.8505556, 35.504 ], [ 136.8502778, 35.504 ], [ 136.85, 35.504 ], [ 136.8497222, 35.504 ], [ 136.8497222, 35.50422222 ], [ 136.8494444, 35.50422222 ], [ 136.8494444, 35.504 ], [ 136.8491667, 35.504 ], [ 136.8488889, 35.504 ], [ 136.8488889, 35.50377778 ], [ 136.8486111, 35.50377778 ], [ 136.8483333, 35.50377778 ], [ 136.8483333, 35.50355556 ] ] ] } },
{ "type": "Feature", "properties": { "A31a_401": "8505090088", "A31a_402": "武儀川", "A31a_403": "21", "A31a_404": "岐阜県", "A31a_405": 2 }, "geometry": { "type": "Polygon", "coordinates": [ [ [ 136.8513889, 35.50555556 ], [ 136.8511111, 35.50555556 ], [ 136.8508333, 35.50555556 ], [ 136.8508333, 35.50577778 ], [ 136.8505556, 35.50577778 ], [ 136.8505556, 35.506 ], [ 136.8505556, 35.50622222 ], [ 136.8505556, 35.50644444 ], [ 136.8508333, 35.50644444 ], [ 136.8508333, 35.50666667 ], [ 136.8511111, 35.50666667 ], [ 136.8513889, 35.50666667 ], [ 136.8513889, 35.50688889 ], [ 136.8513889, 35.50711111 ], [ 136.8516667, 35.50711111 ], [ 136.8519444, 35.50711111 ], [ 136.8522222, 35.50711111 ], [ 136.8522222, 35.50688889 ], [ 136.8522222, 35.50666667 ], [ 136.8519444, 35.50666667 ], [ 136.8519444, 35.50644444 ], [ 136.8519444, 35.50622222 ], [ 136.8516667, 35.50622222 ], [ 136.8516667, 35.506 ], [ 136.8513889, 35.506 ], [ 136.8513889, 35.50577778 ], [ 136.8513889, 35.50555556 ] ] ] } },
{ "type": "Feature", "properties": { "A31a_401": "8505090088", "A31a_402": "武儀川", "A31a_403": "21", "A31a_404": "岐阜県", "A31a_405": 2 }, "geometry": { "type": "Polygon", "coordinates": [ [ [ 136.8561111, 35.50688889 ], [ 136.8561111, 35.50666667 ], [ 136.8558333, 35.50666667 ], [ 136.8555556, 35.50666667 ], [ 136.8552778, 35.50666667 ], [ 136.8552778, 35.50688889 ], [ 136.855, 35.50688889 ], [ 136.8547222, 35.50688889 ], [ 136.8547222, 35.50666667 ], [ 136.8547222, 35.50644444 ], [ 136.8547222, 35.50622222 ], [ 136.8544444, 35.50622222 ], [ 136.8544444, 35.506 ], [ 136.8544444, 35.50577778 ], [ 136.8541667, 35.50577778 ], [ 136.8538889, 35.50577778 ], [ 136.8536111, 35.50577778 ], [ 136.8533333, 35.50577778 ], [ 136.8530556, 35.50577778 ], [ 136.8527778, 35.50577778 ], [ 136.8525, 35.50577778 ], [ 136.8522222, 35.50577778 ], [ 136.8522222, 35.506 ], [ 136.8525, 35.506 ], [ 136.8525, 35.50622222 ], [ 136.8527778, 35.50622222 ], [ 136.8530556, 35.50622222 ], [ 136.8530556, 35.50644444 ], [ 136.8530556, 35.50666667 ], [ 136.8533333, 35.50666667 ], [ 136.8533333, 35.50688889 ], [ 136.8536111, 35.50688889 ], [ 136.8538889, 35.50688889 ], [ 136.8538889, 35.50711111 ], [ 136.8541667, 35.50711111 ], [ 136.8544444, 35.50711111 ], [ 136.8544444, 35.50733333 ], [ 136.8547222, 35.50733333 ], [ 136.855, 35.50733333 ], [ 136.855, 35.50755556 ], [ 136.8552778, 35.50755556 ], [ 136.8552778, 35.50777778 ], [ 136.8555556, 35.50777778 ], [ 136.8555556, 35.508 ], [ 136.8558333, 35.508 ], [ 136.8558333, 35.50822222 ], [ 136.8561111, 35.50822222 ], [ 136.8561111, 35.50844444 ], [ 136.8563889, 35.50844444 ], [ 136.8566667, 35.50844444 ], [ 136.8569444, 35.50844444 ], [ 136.8569444, 35.50866667 ], [ 136.8572222, 35.50866667 ], [ 136.8575, 35.50866667 ], [ 136.8575, 35.50888889 ], [ 136.8577778, 35.50888889 ], [ 136.8580556, 35.50888889 ], [ 136.8580556, 35.50866667 ], [ 136.8580556, 35.50844444 ], [ 136.8577778, 35.50844444 ], [ 136.8575, 35.50844444 ], [ 136.8575, 35.50822222 ], [ 136.8572222, 35.50822222 ], [ 136.8572222, 35.508 ], [ 136.8569444, 35.508 ], [ 136.8566667, 35.508 ], [ 136.8563889, 35.508 ], [ 136.8561111, 35.508 ], [ 136.8561111, 35.50777778 ], [ 136.8561111, 35.50755556 ], [ 136.8561111, 35.50733333 ], [ 136.8561111, 35.50711111 ], [ 136.8561111, 35.50688889 ] ] ] } },
{ "type": "Feature", "properties": { "A31a_401": "8505090088", "A31a_402": "武儀川", "A31a_403": "21", "A31a_404": "岐阜県", "A31a_405": 2 }, "geometry": { "type": "Polygon", "coordinates": [ [ [ 136.8572222, 35.51333333 ], [ 136.8572222, 35.51311111 ], [ 136.8575, 35.51311111 ], [ 136.8575, 35.51288889 ], [ 136.8577778, 35.51288889 ], [ 136.8577778, 35.51266667 ], [ 136.8580556, 35.51266667 ], [ 136.8580556, 35.51244444 ], [ 136.8583333, 35.51244444 ], [ 136.8583333, 35.51222222 ], [ 136.8583333, 35.512 ], [ 136.8586111, 35.512 ], [ 136.8586111, 35.51177778 ], [ 136.8586111, 35.51155556 ], [ 136.8586111, 35.51133333 ], [ 136.8586111, 35.51111111 ], [ 136.8586111, 35.51088889 ], [ 136.8583333, 35.51088889 ], [ 136.8583333, 35.51066667 ], [ 136.8583333, 35.51044444 ], [ 136.8580556, 35.51044444 ], [ 136.8580556, 35.51022222 ], [ 136.8577778, 35.51022222 ], [ 136.8577778, 35.51 ], [ 136.8575, 35.51 ], [ 136.8572222, 35.51 ], [ 136.8569444, 35.51 ], [ 136.8569444, 35.51022222 ], [ 136.8569444, 35.51044444 ], [ 136.8569444, 35.51066667 ], [ 136.8569444, 35.51088889 ], [ 136.8572222, 35.51088889 ], [ 136.8572222, 35.51111111 ], [ 136.8575, 35.51111111 ], [ 136.8575, 35.51133333 ], [ 136.8575, 35.51155556 ], [ 136.8575, 35.51177778 ], [ 136.8575, 35.512 ], [ 136.8575, 35.51222222 ], [ 136.8575, 35.51244444 ], [ 136.8572222, 35.51244444 ], [ 136.8572222, 35.51266667 ], [ 136.8572222, 35.51288889 ], [ 136.8569444, 35.51288889 ], [ 136.8569444, 35.51311111 ], [ 136.8569444, 35.51333333 ], [ 136.8572222, 35.51333333 ] ] ] } },
{ "type": "Feature", "properties": { "A31a_401": "8505090088", "A31a_402": "武儀川", "A31a_403": "21", "A31a_404": "岐阜県", "A31a_405": 2 }, "geometry": { "type": "Polygon", "coordinates": [ [ [ 136.85, 35.52244444 ], [ 136.85, 35.52222222 ], [ 136.8502778, 35.52222222 ], [ 136.8502778, 35.522 ], [ 136.8502778, 35.52177778 ], [ 136.8505556, 35.52177778 ], [ 136.8505556, 35.52155556 ], [ 136.8505556, 35.52133333 ], [ 136.8505556, 35.52111111 ], [ 136.8508333, 35.52111111 ], [ 136.8508333, 35.52088889 ], [ 136.8508333, 35.52066667 ], [ 136.8508333, 35.52044444 ], [ 136.8511111, 35.52044444 ], [ 136.8511111, 35.52022222 ], [ 136.8511111, 35.52 ], [ 136.8513889, 35.52 ], [ 136.8513889, 35.51977778 ], [ 136.8513889, 35.51955556 ], [ 136.8513889, 35.51933333 ], [ 136.8516667, 35.51933333 ], [ 136.8516667, 35.51911111 ], [ 136.8516667, 35.51888889 ], [ 136.8519444, 35.51888889 ], [ 136.8519444, 35.51866667 ], [ 136.8519444, 35.51844444 ], [ 136.8522222, 35.51844444 ], [ 136.8522222, 35.51822222 ], [ 136.8522222, 35.518 ], [ 136.8525, 35.518 ], [ 136.8525, 35.51777778 ], [ 136.8525, 35.51755556 ], [ 136.8527778, 35.51755556 ], [ 136.8527778, 35.51733333 ], [ 136.8530556, 35.51733333 ], [ 136.8530556, 35.51711111 ], [ 136.8530556, 35.51688889 ], [ 136.8530556, 35.51666667 ], [ 136.8530556, 35.51644444 ], [ 136.8530556, 35.51622222 ], [ 136.8533333, 35.51622222 ], [ 136.8533333, 35.516 ], [ 136.8536111, 35.516 ], [ 136.8536111, 35.51577778 ], [ 136.8538889, 35.51577778 ], [ 136.8541667, 35.51577778 ], [ 136.8541667, 35.51555556 ], [ 136.8544444, 35.51555556 ], [ 136.8544444, 35.51533333 ], [ 136.8547222, 35.51533333 ], [ 136.8547222, 35.51511111 ], [ 136.855, 35.51511111 ], [ 136.855, 35.51488889 ], [ 136.8552778, 35.51488889 ], [ 136.8552778, 35.51466667 ], [ 136.8555556, 35.51466667 ], [ 136.8555556, 35.51444444 ], [ 136.8558333, 35.51444444 ], [ 136.8558333, 35.51422222 ], [ 136.8558333, 35.514 ], [ 136.8561111, 35.514 ], [ 136.8561111, 35.51377778 ], [ 136.8561111, 35.51355556 ], [ 136.8561111, 35.51333333 ], [ 136.8558333, 35.51333333 ], [ 136.8558333, 35.51355556 ], [ 136.8555556, 35.51355556 ], [ 136.8555556, 35.51377778 ], [ 136.8552778, 35.51377778 ], [ 136.8552778, 35.514 ], [ 136.855, 35.514 ], [ 136.855, 35.51422222 ], [ 136.8547222, 35.51422222 ], [ 136.8547222, 35.51444444 ], [ 136.8544444, 35.51444444 ], [ 136.8544444, 35.51466667 ], [ 136.8544444, 35.51488889 ], [ 136.8541667, 35.51488889 ], [ 136.8538889, 35.51488889 ], [ 136.8538889, 35.51511111 ], [ 136.8536111, 35.51511111 ], [ 136.8533333, 35.51511111 ], [ 136.8533333, 35.51533333 ], [ 136.8530556, 35.51533333 ], [ 136.8530556, 35.51555556 ], [ 136.8527778, 35.51555556 ], [ 136.8527778, 35.51577778 ], [ 136.8525, 35.51577778 ], [ 136.8525, 35.516 ], [ 136.8522222, 35.516 ], [ 136.8522222, 35.51622222 ], [ 136.8522222, 35.51644444 ], [ 136.8522222, 35.51666667 ], [ 136.8522222, 35.51688889 ], [ 136.8522222, 35.51711111 ], [ 136.8522222, 35.51733333 ], [ 136.8522222, 35.51755556 ], [ 136.8519444, 35.51755556 ], [ 136.8519444, 35.51777778 ], [ 136.8519444, 35.518 ], [ 136.8516667, 35.518 ], [ 136.8516667, 35.51822222 ], [ 136.8516667, 35.51844444 ], [ 136.8513889, 35.51844444 ], [ 136.8513889, 35.51866667 ], [ 136.8513889, 35.51888889 ], [ 136.8511111, 35.51888889 ], [ 136.8511111, 35.51911111 ], [ 136.8508333, 35.51911111 ], [ 136.8508333, 35.51933333 ], [ 136.8505556, 35.51933333 ], [ 136.8505556, 35.51955556 ], [ 136.8502778, 35.51955556 ], [ 136.8502778, 35.51977778 ], [ 136.8502778, 35.52 ], [ 136.85, 35.52 ], [ 136.85, 35.52022222 ], [ 136.85, 35.52044444 ], [ 136.85, 35.52066667 ], [ 136.8497222, 35.52066667 ], [ 136.8497222, 35.52088889 ], [ 136.8497222, 35.52111111 ], [ 136.8494444, 35.52111111 ], [ 136.8494444, 35.52133333 ], [ 136.8494444, 35.52155556 ], [ 136.8494444, 35.52177778 ], [ 136.8494444, 35.522 ], [ 136.8494444, 35.52222222 ], [ 136.8494444, 35.52244444 ], [ 136.8497222, 35.52244444 ], [ 136.8497222, 35.52266667 ], [ 136.85, 35.52266667 ], [ 136.85, 35.52244444 ] ] ] } },
{ "type": "Feature", "properties": { "A31a_401": "8505090088", "A31a_402": "武儀川", "A31a_403": "21", "A31a_404": "岐阜県", "A31a_405": 2 }, "geometry": { "type": "Polygon", "coordinates": [ [ [ 136.8505556, 35.52466667 ], [ 136.8505556, 35.52444444 ], [ 136.8508333, 35.52444444 ], [ 136.8508333, 35.52422222 ], [ 136.8511111, 35.52422222 ], [ 136.8511111, 35.524 ], [ 136.8513889, 35.524 ], [ 136.8513889, 35.52377778 ], [ 136.8513889, 35.52355556 ], [ 136.8513889, 35.52333333 ], [ 136.8516667, 35.52333333 ], [ 136.8516667, 35.52311111 ], [ 136.8516667, 35.52288889 ], [ 136.8516667, 35.52266667 ], [ 136.8519444, 35.52266667 ], [ 136.8519444, 35.52244444 ], [ 136.8522222, 35.52244444 ], [ 136.8522222, 35.52222222 ], [ 136.8522222, 35.522 ], [ 136.8522222, 35.52177778 ], [ 136.8525, 35.52177778 ], [ 136.8525, 35.52155556 ], [ 136.8525, 35.52133333 ], [ 136.8527778, 35.52133333 ], [ 136.8527778, 35.52111111 ], [ 136.8527778, 35.52088889 ], [ 136.8530556, 35.52088889 ], [ 136.8530556, 35.52066667 ], [ 136.8533333, 35.52066667 ], [ 136.8533333, 35.52044444 ], [ 136.8533333, 35.52022222 ], [ 136.8533333, 35.52 ], [ 136.8533333, 35.51977778 ], [ 136.8536111, 35.51977778 ], [ 136.8536111, 35.51955556 ], [ 136.8538889, 35.51955556 ], [ 136.8538889, 35.51933333 ], [ 136.8541667, 35.51933333 ], [ 136.8541667, 35.51911111 ], [ 136.8544444, 35.51911111 ], [ 136.8544444, 35.51888889 ], [ 136.8544444, 35.51866667 ], [ 136.8547222, 35.51866667 ], [ 136.8547222, 35.51844444 ], [ 136.8547222, 35.51822222 ], [ 136.855, 35.51822222 ], [ 136.855, 35.518 ], [ 136.855, 35.51777778 ], [ 136.855, 35.51755556 ], [ 136.8552778, 35.51755556 ], [ 136.8552778, 35.51733333 ], [ 136.8555556, 35.51733333 ], [ 136.8555556, 35.51711111 ], [ 136.8555556, 35.51688889 ], [ 136.8558333, 35.51688889 ], [ 136.8558333, 35.51666667 ], [ 136.8558333, 35.51644444 ], [ 136.8558333, 35.51622222 ], [ 136.8561111, 35.51622222 ], [ 136.8561111, 35.516 ], [ 136.8561111, 35.51577778 ], [ 136.8563889, 35.51577778 ], [ 136.8563889, 35.51555556 ], [ 136.8566667, 35.51555556 ], [ 136.8566667, 35.51533333 ], [ 136.8569444, 35.51533333 ], [ 136.8572222, 35.51533333 ], [ 136.8575, 35.51533333 ], [ 136.8575, 35.51511111 ], [ 136.8577778, 35.51511111 ], [ 136.8577778, 35.51488889 ], [ 136.8580556, 35.51488889 ], [ 136.8580556, 35.51466667 ], [ 136.8583333, 35.51466667 ], [ 136.8583333, 35.51444444 ], [ 136.8586111, 35.51444444 ], [ 136.8586111, 35.51422222 ], [ 136.8588889, 35.51422222 ], [ 136.8591667, 35.51422222 ], [ 136.8591667, 35.514 ], [ 136.8594444, 35.514 ], [ 136.8594444, 35.51377778 ], [ 136.8597222, 35.51377778 ], [ 136.8597222, 35.51355556 ], [ 136.86, 35.51355556 ], [ 136.86, 35.51333333 ], [ 136.8602778, 35.51333333 ], [ 136.8602778, 35.51311111 ], [ 136.8602778, 35.51288889 ], [ 136.8605556, 35.51288889 ], [ 136.8605556, 35.51266667 ], [ 136.8608333, 35.51266667 ], [ 136.8608333, 35.51244444 ], [ 136.8608333, 35.51222222 ], [ 136.8611111, 35.51222222 ], [ 136.8611111, 35.512 ], [ 136.8611111, 35.51177778 ], [ 136.8613889, 35.51177778 ], [ 136.8613889, 35.51155556 ], [ 136.8611111, 35.51155556 ], [ 136.8611111, 35.51133333 ], [ 136.8611111, 35.51111111 ], [ 136.8608333, 35.51111111 ], [ 136.8608333, 35.51088889 ], [ 136.8608333, 35.51066667 ], [ 136.8605556, 35.51066667 ], [ 136.8605556, 35.51044444 ], [ 136.8602778, 35.51044444 ], [ 136.8602778, 35.51022222 ], [ 136.86, 35.51022222 ], [ 136.86, 35.51044444 ], [ 136.8597222, 35.51044444 ], [ 136.8597222, 35.51066667 ], [ 136.8597222, 35.51088889 ], [ 136.8597222, 35.51111111 ], [ 136.8597222, 35.51133333 ], [ 136.8597222, 35.51155556 ], [ 136.8597222, 35.51177778 ], [ 136.8597222, 35.512 ], [ 136.8597222, 35.51222222 ], [ 136.8597222, 35.51244444 ], [ 136.8594444, 35.51244444 ], [ 136.8594444, 35.51266667 ], [ 136.8591667, 35.51266667 ], [ 136.8588889, 35.51266667 ], [ 136.8588889, 35.51288889 ], [ 136.8588889, 35.51311111 ], [ 136.8586111, 35.51311111 ], [ 136.8586111, 35.51333333 ], [ 136.8583333, 35.51333333 ], [ 136.8583333, 35.51355556 ], [ 136.8580556, 35.51355556 ], [ 136.8580556, 35.51377778 ], [ 136.8577778, 35.51377778 ], [ 136.8575, 35.51377778 ], [ 136.8575, 35.514 ], [ 136.8572222, 35.514 ], [ 136.8572222, 35.51422222 ], [ 136.8569444, 35.51422222 ], [ 136.8569444, 35.51444444 ], [ 136.8566667, 35.51444444 ], [ 136.8566667, 35.51466667 ], [ 136.8563889, 35.51466667 ], [ 136.8563889, 35.51488889 ], [ 136.8561111, 35.51488889 ], [ 136.8561111, 35.51511111 ], [ 136.8558333, 35.51511111 ], [ 136.8558333, 35.51533333 ], [ 136.8555556, 35.51533333 ], [ 136.8555556, 35.51555556 ], [ 136.8552778, 35.51555556 ], [ 136.8552778, 35.51577778 ], [ 136.8552778, 35.516 ], [ 136.855, 35.516 ], [ 136.855, 35.51622222 ], [ 136.855, 35.51644444 ], [ 136.8547222, 35.51644444 ], [ 136.8547222, 35.51666667 ], [ 136.8547222, 35.51688889 ], [ 136.8544444, 35.51688889 ], [ 136.8544444, 35.51711111 ], [ 136.8541667, 35.51711111 ], [ 136.8541667, 35.51733333 ], [ 136.8541667, 35.51755556 ], [ 136.8541667, 35.51777778 ], [ 136.8538889, 35.51777778 ], [ 136.8538889, 35.518 ], [ 136.8538889, 35.51822222 ], [ 136.8536111, 35.51822222 ], [ 136.8536111, 35.51844444 ], [ 136.8536111, 35.51866667 ], [ 136.8533333, 35.51866667 ], [ 136.8533333, 35.51888889 ], [ 136.8533333, 35.51911111 ], [ 136.8530556, 35.51911111 ], [ 136.8530556, 35.51933333 ], [ 136.8530556, 35.51955556 ], [ 136.8527778, 35.51955556 ], [ 136.8527778, 35.51977778 ], [ 136.8527778, 35.52 ], [ 136.8525, 35.52 ], [ 136.8525, 35.52022222 ], [ 136.8525, 35.52044444 ], [ 136.8522222, 35.52044444 ], [ 136.8522222, 35.52066667 ], [ 136.8522222, 35.52088889 ], [ 136.8522222, 35.52111111 ], [ 136.8519444, 35.52111111 ], [ 136.8519444, 35.52133333 ], [ 136.8519444, 35.52155556 ], [ 136.8519444, 35.52177778 ], [ 136.8516667, 35.52177778 ], [ 136.8516667, 35.522 ], [ 136.8516667, 35.52222222 ], [ 136.8513889, 35.52222222 ], [ 136.8513889, 35.52244444 ], [ 136.8513889, 35.52266667 ], [ 136.8513889, 35.52288889 ], [ 136.8511111, 35.52288889 ], [ 136.8511111, 35.52311111 ], [ 136.8511111, 35.52333333 ], [ 136.8508333, 35.52333333 ], [ 136.8508333, 35.52355556 ], [ 136.8508333, 35.52377778 ], [ 136.8505556, 35.52377778 ], [ 136.8505556, 35.524 ], [ 136.8505556, 35.52422222 ], [ 136.8502778, 35.52422222 ], [ 136.8502778, 35.52444444 ], [ 136.8502778, 35.52466667 ], [ 136.8505556, 35.52466667 ] ] ] } },
{ "type": "Feature", "properties": { "A31a_401": "8505090088", "A31a_402": "武儀川", "A31a_403": "21", "A31a_404": "岐阜県", "A31a_405": 2 }, "geometry": { "type": "Polygon", "coordinates": [ [ [ 136.8427778, 35.53088889 ], [ 136.8427778, 35.53066667 ], [ 136.8430556, 35.53066667 ], [ 136.8430556, 35.53044445 ], [ 136.8430556, 35.53022222 ], [ 136.8433333, 35.53022222 ], [ 136.8433333, 35.53 ], [ 136.8433333, 35.52977778 ], [ 136.8433333, 35.52955556 ], [ 136.8433333, 35.52933333 ], [ 136.8436111, 35.52933333 ], [ 136.8436111, 35.52911111 ], [ 136.8436111, 35.52888889 ], [ 136.8436111, 35.52866667 ], [ 136.8436111, 35.52844445 ], [ 136.8438889, 35.52844445 ], [ 136.8438889, 35.52822222 ], [ 136.8438889, 35.528 ], [ 136.8438889, 35.52777778 ], [ 136.8436111, 35.52777778 ], [ 136.8436111, 35.52755556 ], [ 136.8436111, 35.52733333 ], [ 136.8433333, 35.52733333 ], [ 136.8430556, 35.52733333 ], [ 136.8430556, 35.52755556 ], [ 136.8430556, 35.52777778 ], [ 136.8430556, 35.528 ], [ 136.8430556, 35.52822222 ], [ 136.8430556, 35.52844445 ], [ 136.8430556, 35.52866667 ], [ 136.8430556, 35.52888889 ], [ 136.8430556, 35.52911111 ], [ 136.8427778, 35.52911111 ], [ 136.8427778, 35.52933333 ], [ 136.8427778, 35.52955556 ], [ 136.8427778, 35.52977778 ], [ 136.8427778, 35.53 ], [ 136.8427778, 35.53022222 ], [ 136.8425, 35.53022222 ], [ 136.8425, 35.53044445 ], [ 136.8425, 35.53066667 ], [ 136.8425, 35.53088889 ], [ 136.8427778, 35.53088889 ] ] ] } },
{ "type": "Feature", "properties": { "A31a_401": "8505090088", "A31a_402": "武儀川", "A31a_403": "21", "A31a_404": "岐阜県", "A31a_405": 2 }, "geometry": { "type": "Polygon", "coordinates": [ [ [ 136.8386111, 35.53244445 ], [ 136.8386111, 35.53222222 ], [ 136.8388889, 35.53222222 ], [ 136.8391667, 35.53222222 ], [ 136.8394444, 35.53222222 ], [ 136.8397222, 35.53222222 ], [ 136.84, 35.53222222 ], [ 136.8402778, 35.53222222 ], [ 136.8402778, 35.532 ], [ 136.8405556, 35.532 ], [ 136.8408333, 35.532 ], [ 136.8411111, 35.532 ], [ 136.8411111, 35.53177778 ], [ 136.8413889, 35.53177778 ], [ 136.8413889, 35.53155556 ], [ 136.8413889, 35.53133333 ], [ 136.8416667, 35.53133333 ], [ 136.8416667, 35.53111111 ], [ 136.8416667, 35.53088889 ], [ 136.8416667, 35.53066667 ], [ 136.8419444, 35.53066667 ], [ 136.8419444, 35.53044445 ], [ 136.8419444, 35.53022222 ], [ 136.8419444, 35.53 ], [ 136.8419444, 35.52977778 ], [ 136.8419444, 35.52955556 ], [ 136.8419444, 35.52933333 ], [ 136.8419444, 35.52911111 ], [ 136.8419444, 35.52888889 ], [ 136.8416667, 35.52888889 ], [ 136.8416667, 35.52866667 ], [ 136.8416667, 35.52844445 ], [ 136.8416667, 35.52822222 ], [ 136.8416667, 35.528 ], [ 136.8416667, 35.52777778 ], [ 136.8419444, 35.52777778 ], [ 136.8419444, 35.52755556 ], [ 136.8419444, 35.52733333 ], [ 136.8419444, 35.52711111 ], [ 136.8422222, 35.52711111 ], [ 136.8422222, 35.52688889 ], [ 136.8422222, 35.52666667 ], [ 136.8425, 35.52666667 ], [ 136.8425, 35.52644444 ], [ 136.8425, 35.52622222 ], [ 136.8425, 35.526 ], [ 136.8422222, 35.526 ], [ 136.8422222, 35.52622222 ], [ 136.8419444, 35.52622222 ], [ 136.8419444, 35.52644444 ], [ 136.8416667, 35.52644444 ], [ 136.8416667, 35.52666667 ], [ 136.8413889, 35.52666667 ], [ 136.8411111, 35.52666667 ], [ 136.8411111, 35.52688889 ], [ 136.8408333, 35.52688889 ], [ 136.8408333, 35.52711111 ], [ 136.8408333, 35.52733333 ], [ 136.8408333, 35.52755556 ], [ 136.8408333, 35.52777778 ], [ 136.8405556, 35.52777778 ], [ 136.8405556, 35.528 ], [ 136.8405556, 35.52822222 ], [ 136.8405556, 35.52844445 ], [ 136.8408333, 35.52844445 ], [ 136.8408333, 35.52866667 ], [ 136.8408333, 35.52888889 ], [ 136.8408333, 35.52911111 ], [ 136.8408333, 35.52933333 ], [ 136.8411111, 35.52933333 ], [ 136.8411111, 35.52955556 ], [ 136.8411111, 35.52977778 ], [ 136.8411111, 35.53 ], [ 136.8411111, 35.53022222 ], [ 136.8411111, 35.53044445 ], [ 136.8408333, 35.53044445 ], [ 136.8408333, 35.53066667 ], [ 136.8408333, 35.53088889 ], [ 136.8405556, 35.53088889 ], [ 136.8405556, 35.53111111 ], [ 136.8405556, 35.53133333 ], [ 136.8405556, 35.53155556 ], [ 136.8402778, 35.53155556 ], [ 136.8402778, 35.53177778 ], [ 136.84, 35.53177778 ], [ 136.84, 35.532 ], [ 136.8397222, 35.532 ], [ 136.8394444, 35.532 ], [ 136.8391667, 35.532 ], [ 136.8388889, 35.532 ], [ 136.8386111, 35.532 ], [ 136.8383333, 35.532 ], [ 136.8380556, 35.532 ], [ 136.8377778, 35.532 ], [ 136.8375, 35.532 ], [ 136.8372222, 35.532 ], [ 136.8372222, 35.53222222 ], [ 136.8369444, 35.53222222 ], [ 136.8366667, 35.53222222 ], [ 136.8366667, 35.53244445 ], [ 136.8369444, 35.53244445 ], [ 136.8372222, 35.53244445 ], [ 136.8375, 35.53244445 ], [ 136.8377778, 35.53244445 ], [ 136.8380556, 35.53244445 ], [ 136.8383333, 35.53244445 ], [ 136.8386111, 35.53244445 ] ] ] } },
{ "type": "Feature", "properties": { "A31a_401": "8505090088", "A31a_402": "武儀川", "A31a_403": "21", "A31a_404": "岐阜県", "A31a_405": 2 }, "geometry": { "type": "Polygon", "coordinates": [ [ [ 136.8333333, 35.538 ], [ 136.8333333, 35.53777778 ], [ 136.8336111, 35.53777778 ], [ 136.8336111, 35.53755556 ], [ 136.8338889, 35.53755556 ], [ 136.8338889, 35.53733333 ], [ 136.8341667, 35.53733333 ], [ 136.8341667, 35.53711111 ], [ 136.8341667, 35.53688889 ], [ 136.8341667, 35.53666667 ], [ 136.8341667, 35.53644445 ], [ 136.8341667, 35.53622222 ], [ 136.8344444, 35.53622222 ], [ 136.8344444, 35.536 ], [ 136.8347222, 35.536 ], [ 136.8347222, 35.53577778 ], [ 136.835, 35.53577778 ], [ 136.835, 35.53555556 ], [ 136.8352778, 35.53555556 ], [ 136.8352778, 35.53533333 ], [ 136.8352778, 35.53511111 ], [ 136.8355556, 35.53511111 ], [ 136.8355556, 35.53488889 ], [ 136.8358333, 35.53488889 ], [ 136.8358333, 35.53466667 ], [ 136.8361111, 35.53466667 ], [ 136.8361111, 35.53444445 ], [ 136.8363889, 35.53444445 ], [ 136.8363889, 35.53422222 ], [ 136.8366667, 35.53422222 ], [ 136.8369444, 35.53422222 ], [ 136.8369444, 35.534 ], [ 136.8372222, 35.534 ], [ 136.8375, 35.534 ], [ 136.8377778, 35.534 ], [ 136.8377778, 35.53377778 ], [ 136.8380556, 35.53377778 ], [ 136.8383333, 35.53377778 ], [ 136.8386111, 35.53377778 ], [ 136.8388889, 35.53377778 ], [ 136.8391667, 35.53377778 ], [ 136.8394444, 35.53377778 ], [ 136.8397222, 35.53377778 ], [ 136.84, 35.53377778 ], [ 136.8402778, 35.53377778 ], [ 136.8405556, 35.53377778 ], [ 136.8408333, 35.53377778 ], [ 136.8408333, 35.53355556 ], [ 136.8411111, 35.53355556 ], [ 136.8413889, 35.53355556 ], [ 136.8416667, 35.53355556 ], [ 136.8416667, 35.53333333 ], [ 136.8419444, 35.53333333 ], [ 136.8419444, 35.53311111 ], [ 136.8419444, 35.53288889 ], [ 136.8419444, 35.53266667 ], [ 136.8422222, 35.53266667 ], [ 136.8422222, 35.53244445 ], [ 136.8422222, 35.53222222 ], [ 136.8422222, 35.532 ], [ 136.8425, 35.532 ], [ 136.8425, 35.53177778 ], [ 136.8425, 35.53155556 ], [ 136.8422222, 35.53155556 ], [ 136.8422222, 35.53177778 ], [ 136.8419444, 35.53177778 ], [ 136.8419444, 35.532 ], [ 136.8419444, 35.53222222 ], [ 136.8416667, 35.53222222 ], [ 136.8416667, 35.53244445 ], [ 136.8413889, 35.53244445 ], [ 136.8413889, 35.53266667 ], [ 136.8411111, 35.53266667 ], [ 136.8408333, 35.53266667 ], [ 136.8408333, 35.53288889 ], [ 136.8405556, 35.53288889 ], [ 136.8402778, 35.53288889 ], [ 136.84, 35.53288889 ], [ 136.8397222, 35.53288889 ], [ 136.8397222, 35.53311111 ], [ 136.8394444, 35.53311111 ], [ 136.8391667, 35.53311111 ], [ 136.8388889, 35.53311111 ], [ 136.8386111, 35.53311111 ], [ 136.8383333, 35.53311111 ], [ 136.8380556, 35.53311111 ], [ 136.8377778, 35.53311111 ], [ 136.8377778, 35.53333333 ], [ 136.8375, 35.53333333 ], [ 136.8372222, 35.53333333 ], [ 136.8369444, 35.53333333 ], [ 136.8369444, 35.53355556 ], [ 136.8366667, 35.53355556 ], [ 136.8363889, 35.53355556 ], [ 136.8361111, 35.53355556 ], [ 136.8361111, 35.53377778 ], [ 136.8358333, 35.53377778 ], [ 136.8358333, 35.534 ], [ 136.8355556, 35.534 ], [ 136.8355556, 35.53422222 ], [ 136.8352778, 35.53422222 ], [ 136.8352778, 35.53444445 ], [ 136.835, 35.53444445 ], [ 136.835, 35.53466667 ], [ 136.8347222, 35.53466667 ], [ 136.8347222, 35.53488889 ], [ 136.8344444, 35.53488889 ], [ 136.8344444, 35.53511111 ], [ 136.8344444, 35.53533333 ], [ 136.8341667, 35.53533333 ], [ 136.8341667, 35.53555556 ], [ 136.8341667, 35.53577778 ], [ 136.8338889, 35.53577778 ], [ 136.8338889, 35.536 ], [ 136.8338889, 35.53622222 ], [ 136.8338889, 35.53644445 ], [ 136.8336111, 35.53644445 ], [ 136.8336111, 35.53666667 ], [ 136.8336111, 35.53688889 ], [ 136.8333333, 35.53688889 ], [ 136.8333333, 35.53711111 ], [ 136.8333333, 35.53733333 ], [ 136.8330556, 35.53733333 ], [ 136.8330556, 35.53755556 ], [ 136.8330556, 35.53777778 ], [ 136.8330556, 35.538 ], [ 136.8333333, 35.538 ] ] ] } },
{ "type": "Feature", "properties": { "A31a_401": "8505090088", "A31a_402": "武儀川", "A31a_403": "21", "A31a_404": "岐阜県", "A31a_405": 2 }, "geometry": { "type": "Polygon", "coordinates": [ [ [ 136.8269444, 35.54155556 ], [ 136.8269444, 35.54133333 ], [ 136.8272222, 35.54133333 ], [ 136.8275, 35.54133333 ], [ 136.8277778, 35.54133333 ], [ 136.8277778, 35.54111111 ], [ 136.8280556, 35.54111111 ], [ 136.8283333, 35.54111111 ], [ 136.8286111, 35.54111111 ], [ 136.8286111, 35.54088889 ], [ 136.8288889, 35.54088889 ], [ 136.8288889, 35.54066667 ], [ 136.8291667, 35.54066667 ], [ 136.8294444, 35.54066667 ], [ 136.8294444, 35.54044445 ], [ 136.8297222, 35.54044445 ], [ 136.8297222, 35.54022222 ], [ 136.83, 35.54022222 ], [ 136.83, 35.54 ], [ 136.8302778, 35.54 ], [ 136.8302778, 35.53977778 ], [ 136.8305556, 35.53977778 ], [ 136.8305556, 35.53955556 ], [ 136.8308333, 35.53955556 ], [ 136.8308333, 35.53933333 ], [ 136.8311111, 35.53933333 ], [ 136.8311111, 35.53911111 ], [ 136.8311111, 35.53888889 ], [ 136.8313889, 35.53888889 ], [ 136.8313889, 35.53866667 ], [ 136.8316667, 35.53866667 ], [ 136.8316667, 35.53844445 ], [ 136.8316667, 35.53822222 ], [ 136.8319444, 35.53822222 ], [ 136.8319444, 35.538 ], [ 136.8319444, 35.53777778 ], [ 136.8319444, 35.53755556 ], [ 136.8322222, 35.53755556 ], [ 136.8322222, 35.53733333 ], [ 136.8325, 35.53733333 ], [ 136.8325, 35.53711111 ], [ 136.8325, 35.53688889 ], [ 136.8325, 35.53666667 ], [ 136.8327778, 35.53666667 ], [ 136.8327778, 35.53644445 ], [ 136.8327778, 35.53622222 ], [ 136.8327778, 35.536 ], [ 136.8330556, 35.536 ], [ 136.8330556, 35.53577778 ], [ 136.8330556, 35.53555556 ], [ 136.8333333, 35.53555556 ], [ 136.8333333, 35.53533333 ], [ 136.8333333, 35.53511111 ], [ 136.8333333, 35.53488889 ], [ 136.8330556, 35.53488889 ], [ 136.8327778, 35.53488889 ], [ 136.8327778, 35.53511111 ], [ 136.8325, 35.53511111 ], [ 136.8325, 35.53533333 ], [ 136.8322222, 35.53533333 ], [ 136.8322222, 35.53555556 ], [ 136.8322222, 35.53577778 ], [ 136.8322222, 35.536 ], [ 136.8319444, 35.536 ], [ 136.8319444, 35.53622222 ], [ 136.8319444, 35.53644445 ], [ 136.8316667, 35.53644445 ], [ 136.8316667, 35.53666667 ], [ 136.8316667, 35.53688889 ], [ 136.8316667, 35.53711111 ], [ 136.8313889, 35.53711111 ], [ 136.8313889, 35.53733333 ], [ 136.8313889, 35.53755556 ], [ 136.8311111, 35.53755556 ], [ 136.8311111, 35.53777778 ], [ 136.8311111, 35.538 ], [ 136.8308333, 35.538 ], [ 136.8308333, 35.53822222 ], [ 136.8308333, 35.53844445 ], [ 136.8305556, 35.53844445 ], [ 136.8305556, 35.53866667 ], [ 136.8302778, 35.53866667 ], [ 136.8302778, 35.53888889 ], [ 136.83, 35.53888889 ], [ 136.83, 35.53911111 ], [ 136.8297222, 35.53911111 ], [ 136.8297222, 35.53933333 ], [ 136.8294444, 35.53933333 ], [ 136.8294444, 35.53955556 ], [ 136.8291667, 35.53955556 ], [ 136.8291667, 35.53977778 ], [ 136.8291667, 35.54 ], [ 136.8288889, 35.54 ], [ 136.8286111, 35.54 ], [ 136.8283333, 35.54 ], [ 136.8283333, 35.54022222 ], [ 136.8280556, 35.54022222 ], [ 136.8277778, 35.54022222 ], [ 136.8277778, 35.54044445 ], [ 136.8275, 35.54044445 ], [ 136.8272222, 35.54044445 ], [ 136.8272222, 35.54066667 ], [ 136.8269444, 35.54066667 ], [ 136.8266667, 35.54066667 ], [ 136.8266667, 35.54044445 ], [ 136.8263889, 35.54044445 ], [ 136.8261111, 35.54044445 ], [ 136.8261111, 35.54066667 ], [ 136.8258333, 35.54066667 ], [ 136.8255556, 35.54066667 ], [ 136.8255556, 35.54088889 ], [ 136.8252778, 35.54088889 ], [ 136.825, 35.54088889 ], [ 136.825, 35.54111111 ], [ 136.8247222, 35.54111111 ], [ 136.8244444, 35.54111111 ], [ 136.8241667, 35.54111111 ], [ 136.8238889, 35.54111111 ], [ 136.8236111, 35.54111111 ], [ 136.8233333, 35.54111111 ], [ 136.8230556, 35.54111111 ], [ 136.8227778, 35.54111111 ], [ 136.8225, 35.54111111 ], [ 136.8222222, 35.54111111 ], [ 136.8222222, 35.54133333 ], [ 136.8225, 35.54133333 ], [ 136.8227778, 35.54133333 ], [ 136.8230556, 35.54133333 ], [ 136.8233333, 35.54133333 ], [ 136.8233333, 35.54155556 ], [ 136.8236111, 35.54155556 ], [ 136.8238889, 35.54155556 ], [ 136.8241667, 35.54155556 ], [ 136.8244444, 35.54155556 ], [ 136.8247222, 35.54155556 ], [ 136.825, 35.54155556 ], [ 136.8252778, 35.54155556 ], [ 136.8255556, 35.54155556 ], [ 136.8258333, 35.54155556 ], [ 136.8261111, 35.54155556 ], [ 136.8263889, 35.54155556 ], [ 136.8266667, 35.54155556 ], [ 136.8269444, 35.54155556 ] ] ] } },
{ "type": "Feature", "properties": { "A31a_401": "8505090088", "A31a_402": "武儀川", "A31a_403": "21", "A31a_404": "岐阜県", "A31a_405": 2 }, "geometry": { "type": "Polygon", "coordinates": [ [ [ 136.8272222, 35.54333333 ], [ 136.8272222, 35.54311111 ], [ 136.8275, 35.54311111 ], [ 136.8277778, 35.54311111 ], [ 136.8280556, 35.54311111 ], [ 136.8280556, 35.54288889 ], [ 136.8283333, 35.54288889 ], [ 136.8283333, 35.54266667 ], [ 136.8286111, 35.54266667 ], [ 136.8286111, 35.54244445 ], [ 136.8288889, 35.54244445 ], [ 136.8288889, 35.54222222 ], [ 136.8291667, 35.54222222 ], [ 136.8291667, 35.542 ], [ 136.8294444, 35.542 ], [ 136.8297222, 35.542 ], [ 136.83, 35.542 ], [ 136.8302778, 35.542 ], [ 136.8302778, 35.54177778 ], [ 136.8305556, 35.54177778 ], [ 136.8308333, 35.54177778 ], [ 136.8308333, 35.54155556 ], [ 136.8311111, 35.54155556 ], [ 136.8313889, 35.54155556 ], [ 136.8316667, 35.54155556 ], [ 136.8316667, 35.54133333 ], [ 136.8319444, 35.54133333 ], [ 136.8319444, 35.54111111 ], [ 136.8322222, 35.54111111 ], [ 136.8322222, 35.54088889 ], [ 136.8322222, 35.54066667 ], [ 136.8322222, 35.54044445 ], [ 136.8322222, 35.54022222 ], [ 136.8322222, 35.54 ], [ 136.8322222, 35.53977778 ], [ 136.8322222, 35.53955556 ], [ 136.8319444, 35.53955556 ], [ 136.8319444, 35.53977778 ], [ 136.8316667, 35.53977778 ], [ 136.8316667, 35.54 ], [ 136.8313889, 35.54 ], [ 136.8313889, 35.54022222 ], [ 136.8313889, 35.54044445 ], [ 136.8311111, 35.54044445 ], [ 136.8311111, 35.54066667 ], [ 136.8308333, 35.54066667 ], [ 136.8308333, 35.54088889 ], [ 136.8305556, 35.54088889 ], [ 136.8302778, 35.54088889 ], [ 136.8302778, 35.54111111 ], [ 136.83, 35.54111111 ], [ 136.8297222, 35.54111111 ], [ 136.8297222, 35.54133333 ], [ 136.8294444, 35.54133333 ], [ 136.8291667, 35.54133333 ], [ 136.8291667, 35.54155556 ], [ 136.8288889, 35.54155556 ], [ 136.8286111, 35.54155556 ], [ 136.8283333, 35.54155556 ], [ 136.8283333, 35.54177778 ], [ 136.8280556, 35.54177778 ], [ 136.8277778, 35.54177778 ], [ 136.8277778, 35.542 ], [ 136.8275, 35.542 ], [ 136.8275, 35.54222222 ], [ 136.8272222, 35.54222222 ], [ 136.8272222, 35.54244445 ], [ 136.8269444, 35.54244445 ], [ 136.8266667, 35.54244445 ], [ 136.8263889, 35.54244445 ], [ 136.8261111, 35.54244445 ], [ 136.8258333, 35.54244445 ], [ 136.8255556, 35.54244445 ], [ 136.8252778, 35.54244445 ], [ 136.8252778, 35.54266667 ], [ 136.8252778, 35.54288889 ], [ 136.8255556, 35.54288889 ], [ 136.8258333, 35.54288889 ], [ 136.8258333, 35.54311111 ], [ 136.8261111, 35.54311111 ], [ 136.8261111, 35.54333333 ], [ 136.8263889, 35.54333333 ], [ 136.8266667, 35.54333333 ], [ 136.8269444, 35.54333333 ], [ 136.8272222, 35.54333333 ] ] ] } },
{ "type": "Feature", "properties": { "A31a_401": "8505090088", "A31a_402": "武儀川", "A31a_403": "21", "A31a_404": "岐阜県", "A31a_405": 2 }, "geometry": { "type": "Polygon", "coordinates": [ [ [ 136.8008333, 35.55022222 ], [ 136.8008333, 35.55 ], [ 136.8011111, 35.55 ], [ 136.8011111, 35.54977778 ], [ 136.8013889, 35.54977778 ], [ 136.8013889, 35.54955556 ], [ 136.8016667, 35.54955556 ], [ 136.8016667, 35.54933333 ], [ 136.8019444, 35.54933333 ], [ 136.8019444, 35.54911111 ], [ 136.8022222, 35.54911111 ], [ 136.8025, 35.54911111 ], [ 136.8025, 35.54888889 ], [ 136.8027778, 35.54888889 ], [ 136.8030556, 35.54888889 ], [ 136.8030556, 35.54866667 ], [ 136.8033333, 35.54866667 ], [ 136.8036111, 35.54866667 ], [ 136.8036111, 35.54844445 ], [ 136.8038889, 35.54844445 ], [ 136.8041667, 35.54844445 ], [ 136.8044444, 35.54844445 ], [ 136.8044444, 35.54822222 ], [ 136.8047222, 35.54822222 ], [ 136.805, 35.54822222 ], [ 136.805, 35.548 ], [ 136.8052778, 35.548 ], [ 136.8055556, 35.548 ], [ 136.8058333, 35.548 ], [ 136.8058333, 35.54777778 ], [ 136.8061111, 35.54777778 ], [ 136.8063889, 35.54777778 ], [ 136.8063889, 35.54755556 ], [ 136.8066667, 35.54755556 ], [ 136.8069444, 35.54755556 ], [ 136.8072222, 35.54755556 ], [ 136.8072222, 35.54733333 ], [ 136.8075, 35.54733333 ], [ 136.8077778, 35.54733333 ], [ 136.8080556, 35.54733333 ], [ 136.8080556, 35.54711111 ], [ 136.8083333, 35.54711111 ], [ 136.8086111, 35.54711111 ], [ 136.8088889, 35.54711111 ], [ 136.8091667, 35.54711111 ], [ 136.8094444, 35.54711111 ], [ 136.8097222, 35.54711111 ], [ 136.8097222, 35.54688889 ], [ 136.81, 35.54688889 ], [ 136.8102778, 35.54688889 ], [ 136.8105556, 35.54688889 ], [ 136.8108333, 35.54688889 ], [ 136.8111111, 35.54688889 ], [ 136.8113889, 35.54688889 ], [ 136.8113889, 35.54666667 ], [ 136.8116667, 35.54666667 ], [ 136.8119444, 35.54666667 ], [ 136.8122222, 35.54666667 ], [ 136.8125, 35.54666667 ], [ 136.8127778, 35.54666667 ], [ 136.8127778, 35.54644445 ], [ 136.8130556, 35.54644445 ], [ 136.8133333, 35.54644445 ], [ 136.8136111, 35.54644445 ], [ 136.8138889, 35.54644445 ], [ 136.8138889, 35.54622222 ], [ 136.8141667, 35.54622222 ], [ 136.8144444, 35.54622222 ], [ 136.8144444, 35.546 ], [ 136.8147222, 35.546 ], [ 136.815, 35.546 ], [ 136.815, 35.54577778 ], [ 136.8152778, 35.54577778 ], [ 136.8152778, 35.54555556 ], [ 136.8155556, 35.54555556 ], [ 136.8158333, 35.54555556 ], [ 136.8158333, 35.54533333 ], [ 136.8161111, 35.54533333 ], [ 136.8161111, 35.54511111 ], [ 136.8163889, 35.54511111 ], [ 136.8163889, 35.54488889 ], [ 136.8166667, 35.54488889 ], [ 136.8166667, 35.54466667 ], [ 136.8169444, 35.54466667 ], [ 136.8169444, 35.54444445 ], [ 136.8172222, 35.54444445 ], [ 136.8172222, 35.54422222 ], [ 136.8175, 35.54422222 ], [ 136.8175, 35.544 ], [ 136.8177778, 35.544 ], [ 136.8177778, 35.54377778 ], [ 136.8180556, 35.54377778 ], [ 136.8180556, 35.54355556 ], [ 136.8183333, 35.54355556 ], [ 136.8183333, 35.54333333 ], [ 136.8183333, 35.54311111 ], [ 136.8186111, 35.54311111 ], [ 136.8186111, 35.54288889 ], [ 136.8188889, 35.54288889 ], [ 136.8188889, 35.54266667 ], [ 136.8191667, 35.54266667 ], [ 136.8191667, 35.54244445 ], [ 136.8194444, 35.54244445 ], [ 136.8194444, 35.54222222 ], [ 136.8197222, 35.54222222 ], [ 136.8197222, 35.542 ], [ 136.82, 35.542 ], [ 136.82, 35.54177778 ], [ 136.8197222, 35.54177778 ], [ 136.8194444, 35.54177778 ], [ 136.8191667, 35.54177778 ], [ 136.8191667, 35.542 ], [ 136.8188889, 35.542 ], [ 136.8188889, 35.54222222 ], [ 136.8186111, 35.54222222 ], [ 136.8186111, 35.54244445 ], [ 136.8183333, 35.54244445 ], [ 136.8180556, 35.54244445 ], [ 136.8177778, 35.54244445 ], [ 136.8175, 35.54244445 ], [ 136.8175, 35.54266667 ], [ 136.8172222, 35.54266667 ], [ 136.8172222, 35.54288889 ], [ 136.8169444, 35.54288889 ], [ 136.8169444, 35.54311111 ], [ 136.8166667, 35.54311111 ], [ 136.8166667, 35.54333333 ], [ 136.8166667, 35.54355556 ], [ 136.8163889, 35.54355556 ], [ 136.8163889, 35.54377778 ], [ 136.8161111, 35.54377778 ], [ 136.8161111, 35.544 ], [ 136.8161111, 35.54422222 ], [ 136.8158333, 35.54422222 ], [ 136.8158333, 35.54444445 ], [ 136.8155556, 35.54444445 ], [ 136.8155556, 35.54466667 ], [ 136.8152778, 35.54466667 ], [ 136.815, 35.54466667 ], [ 136.815, 35.54488889 ], [ 136.8147222, 35.54488889 ], [ 136.8144444, 35.54488889 ], [ 136.8144444, 35.54511111 ], [ 136.8141667, 35.54511111 ], [ 136.8141667, 35.54533333 ], [ 136.8138889, 35.54533333 ], [ 136.8136111, 35.54533333 ], [ 136.8133333, 35.54533333 ], [ 136.8133333, 35.54555556 ], [ 136.8130556, 35.54555556 ], [ 136.8127778, 35.54555556 ], [ 136.8125, 35.54555556 ], [ 136.8125, 35.54577778 ], [ 136.8122222, 35.54577778 ], [ 136.8119444, 35.54577778 ], [ 136.8119444, 35.546 ], [ 136.8116667, 35.546 ], [ 136.8113889, 35.546 ], [ 136.8111111, 35.546 ], [ 136.8108333, 35.546 ], [ 136.8108333, 35.54622222 ], [ 136.8105556, 35.54622222 ], [ 136.8102778, 35.54622222 ], [ 136.81, 35.54622222 ], [ 136.8097222, 35.54622222 ], [ 136.8094444, 35.54622222 ], [ 136.8094444, 35.54644445 ], [ 136.8091667, 35.54644445 ], [ 136.8088889, 35.54644445 ], [ 136.8086111, 35.54644445 ], [ 136.8083333, 35.54644445 ], [ 136.8080556, 35.54644445 ], [ 136.8080556, 35.54666667 ], [ 136.8077778, 35.54666667 ], [ 136.8075, 35.54666667 ], [ 136.8072222, 35.54666667 ], [ 136.8072222, 35.54688889 ], [ 136.8069444, 35.54688889 ], [ 136.8066667, 35.54688889 ], [ 136.8066667, 35.54711111 ], [ 136.8063889, 35.54711111 ], [ 136.8061111, 35.54711111 ], [ 136.8058333, 35.54711111 ], [ 136.8055556, 35.54711111 ], [ 136.8055556, 35.54733333 ], [ 136.8052778, 35.54733333 ], [ 136.805, 35.54733333 ], [ 136.8047222, 35.54733333 ], [ 136.8047222, 35.54755556 ], [ 136.8044444, 35.54755556 ], [ 136.8044444, 35.54777778 ], [ 136.8041667, 35.54777778 ], [ 136.8038889, 35.54777778 ], [ 136.8036111, 35.54777778 ], [ 136.8036111, 35.548 ], [ 136.8033333, 35.548 ], [ 136.8030556, 35.548 ], [ 136.8030556, 35.54822222 ], [ 136.8027778, 35.54822222 ], [ 136.8025, 35.54822222 ], [ 136.8025, 35.54844445 ], [ 136.8022222, 35.54844445 ], [ 136.8019444, 35.54844445 ], [ 136.8019444, 35.54866667 ], [ 136.8016667, 35.54866667 ], [ 136.8013889, 35.54866667 ], [ 136.8013889, 35.54888889 ], [ 136.8011111, 35.54888889 ], [ 136.8011111, 35.54911111 ], [ 136.8008333, 35.54911111 ], [ 136.8008333, 35.54933333 ], [ 136.8005556, 35.54933333 ], [ 136.8005556, 35.54955556 ], [ 136.8005556, 35.54977778 ], [ 136.8002778, 35.54977778 ], [ 136.8002778, 35.55 ], [ 136.8005556, 35.55 ], [ 136.8005556, 35.55022222 ], [ 136.8008333, 35.55022222 ] ] ] } },
{ "type": "Feature", "properties": { "A31a_401": "8505090088", "A31a_402": "武儀川", "A31a_403": "21", "A31a_404": "岐阜県", "A31a_405": 2 }, "geometry": { "type": "Polygon", "coordinates": [ [ [ 136.8022222, 35.55088889 ], [ 136.8022222, 35.55066667 ], [ 136.8025, 35.55066667 ], [ 136.8027778, 35.55066667 ], [ 136.8027778, 35.55044445 ], [ 136.8030556, 35.55044445 ], [ 136.8033333, 35.55044445 ], [ 136.8033333, 35.55022222 ], [ 136.8036111, 35.55022222 ], [ 136.8036111, 35.55 ], [ 136.8038889, 35.55 ], [ 136.8041667, 35.55 ], [ 136.8041667, 35.54977778 ], [ 136.8044444, 35.54977778 ], [ 136.8047222, 35.54977778 ], [ 136.8047222, 35.54955556 ], [ 136.805, 35.54955556 ], [ 136.8052778, 35.54955556 ], [ 136.8052778, 35.54933333 ], [ 136.8055556, 35.54933333 ], [ 136.8058333, 35.54933333 ], [ 136.8061111, 35.54933333 ], [ 136.8061111, 35.54911111 ], [ 136.8063889, 35.54911111 ], [ 136.8063889, 35.54888889 ], [ 136.8066667, 35.54888889 ], [ 136.8066667, 35.54866667 ], [ 136.8069444, 35.54866667 ], [ 136.8072222, 35.54866667 ], [ 136.8075, 35.54866667 ], [ 136.8077778, 35.54866667 ], [ 136.8080556, 35.54866667 ], [ 136.8083333, 35.54866667 ], [ 136.8086111, 35.54866667 ], [ 136.8086111, 35.54844445 ], [ 136.8088889, 35.54844445 ], [ 136.8091667, 35.54844445 ], [ 136.8094444, 35.54844445 ], [ 136.8097222, 35.54844445 ], [ 136.81, 35.54844445 ], [ 136.8102778, 35.54844445 ], [ 136.8102778, 35.54822222 ], [ 136.8105556, 35.54822222 ], [ 136.8108333, 35.54822222 ], [ 136.8111111, 35.54822222 ], [ 136.8113889, 35.54822222 ], [ 136.8116667, 35.54822222 ], [ 136.8119444, 35.54822222 ], [ 136.8122222, 35.54822222 ], [ 136.8125, 35.54822222 ], [ 136.8127778, 35.54822222 ], [ 136.8130556, 35.54822222 ], [ 136.8133333, 35.54822222 ], [ 136.8133333, 35.54844445 ], [ 136.8136111, 35.54844445 ], [ 136.8138889, 35.54844445 ], [ 136.8138889, 35.54822222 ], [ 136.8141667, 35.54822222 ], [ 136.8141667, 35.548 ], [ 136.8144444, 35.548 ], [ 136.8144444, 35.54777778 ], [ 136.8147222, 35.54777778 ], [ 136.8147222, 35.54755556 ], [ 136.815, 35.54755556 ], [ 136.8152778, 35.54755556 ], [ 136.8152778, 35.54733333 ], [ 136.8155556, 35.54733333 ], [ 136.8158333, 35.54733333 ], [ 136.8158333, 35.54711111 ], [ 136.8161111, 35.54711111 ], [ 136.8161111, 35.54688889 ], [ 136.8163889, 35.54688889 ], [ 136.8163889, 35.54666667 ], [ 136.8166667, 35.54666667 ], [ 136.8166667, 35.54644445 ], [ 136.8169444, 35.54644445 ], [ 136.8169444, 35.54622222 ], [ 136.8172222, 35.54622222 ], [ 136.8172222, 35.546 ], [ 136.8172222, 35.54577778 ], [ 136.8175, 35.54577778 ], [ 136.8175, 35.54555556 ], [ 136.8175, 35.54533333 ], [ 136.8175, 35.54511111 ], [ 136.8172222, 35.54511111 ], [ 136.8172222, 35.54533333 ], [ 136.8169444, 35.54533333 ], [ 136.8169444, 35.54555556 ], [ 136.8166667, 35.54555556 ], [ 136.8166667, 35.54577778 ], [ 136.8163889, 35.54577778 ], [ 136.8163889, 35.546 ], [ 136.8161111, 35.546 ], [ 136.8158333, 35.546 ], [ 136.8158333, 35.54622222 ], [ 136.8155556, 35.54622222 ], [ 136.8155556, 35.54644445 ], [ 136.8152778, 35.54644445 ], [ 136.8152778, 35.54666667 ], [ 136.815, 35.54666667 ], [ 136.8147222, 35.54666667 ], [ 136.8147222, 35.54688889 ], [ 136.8144444, 35.54688889 ], [ 136.8141667, 35.54688889 ], [ 136.8141667, 35.54711111 ], [ 136.8138889, 35.54711111 ], [ 136.8136111, 35.54711111 ], [ 136.8133333, 35.54711111 ], [ 136.8133333, 35.54733333 ], [ 136.8130556, 35.54733333 ], [ 136.8127778, 35.54733333 ], [ 136.8125, 35.54733333 ], [ 136.8122222, 35.54733333 ], [ 136.8122222, 35.54755556 ], [ 136.8119444, 35.54755556 ], [ 136.8116667, 35.54755556 ], [ 136.8113889, 35.54755556 ], [ 136.8111111, 35.54755556 ], [ 136.8108333, 35.54755556 ], [ 136.8105556, 35.54755556 ], [ 136.8105556, 35.54777778 ], [ 136.8102778, 35.54777778 ], [ 136.81, 35.54777778 ], [ 136.8097222, 35.54777778 ], [ 136.8094444, 35.54777778 ], [ 136.8091667, 35.54777778 ], [ 136.8088889, 35.54777778 ], [ 136.8088889, 35.548 ], [ 136.8086111, 35.548 ], [ 136.8083333, 35.548 ], [ 136.8080556, 35.548 ], [ 136.8077778, 35.548 ], [ 136.8077778, 35.54822222 ], [ 136.8075, 35.54822222 ], [ 136.8072222, 35.54822222 ], [ 136.8069444, 35.54822222 ], [ 136.8069444, 35.54844445 ], [ 136.8066667, 35.54844445 ], [ 136.8063889, 35.54844445 ], [ 136.8061111, 35.54844445 ], [ 136.8061111, 35.54866667 ], [ 136.8058333, 35.54866667 ], [ 136.8055556, 35.54866667 ], [ 136.8052778, 35.54866667 ], [ 136.8052778, 35.54888889 ], [ 136.805, 35.54888889 ], [ 136.8047222, 35.54888889 ], [ 136.8047222, 35.54911111 ], [ 136.8044444, 35.54911111 ], [ 136.8041667, 35.54911111 ], [ 136.8038889, 35.54911111 ], [ 136.8038889, 35.54933333 ], [ 136.8036111, 35.54933333 ], [ 136.8033333, 35.54933333 ], [ 136.8033333, 35.54955556 ], [ 136.8030556, 35.54955556 ], [ 136.8027778, 35.54955556 ], [ 136.8027778, 35.54977778 ], [ 136.8025, 35.54977778 ], [ 136.8022222, 35.54977778 ], [ 136.8019444, 35.54977778 ], [ 136.8019444, 35.55 ], [ 136.8016667, 35.55 ], [ 136.8016667, 35.55022222 ], [ 136.8013889, 35.55022222 ], [ 136.8011111, 35.55022222 ], [ 136.8011111, 35.55044445 ], [ 136.8011111, 35.55066667 ], [ 136.8011111, 35.55088889 ], [ 136.8013889, 35.55088889 ], [ 136.8016667, 35.55088889 ], [ 136.8019444, 35.55088889 ], [ 136.8022222, 35.55088889 ] ] ] } }
]
}
