{
"type": "FeatureCollection",
"name": "A31a-41-25_21_8505090024_10",
"crs": { "type": "name", "properties": { "name": "urn:ogc:def:crs:EPSG::6668" } },
"xy_coordinate_resolution": 1e-09,
"features": [
{ "type": "Feature", "properties": { "A31a_401": "8505090024", "A31a_402": "境川", "A31a_403": "21", "A31a_404": "岐阜県", "A31a_405": 1 }, "geometry": { "type": "Polygon", "coordinates": [ [ [ 136.715312548, 35.349374886 ], [ 136.715312549, 35.349583219 ], [ 136.715000048, 35.349583218 ], [ 136.715000049, 35.349791552 ], [ 136.715000049, 35.349999885 ], [ 136.715000049, 35.350208218 ], [ 136.71500005, 35.350416552 ], [ 136.71531255, 35.350416552 ], [ 136.71562505, 35.350416552 ], [ 136.71593755, 35.350416552 ], [ 136.71625005, 35.350416553 ], [ 136.716562551, 35.350416553 ], [ 136.716875051, 35.350416553 ], [ 136.717187551, 35.350416553 ], [ 136.717500051, 35.350416553 ], [ 136.717812551, 35.350416554 ], [ 136.717812552, 35.350624886 ], [ 136.718125052, 35.350624887 ], [ 136.718437552, 35.350624887 ], [ 136.718437553, 35.35083322 ], [ 136.718750053, 35.35083322 ], [ 136.719062553, 35.35083322 ], [ 136.719375053, 35.35083322 ], [ 136.719687553, 35.350833221 ], [ 136.720000054, 35.350833221 ], [ 136.720312554, 35.350833221 ], [ 136.720625054, 35.350833221 ], [ 136.720937554, 35.350833221 ], [ 136.720937555, 35.351041555 ], [ 136.721250055, 35.351041555 ], [ 136.721250054, 35.350833222 ], [ 136.721250054, 35.350624889 ], [ 136.721250054, 35.350416556 ], [ 136.720937554, 35.350416556 ], [ 136.720937553, 35.350208222 ], [ 136.720937553, 35.349999889 ], [ 136.720625053, 35.349999889 ], [ 136.720312552, 35.349999889 ], [ 136.720000052, 35.349999888 ], [ 136.719687552, 35.349999888 ], [ 136.719375052, 35.349999888 ], [ 136.719062552, 35.349999888 ], [ 136.718750051, 35.349999888 ], [ 136.718750051, 35.349791555 ], [ 136.718437551, 35.349791554 ], [ 136.718125051, 35.349791554 ], [ 136.71812505, 35.34958322 ], [ 136.71781255, 35.34958322 ], [ 136.71750005, 35.34958322 ], [ 136.71750005, 35.349374887 ], [ 136.717187549, 35.349374887 ], [ 136.716875049, 35.349374887 ], [ 136.716562549, 35.349374887 ], [ 136.716250049, 35.349374886 ], [ 136.715937549, 35.349374886 ], [ 136.715625048, 35.349374886 ], [ 136.715312548, 35.349374886 ] ] ] } },
{ "type": "Feature", "properties": { "A31a_401": "8505090024", "A31a_402": "境川", "A31a_403": "21", "A31a_404": "岐阜県", "A31a_405": 1 }, "geometry": { "type": "Polygon", "coordinates": [ [ [ 136.724375085, 35.367499877 ], [ 136.724375085, 35.367708209 ], [ 136.724375086, 35.367916543 ], [ 136.724375086, 35.368124876 ], [ 136.724375086, 35.368333209 ], [ 136.724687587, 35.368333209 ], [ 136.724687587, 35.368541543 ], [ 136.725000087, 35.368541543 ], [ 136.725000088, 35.368749876 ], [ 136.725312588, 35.368749876 ], [ 136.725625088, 35.368749876 ], [ 136.725937588, 35.368749876 ], [ 136.725937588, 35.368958209 ], [ 136.726250088, 35.368958209 ], [ 136.726562589, 35.368958209 ], [ 136.726875089, 35.368958209 ], [ 136.726875089, 35.369166543 ], [ 136.727187589, 35.369166543 ], [ 136.72718759, 35.369374876 ], [ 136.72718759, 35.369583209 ], [ 136.72750009, 35.369583209 ], [ 136.727500091, 35.369791543 ], [ 136.727812591, 35.369791543 ], [ 136.727812591, 35.369999876 ], [ 136.728125091, 35.369999876 ], [ 136.728125092, 35.370208209 ], [ 136.728437592, 35.370208209 ], [ 136.728750092, 35.370208209 ], [ 136.729062592, 35.370208209 ], [ 136.729062592, 35.369999876 ], [ 136.729062591, 35.369791543 ], [ 136.729062591, 35.36958321 ], [ 136.728750091, 35.36958321 ], [ 136.72875009, 35.369374877 ], [ 136.72875009, 35.369166544 ], [ 136.72875009, 35.36895821 ], [ 136.728437589, 35.36895821 ], [ 136.728125089, 35.36895821 ], [ 136.728125089, 35.368749877 ], [ 136.727812589, 35.368749877 ], [ 136.727812588, 35.368541544 ], [ 136.727500088, 35.368541544 ], [ 136.727500088, 35.36833321 ], [ 136.727500087, 35.368124877 ], [ 136.727187587, 35.368124877 ], [ 136.726875087, 35.368124877 ], [ 136.726875087, 35.367916544 ], [ 136.726562587, 35.367916544 ], [ 136.726250086, 35.367916544 ], [ 136.725937586, 35.367916544 ], [ 136.725937586, 35.36770821 ], [ 136.725625086, 35.36770821 ], [ 136.725312586, 35.36770821 ], [ 136.725000085, 35.36770821 ], [ 136.724687585, 35.36770821 ], [ 136.724687585, 35.367499877 ], [ 136.724375085, 35.367499877 ] ] ] } },
{ "type": "Feature", "properties": { "A31a_401": "8505090024", "A31a_402": "境川", "A31a_403": "21", "A31a_404": "岐阜県", "A31a_405": 1 }, "geometry": { "type": "Polygon", "coordinates": [ [ [ 136.73093757, 35.357083223 ], [ 136.73093757, 35.357291557 ], [ 136.730937571, 35.357499889 ], [ 136.730937571, 35.357708222 ], [ 136.730625071, 35.357708222 ], [ 136.730312571, 35.357708222 ], [ 136.730000071, 35.357708222 ], [ 136.730000071, 35.357916556 ], [ 136.730312571, 35.357916556 ], [ 136.730312571, 35.358124889 ], [ 136.730625072, 35.358124889 ], [ 136.730937572, 35.358124889 ], [ 136.731250072, 35.358124889 ], [ 136.731562572, 35.358124889 ], [ 136.731875072, 35.358124889 ], [ 136.731875072, 35.357916557 ], [ 136.731875071, 35.357708223 ], [ 136.731875071, 35.35749989 ], [ 136.731562571, 35.35749989 ], [ 136.731562571, 35.357291557 ], [ 136.73125007, 35.357291557 ], [ 136.73125007, 35.357083223 ], [ 136.73093757, 35.357083223 ] ] ] } },
{ "type": "Feature", "properties": { "A31a_401": "8505090024", "A31a_402": "境川", "A31a_403": "21", "A31a_404": "岐阜県", "A31a_405": 1 }, "geometry": { "type": "Polygon", "coordinates": [ [ [ 136.705000053, 35.355416542 ], [ 136.705000053, 35.355624875 ], [ 136.704687553, 35.355624874 ], [ 136.704687553, 35.355833207 ], [ 136.704375053, 35.355833207 ], [ 136.704375054, 35.356041541 ], [ 136.704062554, 35.356041541 ], [ 136.703750053, 35.35604154 ], [ 136.703750054, 35.356249873 ], [ 136.704062554, 35.356249874 ], [ 136.704062554, 35.356458206 ], [ 136.704375054, 35.356458207 ], [ 136.704687555, 35.356458207 ], [ 136.705000055, 35.356458207 ], [ 136.705312555, 35.356458207 ], [ 136.705625055, 35.356458207 ], [ 136.705625055, 35.356249875 ], [ 136.705937555, 35.356249875 ], [ 136.705937554, 35.356041542 ], [ 136.705937554, 35.355833208 ], [ 136.705937554, 35.355624875 ], [ 136.705625054, 35.355624875 ], [ 136.705625053, 35.355416542 ], [ 136.705312553, 35.355416542 ], [ 136.705000053, 35.355416542 ] ] ] } },
{ "type": "Feature", "properties": { "A31a_401": "8505090024", "A31a_402": "境川", "A31a_403": "21", "A31a_404": "岐阜県", "A31a_405": 1 }, "geometry": { "type": "Polygon", "coordinates": [ [ [ 136.726562561, 35.352916558 ], [ 136.726562561, 35.35312489 ], [ 136.726562562, 35.353333223 ], [ 136.726875062, 35.353333224 ], [ 136.726875062, 35.353541557 ], [ 136.727187562, 35.353541558 ], [ 136.727187563, 35.35374989 ], [ 136.727187563, 35.353958223 ], [ 136.727500063, 35.353958223 ], [ 136.727812563, 35.353958224 ], [ 136.727812563, 35.353749891 ], [ 136.727812563, 35.353541558 ], [ 136.727812562, 35.353333224 ], [ 136.727812562, 35.353124891 ], [ 136.727812562, 35.352916558 ], [ 136.727500062, 35.352916558 ], [ 136.727187561, 35.352916558 ], [ 136.726875061, 35.352916558 ], [ 136.726562561, 35.352916558 ] ] ] } },
{ "type": "Feature", "properties": { "A31a_401": "8505090024", "A31a_402": "境川", "A31a_403": "21", "A31a_404": "岐阜県", "A31a_405": 1 }, "geometry": { "type": "Polygon", "coordinates": [ [ [ 136.724375066, 35.356249887 ], [ 136.724375066, 35.35645822 ], [ 136.724375066, 35.356666554 ], [ 136.724062566, 35.356666554 ], [ 136.724062566, 35.356874886 ], [ 136.724062567, 35.357083219 ], [ 136.724062567, 35.357291553 ], [ 136.724375067, 35.357291553 ], [ 136.724375068, 35.357499886 ], [ 136.724687568, 35.357499886 ], [ 136.724687568, 35.357708219 ], [ 136.725000068, 35.35770822 ], [ 136.725312569, 35.35770822 ], [ 136.725625069, 35.35770822 ], [ 136.725937569, 35.35770822 ], [ 136.726250069, 35.35770822 ], [ 136.726250069, 35.357499887 ], [ 136.725937568, 35.357499887 ], [ 136.725937568, 35.357291554 ], [ 136.725937568, 35.35708322 ], [ 136.725625068, 35.35708322 ], [ 136.725625067, 35.356874887 ], [ 136.725625067, 35.356666555 ], [ 136.725312567, 35.356666554 ], [ 136.725312566, 35.356458221 ], [ 136.725000066, 35.35645822 ], [ 136.725000066, 35.356249888 ], [ 136.724687566, 35.356249887 ], [ 136.724375066, 35.356249887 ] ] ] } },
{ "type": "Feature", "properties": { "A31a_401": "8505090024", "A31a_402": "境川", "A31a_403": "21", "A31a_404": "岐阜県", "A31a_405": 1 }, "geometry": { "type": "Polygon", "coordinates": [ [ [ 136.713125054, 35.353541548 ], [ 136.713125054, 35.353749881 ], [ 136.713125054, 35.353958214 ], [ 136.713125055, 35.354166548 ], [ 136.713437555, 35.354166548 ], [ 136.713437555, 35.354374881 ], [ 136.713437555, 35.354583214 ], [ 136.713437556, 35.354791548 ], [ 136.713750056, 35.354791548 ], [ 136.713750056, 35.354999881 ], [ 136.713750057, 35.355208214 ], [ 136.713750057, 35.355416548 ], [ 136.714062557, 35.355416548 ], [ 136.714062558, 35.355624881 ], [ 136.714375058, 35.355624881 ], [ 136.714375058, 35.355833214 ], [ 136.714687558, 35.355833214 ], [ 136.714687559, 35.356041548 ], [ 136.715000059, 35.356041548 ], [ 136.715312559, 35.356041548 ], [ 136.71531256, 35.356249881 ], [ 136.71562506, 35.356249881 ], [ 136.71562506, 35.356458214 ], [ 136.71593756, 35.356458214 ], [ 136.71625006, 35.356458215 ], [ 136.716250061, 35.356666548 ], [ 136.716562561, 35.356666549 ], [ 136.716875061, 35.356666549 ], [ 136.717187561, 35.356666549 ], [ 136.717187562, 35.356874882 ], [ 136.717500062, 35.356874882 ], [ 136.717812562, 35.356874882 ], [ 136.718125062, 35.356874883 ], [ 136.718437563, 35.356874883 ], [ 136.718750063, 35.356874883 ], [ 136.718750063, 35.35666655 ], [ 136.719062563, 35.35666655 ], [ 136.719375063, 35.35666655 ], [ 136.719375063, 35.356458217 ], [ 136.719687563, 35.356458217 ], [ 136.719687562, 35.356249884 ], [ 136.720000063, 35.356249884 ], [ 136.720000062, 35.356041551 ], [ 136.720312563, 35.356041552 ], [ 136.720312562, 35.355833218 ], [ 136.720625062, 35.355833218 ], [ 136.720625062, 35.355624885 ], [ 136.720937562, 35.355624885 ], [ 136.720937562, 35.355416552 ], [ 136.721250062, 35.355416553 ], [ 136.721250062, 35.355208219 ], [ 136.721250061, 35.354999886 ], [ 136.721562562, 35.354999886 ], [ 136.721562561, 35.354791553 ], [ 136.721562561, 35.354583219 ], [ 136.721562561, 35.354374886 ], [ 136.72156256, 35.354166554 ], [ 136.72156256, 35.35395822 ], [ 136.72156256, 35.353749887 ], [ 136.721562559, 35.353541554 ], [ 136.721250059, 35.353541554 ], [ 136.720937559, 35.353541554 ], [ 136.720937559, 35.353749886 ], [ 136.720625059, 35.353749886 ], [ 136.720625059, 35.353958219 ], [ 136.72062506, 35.354166553 ], [ 136.720312559, 35.354166553 ], [ 136.72031256, 35.354374886 ], [ 136.72000006, 35.354374885 ], [ 136.72000006, 35.354583218 ], [ 136.71968756, 35.354583218 ], [ 136.71968756, 35.354791552 ], [ 136.71968756, 35.354999885 ], [ 136.71937506, 35.354999885 ], [ 136.71937506, 35.355208217 ], [ 136.71906256, 35.355208217 ], [ 136.71875006, 35.355208217 ], [ 136.71875006, 35.355416551 ], [ 136.71843756, 35.355416551 ], [ 136.718437561, 35.355624884 ], [ 136.71812506, 35.355624883 ], [ 136.718125061, 35.355833216 ], [ 136.718125061, 35.35604155 ], [ 136.717812561, 35.35604155 ], [ 136.717500061, 35.35604155 ], [ 136.71718756, 35.356041549 ], [ 136.71718756, 35.355833216 ], [ 136.71687506, 35.355833215 ], [ 136.71656256, 35.355833215 ], [ 136.716250059, 35.355833215 ], [ 136.716250059, 35.355624882 ], [ 136.715937559, 35.355624882 ], [ 136.715937559, 35.355416549 ], [ 136.715625058, 35.355416549 ], [ 136.715312558, 35.355416549 ], [ 136.715312558, 35.355208215 ], [ 136.715312557, 35.354999882 ], [ 136.715000057, 35.354999882 ], [ 136.715000057, 35.354791549 ], [ 136.715000057, 35.354583215 ], [ 136.714687556, 35.354583215 ], [ 136.714687556, 35.354374882 ], [ 136.714687556, 35.354166549 ], [ 136.714375055, 35.354166549 ], [ 136.714375055, 35.353958215 ], [ 136.714062555, 35.353958215 ], [ 136.714062555, 35.353749882 ], [ 136.713750054, 35.353749882 ], [ 136.713750054, 35.353541549 ], [ 136.713437554, 35.353541549 ], [ 136.713125054, 35.353541548 ] ] ] } },
{ "type": "Feature", "properties": { "A31a_401": "8505090024", "A31a_402": "境川", "A31a_403": "21", "A31a_404": "岐阜県", "A31a_405": 1 }, "geometry": { "type": "Polygon", "coordinates": [ [ [ 136.709062546, 35.349999881 ], [ 136.709062546, 35.350208214 ], [ 136.708750046, 35.350208214 ], [ 136.708750046, 35.350416548 ], [ 136.708437546, 35.350416547 ], [ 136.708437546, 35.35062488 ], [ 136.708125046, 35.35062488 ], [ 136.708125047, 35.350833213 ], [ 136.708125047, 35.351041547 ], [ 136.708125047, 35.35124988 ], [ 136.708437547, 35.35124988 ], [ 136.708437548, 35.351458213 ], [ 136.708750048, 35.351458213 ], [ 136.709062548, 35.351458213 ], [ 136.709062548, 35.35124988 ], [ 136.709375048, 35.35124988 ], [ 136.709687548, 35.351249881 ], [ 136.710000048, 35.351249881 ], [ 136.710312548, 35.351249881 ], [ 136.710312548, 35.351041548 ], [ 136.710625048, 35.351041548 ], [ 136.710937548, 35.351041549 ], [ 136.711250048, 35.351041549 ], [ 136.711562549, 35.351041549 ], [ 136.711562548, 35.350833215 ], [ 136.711875048, 35.350833215 ], [ 136.712187548, 35.350833216 ], [ 136.712187548, 35.350624883 ], [ 136.712187548, 35.35041655 ], [ 136.712187547, 35.350208216 ], [ 136.712187547, 35.349999883 ], [ 136.711875047, 35.349999883 ], [ 136.711562547, 35.349999883 ], [ 136.711250047, 35.349999883 ], [ 136.710937547, 35.349999882 ], [ 136.710625046, 35.349999882 ], [ 136.710312546, 35.349999882 ], [ 136.710000046, 35.349999882 ], [ 136.709687546, 35.349999881 ], [ 136.709375046, 35.349999881 ], [ 136.709062546, 35.349999881 ] ] ] } },
{ "type": "Feature", "properties": { "A31a_401": "8505090024", "A31a_402": "境川", "A31a_403": "21", "A31a_404": "岐阜県", "A31a_405": 1 }, "geometry": { "type": "Polygon", "coordinates": [ [ [ 136.702187553, 35.356041539 ], [ 136.702187553, 35.356249872 ], [ 136.701875053, 35.356249872 ], [ 136.701875053, 35.356458205 ], [ 136.701562553, 35.356458205 ], [ 136.701562553, 35.356666539 ], [ 136.701250053, 35.356666538 ], [ 136.701250054, 35.356874871 ], [ 136.701250054, 35.357083204 ], [ 136.701562554, 35.357083204 ], [ 136.701875054, 35.357083205 ], [ 136.702187554, 35.357083205 ], [ 136.702500055, 35.357083205 ], [ 136.702500054, 35.356874872 ], [ 136.702812554, 35.356874872 ], [ 136.702812554, 35.356666539 ], [ 136.702812554, 35.356458206 ], [ 136.702812553, 35.356249873 ], [ 136.702812553, 35.35604154 ], [ 136.702500053, 35.35604154 ], [ 136.702187553, 35.356041539 ] ] ] } },
{ "type": "Feature", "properties": { "A31a_401": "8505090024", "A31a_402": "境川", "A31a_403": "21", "A31a_404": "岐阜県", "A31a_405": 1 }, "geometry": { "type": "Polygon", "coordinates": [ [ [ 136.705625047, 35.351666545 ], [ 136.705625047, 35.351874878 ], [ 136.705312547, 35.351874877 ], [ 136.705312548, 35.35208321 ], [ 136.705000047, 35.35208321 ], [ 136.704687547, 35.35208321 ], [ 136.704687548, 35.352291544 ], [ 136.704375047, 35.352291543 ], [ 136.704062547, 35.352291543 ], [ 136.704062548, 35.352499876 ], [ 136.703750048, 35.352499876 ], [ 136.703437547, 35.352499876 ], [ 136.703437548, 35.352708208 ], [ 136.703125048, 35.352708208 ], [ 136.703125048, 35.352916542 ], [ 136.702812548, 35.352916542 ], [ 136.702500048, 35.352916542 ], [ 136.702500048, 35.353124875 ], [ 136.702187548, 35.353124874 ], [ 136.701875048, 35.353124874 ], [ 136.701875048, 35.353333207 ], [ 136.701562548, 35.353333207 ], [ 136.701562548, 35.353541541 ], [ 136.701250048, 35.35354154 ], [ 136.700937548, 35.35354154 ], [ 136.700625048, 35.35354154 ], [ 136.700312548, 35.35354154 ], [ 136.700000048, 35.35354154 ], [ 136.700000048, 35.353749873 ], [ 136.700000048, 35.353958205 ], [ 136.700000049, 35.354166539 ], [ 136.700000049, 35.354374872 ], [ 136.700000049, 35.354583205 ], [ 136.699687549, 35.354583205 ], [ 136.699687549, 35.354791539 ], [ 136.70000005, 35.354791539 ], [ 136.70031255, 35.354791539 ], [ 136.70062505, 35.354791539 ], [ 136.70093755, 35.354791539 ], [ 136.70125005, 35.35479154 ], [ 136.70125005, 35.354583206 ], [ 136.70156255, 35.354583206 ], [ 136.70187505, 35.354583206 ], [ 136.70187505, 35.354374873 ], [ 136.70218755, 35.354374874 ], [ 136.70218755, 35.354166541 ], [ 136.70250005, 35.354166541 ], [ 136.702500049, 35.353958207 ], [ 136.70281255, 35.353958207 ], [ 136.70312505, 35.353958207 ], [ 136.703125049, 35.353749875 ], [ 136.703437549, 35.353749875 ], [ 136.703437549, 35.353541542 ], [ 136.703750049, 35.353541542 ], [ 136.704062549, 35.353541542 ], [ 136.704062549, 35.353333208 ], [ 136.704375049, 35.353333209 ], [ 136.704375049, 35.353124876 ], [ 136.704687549, 35.353124876 ], [ 136.704687549, 35.352916543 ], [ 136.705000049, 35.352916543 ], [ 136.705312549, 35.352916544 ], [ 136.705312549, 35.35270821 ], [ 136.705625049, 35.35270821 ], [ 136.705625048, 35.352499877 ], [ 136.705937548, 35.352499877 ], [ 136.705937548, 35.352291544 ], [ 136.705937548, 35.352083211 ], [ 136.705937547, 35.351874878 ], [ 136.705937547, 35.351666545 ], [ 136.705625047, 35.351666545 ] ] ] } },
{ "type": "Feature", "properties": { "A31a_401": "8505090024", "A31a_402": "境川", "A31a_403": "21", "A31a_404": "岐阜県", "A31a_405": 1 }, "geometry": { "type": "Polygon", "coordinates": [ [ [ 136.694687531, 35.344999875 ], [ 136.694687531, 35.345208208 ], [ 136.694687531, 35.345416542 ], [ 136.694687531, 35.345624874 ], [ 136.694687532, 35.345833207 ], [ 136.694687532, 35.346041541 ], [ 136.694687532, 35.346249874 ], [ 136.694687533, 35.346458207 ], [ 136.694687533, 35.346666541 ], [ 136.694687533, 35.346874874 ], [ 136.695000034, 35.346874874 ], [ 136.695000034, 35.347083207 ], [ 136.695000034, 35.34729154 ], [ 136.695312534, 35.347291541 ], [ 136.695625035, 35.347291541 ], [ 136.695625034, 35.347083207 ], [ 136.695625034, 35.346874874 ], [ 136.695625034, 35.346666541 ], [ 136.695625033, 35.346458207 ], [ 136.695937533, 35.346458208 ], [ 136.695937533, 35.346249875 ], [ 136.695937533, 35.346041542 ], [ 136.695937532, 35.345833208 ], [ 136.695937532, 35.345624875 ], [ 136.695625032, 35.345624875 ], [ 136.695625032, 35.345416542 ], [ 136.695312531, 35.345416542 ], [ 136.695312531, 35.345208208 ], [ 136.695000031, 35.345208208 ], [ 136.695000031, 35.344999875 ], [ 136.694687531, 35.344999875 ] ] ] } },
{ "type": "Feature", "properties": { "A31a_401": "8505090024", "A31a_402": "境川", "A31a_403": "21", "A31a_404": "岐阜県", "A31a_405": 1 }, "geometry": { "type": "Polygon", "coordinates": [ [ [ 136.733125095, 35.37083321 ], [ 136.733125096, 35.371041544 ], [ 136.733125096, 35.371249877 ], [ 136.733125097, 35.37145821 ], [ 136.733125097, 35.371666543 ], [ 136.733437597, 35.371666544 ], [ 136.733437598, 35.371874876 ], [ 136.733750098, 35.371874876 ], [ 136.734062598, 35.371874877 ], [ 136.734375098, 35.371874877 ], [ 136.734687598, 35.371874877 ], [ 136.735000098, 35.371874877 ], [ 136.735312598, 35.371874877 ], [ 136.735312598, 35.371666544 ], [ 136.735312598, 35.371458211 ], [ 136.735000097, 35.37145821 ], [ 136.735000097, 35.371249878 ], [ 136.734687597, 35.371249878 ], [ 136.734687596, 35.371041545 ], [ 136.734687596, 35.370833211 ], [ 136.734375096, 35.370833211 ], [ 136.734062596, 35.370833211 ], [ 136.733750096, 35.370833211 ], [ 136.733437595, 35.37083321 ], [ 136.733125095, 35.37083321 ] ] ] } }
]
}
