{
"type": "FeatureCollection",
"name": "A31a-41-25_21_8505090098_20",
"crs": { "type": "name", "properties": { "name": "urn:ogc:def:crs:EPSG::6668" } },
"xy_coordinate_resolution": 1e-09,
"features": [
{ "type": "Feature", "properties": { "A31a_401": "8505090098", "A31a_402": "板取川", "A31a_403": "21", "A31a_404": "岐阜県", "A31a_405": 1 }, "geometry": { "type": "Polygon", "coordinates": [ [ [ 136.9136111, 35.57044445 ], [ 136.9136111, 35.57022222 ], [ 136.9138889, 35.57022222 ], [ 136.9141667, 35.57022222 ], [ 136.9141667, 35.57 ], [ 136.9144444, 35.57 ], [ 136.9144444, 35.56977778 ], [ 136.9147222, 35.56977778 ], [ 136.915, 35.56977778 ], [ 136.915, 35.56955556 ], [ 136.9152778, 35.56955556 ], [ 136.9155556, 35.56955556 ], [ 136.9158333, 35.56955556 ], [ 136.9158333, 35.56933333 ], [ 136.9161111, 35.56933333 ], [ 136.9161111, 35.56911111 ], [ 136.9163889, 35.56911111 ], [ 136.9163889, 35.56888889 ], [ 136.9163889, 35.56866667 ], [ 136.9163889, 35.56844445 ], [ 136.9163889, 35.56822222 ], [ 136.9161111, 35.56822222 ], [ 136.9161111, 35.568 ], [ 136.9161111, 35.56777778 ], [ 136.9161111, 35.56755556 ], [ 136.9158333, 35.56755556 ], [ 136.9158333, 35.56733333 ], [ 136.9155556, 35.56733333 ], [ 136.9155556, 35.56711111 ], [ 136.9155556, 35.56688889 ], [ 136.9152778, 35.56688889 ], [ 136.9152778, 35.56666667 ], [ 136.915, 35.56666667 ], [ 136.915, 35.56644445 ], [ 136.9147222, 35.56644445 ], [ 136.9147222, 35.56622222 ], [ 136.9144444, 35.56622222 ], [ 136.9144444, 35.566 ], [ 136.9141667, 35.566 ], [ 136.9141667, 35.56577778 ], [ 136.9141667, 35.56555556 ], [ 136.9138889, 35.56555556 ], [ 136.9138889, 35.56533333 ], [ 136.9136111, 35.56533333 ], [ 136.9136111, 35.56511111 ], [ 136.9133333, 35.56511111 ], [ 136.9130556, 35.56511111 ], [ 136.9130556, 35.56488889 ], [ 136.9130556, 35.56466667 ], [ 136.9127778, 35.56466667 ], [ 136.9127778, 35.56444445 ], [ 136.9125, 35.56444445 ], [ 136.9125, 35.56422222 ], [ 136.9125, 35.564 ], [ 136.9122222, 35.564 ], [ 136.9122222, 35.56377778 ], [ 136.9119444, 35.56377778 ], [ 136.9116667, 35.56377778 ], [ 136.9116667, 35.564 ], [ 136.9119444, 35.564 ], [ 136.9119444, 35.56422222 ], [ 136.9119444, 35.56444445 ], [ 136.9122222, 35.56444445 ], [ 136.9122222, 35.56466667 ], [ 136.9122222, 35.56488889 ], [ 136.9122222, 35.56511111 ], [ 136.9125, 35.56511111 ], [ 136.9125, 35.56533333 ], [ 136.9125, 35.56555556 ], [ 136.9127778, 35.56555556 ], [ 136.9127778, 35.56577778 ], [ 136.9127778, 35.566 ], [ 136.9130556, 35.566 ], [ 136.9130556, 35.56622222 ], [ 136.9130556, 35.56644445 ], [ 136.9133333, 35.56644445 ], [ 136.9133333, 35.56666667 ], [ 136.9136111, 35.56666667 ], [ 136.9136111, 35.56688889 ], [ 136.9138889, 35.56688889 ], [ 136.9138889, 35.56711111 ], [ 136.9141667, 35.56711111 ], [ 136.9141667, 35.56733333 ], [ 136.9141667, 35.56755556 ], [ 136.9144444, 35.56755556 ], [ 136.9144444, 35.56777778 ], [ 136.9144444, 35.568 ], [ 136.9144444, 35.56822222 ], [ 136.9147222, 35.56822222 ], [ 136.9147222, 35.56844445 ], [ 136.9147222, 35.56866667 ], [ 136.9147222, 35.56888889 ], [ 136.9144444, 35.56888889 ], [ 136.9144444, 35.56911111 ], [ 136.9144444, 35.56933333 ], [ 136.9141667, 35.56933333 ], [ 136.9141667, 35.56955556 ], [ 136.9138889, 35.56955556 ], [ 136.9136111, 35.56955556 ], [ 136.9133333, 35.56955556 ], [ 136.9130556, 35.56955556 ], [ 136.9127778, 35.56955556 ], [ 136.9127778, 35.56933333 ], [ 136.9125, 35.56933333 ], [ 136.9122222, 35.56933333 ], [ 136.9119444, 35.56933333 ], [ 136.9116667, 35.56933333 ], [ 136.9116667, 35.56955556 ], [ 136.9113889, 35.56955556 ], [ 136.9111111, 35.56955556 ], [ 136.9111111, 35.56977778 ], [ 136.9108333, 35.56977778 ], [ 136.9108333, 35.57 ], [ 136.9111111, 35.57 ], [ 136.9111111, 35.57022222 ], [ 136.9113889, 35.57022222 ], [ 136.9113889, 35.57044445 ], [ 136.9116667, 35.57044445 ], [ 136.9119444, 35.57044445 ], [ 136.9122222, 35.57044445 ], [ 136.9125, 35.57044445 ], [ 136.9127778, 35.57044445 ], [ 136.9130556, 35.57044445 ], [ 136.9133333, 35.57044445 ], [ 136.9136111, 35.57044445 ] ] ] } },
{ "type": "Feature", "properties": { "A31a_401": "8505090098", "A31a_402": "板取川", "A31a_403": "21", "A31a_404": "岐阜県", "A31a_405": 1 }, "geometry": { "type": "Polygon", "coordinates": [ [ [ 136.9130556, 35.57311111 ], [ 136.9130556, 35.57288889 ], [ 136.9133333, 35.57288889 ], [ 136.9136111, 35.57288889 ], [ 136.9136111, 35.57266667 ], [ 136.9138889, 35.57266667 ], [ 136.9141667, 35.57266667 ], [ 136.9141667, 35.57244445 ], [ 136.9144444, 35.57244445 ], [ 136.9144444, 35.57222222 ], [ 136.9147222, 35.57222222 ], [ 136.915, 35.57222222 ], [ 136.915, 35.572 ], [ 136.9152778, 35.572 ], [ 136.9155556, 35.572 ], [ 136.9155556, 35.57177778 ], [ 136.9158333, 35.57177778 ], [ 136.9161111, 35.57177778 ], [ 136.9163889, 35.57177778 ], [ 136.9166667, 35.57177778 ], [ 136.9169444, 35.57177778 ], [ 136.9172222, 35.57177778 ], [ 136.9175, 35.57177778 ], [ 136.9175, 35.57155556 ], [ 136.9177778, 35.57155556 ], [ 136.9180556, 35.57155556 ], [ 136.9180556, 35.57133333 ], [ 136.9183333, 35.57133333 ], [ 136.9186111, 35.57133333 ], [ 136.9186111, 35.57111111 ], [ 136.9188889, 35.57111111 ], [ 136.9188889, 35.57088889 ], [ 136.9191667, 35.57088889 ], [ 136.9191667, 35.57066667 ], [ 136.9194444, 35.57066667 ], [ 136.9194444, 35.57044445 ], [ 136.9197222, 35.57044445 ], [ 136.92, 35.57044445 ], [ 136.9202778, 35.57044445 ], [ 136.9202778, 35.57022222 ], [ 136.9202778, 35.57 ], [ 136.92, 35.57 ], [ 136.92, 35.56977778 ], [ 136.9197222, 35.56977778 ], [ 136.9194444, 35.56977778 ], [ 136.9191667, 35.56977778 ], [ 136.9191667, 35.57 ], [ 136.9191667, 35.57022222 ], [ 136.9188889, 35.57022222 ], [ 136.9188889, 35.57044445 ], [ 136.9188889, 35.57066667 ], [ 136.9186111, 35.57066667 ], [ 136.9186111, 35.57088889 ], [ 136.9183333, 35.57088889 ], [ 136.9183333, 35.57111111 ], [ 136.9180556, 35.57111111 ], [ 136.9177778, 35.57111111 ], [ 136.9177778, 35.57133333 ], [ 136.9175, 35.57133333 ], [ 136.9172222, 35.57133333 ], [ 136.9172222, 35.57155556 ], [ 136.9169444, 35.57155556 ], [ 136.9166667, 35.57155556 ], [ 136.9166667, 35.57133333 ], [ 136.9163889, 35.57133333 ], [ 136.9161111, 35.57133333 ], [ 136.9158333, 35.57133333 ], [ 136.9155556, 35.57133333 ], [ 136.9152778, 35.57133333 ], [ 136.915, 35.57133333 ], [ 136.9147222, 35.57133333 ], [ 136.9144444, 35.57133333 ], [ 136.9141667, 35.57133333 ], [ 136.9138889, 35.57133333 ], [ 136.9136111, 35.57133333 ], [ 136.9133333, 35.57133333 ], [ 136.9130556, 35.57133333 ], [ 136.9130556, 35.57155556 ], [ 136.9127778, 35.57155556 ], [ 136.9125, 35.57155556 ], [ 136.9122222, 35.57155556 ], [ 136.9119444, 35.57155556 ], [ 136.9119444, 35.57133333 ], [ 136.9116667, 35.57133333 ], [ 136.9113889, 35.57133333 ], [ 136.9113889, 35.57111111 ], [ 136.9111111, 35.57111111 ], [ 136.9111111, 35.57088889 ], [ 136.9108333, 35.57088889 ], [ 136.9108333, 35.57066667 ], [ 136.9105556, 35.57066667 ], [ 136.9105556, 35.57044445 ], [ 136.9102778, 35.57044445 ], [ 136.9102778, 35.57022222 ], [ 136.91, 35.57022222 ], [ 136.91, 35.57 ], [ 136.9097222, 35.57 ], [ 136.9094444, 35.57 ], [ 136.9094444, 35.56977778 ], [ 136.9091667, 35.56977778 ], [ 136.9091667, 35.56955556 ], [ 136.9088889, 35.56955556 ], [ 136.9088889, 35.56933333 ], [ 136.9086111, 35.56933333 ], [ 136.9086111, 35.56911111 ], [ 136.9083333, 35.56911111 ], [ 136.9083333, 35.56888889 ], [ 136.9080556, 35.56888889 ], [ 136.9077778, 35.56888889 ], [ 136.9077778, 35.56866667 ], [ 136.9075, 35.56866667 ], [ 136.9075, 35.56844445 ], [ 136.9072222, 35.56844445 ], [ 136.9069444, 35.56844445 ], [ 136.9069444, 35.56822222 ], [ 136.9066667, 35.56822222 ], [ 136.9063889, 35.56822222 ], [ 136.9063889, 35.568 ], [ 136.9061111, 35.568 ], [ 136.9061111, 35.56777778 ], [ 136.9058333, 35.56777778 ], [ 136.9055556, 35.56777778 ], [ 136.9052778, 35.56777778 ], [ 136.9052778, 35.56755556 ], [ 136.905, 35.56755556 ], [ 136.9047222, 35.56755556 ], [ 136.9044444, 35.56755556 ], [ 136.9041667, 35.56755556 ], [ 136.9038889, 35.56755556 ], [ 136.9036111, 35.56755556 ], [ 136.9036111, 35.56777778 ], [ 136.9033333, 35.56777778 ], [ 136.9030556, 35.56777778 ], [ 136.9030556, 35.568 ], [ 136.9027778, 35.568 ], [ 136.9027778, 35.56822222 ], [ 136.9025, 35.56822222 ], [ 136.9025, 35.56844445 ], [ 136.9022222, 35.56844445 ], [ 136.9019444, 35.56844445 ], [ 136.9019444, 35.56866667 ], [ 136.9016667, 35.56866667 ], [ 136.9016667, 35.56888889 ], [ 136.9013889, 35.56888889 ], [ 136.9013889, 35.56911111 ], [ 136.9011111, 35.56911111 ], [ 136.9011111, 35.56933333 ], [ 136.9008333, 35.56933333 ], [ 136.9008333, 35.56955556 ], [ 136.9005556, 35.56955556 ], [ 136.9005556, 35.56977778 ], [ 136.9005556, 35.57 ], [ 136.9002778, 35.57 ], [ 136.9002778, 35.57022222 ], [ 136.9002778, 35.57044445 ], [ 136.9, 35.57044445 ], [ 136.9, 35.57066667 ], [ 136.9, 35.57088889 ], [ 136.8997222, 35.57088889 ], [ 136.8997222, 35.57111111 ], [ 136.8997222, 35.57133333 ], [ 136.8997222, 35.57155556 ], [ 136.8997222, 35.57177778 ], [ 136.8994444, 35.57177778 ], [ 136.8994444, 35.572 ], [ 136.8994444, 35.57222222 ], [ 136.8997222, 35.57222222 ], [ 136.8997222, 35.572 ], [ 136.9, 35.572 ], [ 136.9, 35.57177778 ], [ 136.9002778, 35.57177778 ], [ 136.9002778, 35.57155556 ], [ 136.9005556, 35.57155556 ], [ 136.9005556, 35.57133333 ], [ 136.9005556, 35.57111111 ], [ 136.9008333, 35.57111111 ], [ 136.9008333, 35.57088889 ], [ 136.9011111, 35.57088889 ], [ 136.9013889, 35.57088889 ], [ 136.9013889, 35.57066667 ], [ 136.9016667, 35.57066667 ], [ 136.9016667, 35.57044445 ], [ 136.9019444, 35.57044445 ], [ 136.9022222, 35.57044445 ], [ 136.9022222, 35.57022222 ], [ 136.9025, 35.57022222 ], [ 136.9025, 35.57 ], [ 136.9027778, 35.57 ], [ 136.9027778, 35.56977778 ], [ 136.9030556, 35.56977778 ], [ 136.9030556, 35.56955556 ], [ 136.9033333, 35.56955556 ], [ 136.9033333, 35.56933333 ], [ 136.9036111, 35.56933333 ], [ 136.9038889, 35.56933333 ], [ 136.9038889, 35.56911111 ], [ 136.9041667, 35.56911111 ], [ 136.9041667, 35.56888889 ], [ 136.9044444, 35.56888889 ], [ 136.9044444, 35.56866667 ], [ 136.9047222, 35.56866667 ], [ 136.9047222, 35.56844445 ], [ 136.905, 35.56844445 ], [ 136.9052778, 35.56844445 ], [ 136.9052778, 35.56866667 ], [ 136.9055556, 35.56866667 ], [ 136.9055556, 35.56888889 ], [ 136.9058333, 35.56888889 ], [ 136.9058333, 35.56911111 ], [ 136.9061111, 35.56911111 ], [ 136.9063889, 35.56911111 ], [ 136.9063889, 35.56933333 ], [ 136.9066667, 35.56933333 ], [ 136.9066667, 35.56955556 ], [ 136.9066667, 35.56977778 ], [ 136.9069444, 35.56977778 ], [ 136.9069444, 35.57 ], [ 136.9069444, 35.57022222 ], [ 136.9069444, 35.57044445 ], [ 136.9069444, 35.57066667 ], [ 136.9072222, 35.57066667 ], [ 136.9072222, 35.57088889 ], [ 136.9072222, 35.57111111 ], [ 136.9072222, 35.57133333 ], [ 136.9075, 35.57133333 ], [ 136.9075, 35.57155556 ], [ 136.9077778, 35.57155556 ], [ 136.9077778, 35.57177778 ], [ 136.9080556, 35.57177778 ], [ 136.9080556, 35.572 ], [ 136.9083333, 35.572 ], [ 136.9083333, 35.57222222 ], [ 136.9083333, 35.57244445 ], [ 136.9086111, 35.57244445 ], [ 136.9088889, 35.57244445 ], [ 136.9088889, 35.57266667 ], [ 136.9091667, 35.57266667 ], [ 136.9094444, 35.57266667 ], [ 136.9094444, 35.57288889 ], [ 136.9097222, 35.57288889 ], [ 136.91, 35.57288889 ], [ 136.9102778, 35.57288889 ], [ 136.9105556, 35.57288889 ], [ 136.9108333, 35.57288889 ], [ 136.9111111, 35.57288889 ], [ 136.9113889, 35.57288889 ], [ 136.9116667, 35.57288889 ], [ 136.9116667, 35.57311111 ], [ 136.9119444, 35.57311111 ], [ 136.9122222, 35.57311111 ], [ 136.9125, 35.57311111 ], [ 136.9127778, 35.57311111 ], [ 136.9130556, 35.57311111 ] ] ] } },
{ "type": "Feature", "properties": { "A31a_401": "8505090098", "A31a_402": "板取川", "A31a_403": "21", "A31a_404": "岐阜県", "A31a_405": 1 }, "geometry": { "type": "Polygon", "coordinates": [ [ [ 136.8977778, 35.57622222 ], [ 136.8977778, 35.576 ], [ 136.8980556, 35.576 ], [ 136.8980556, 35.57577778 ], [ 136.8980556, 35.57555556 ], [ 136.8980556, 35.57533333 ], [ 136.8983333, 35.57533333 ], [ 136.8983333, 35.57511111 ], [ 136.8983333, 35.57488889 ], [ 136.8983333, 35.57466667 ], [ 136.8983333, 35.57444445 ], [ 136.8986111, 35.57444445 ], [ 136.8986111, 35.57422222 ], [ 136.8986111, 35.574 ], [ 136.8986111, 35.57377778 ], [ 136.8986111, 35.57355556 ], [ 136.8986111, 35.57333333 ], [ 136.8986111, 35.57311111 ], [ 136.8986111, 35.57288889 ], [ 136.8988889, 35.57288889 ], [ 136.8988889, 35.57266667 ], [ 136.8988889, 35.57244445 ], [ 136.8988889, 35.57222222 ], [ 136.8988889, 35.572 ], [ 136.8988889, 35.57177778 ], [ 136.8991667, 35.57177778 ], [ 136.8991667, 35.57155556 ], [ 136.8991667, 35.57133333 ], [ 136.8991667, 35.57111111 ], [ 136.8994444, 35.57111111 ], [ 136.8994444, 35.57088889 ], [ 136.8994444, 35.57066667 ], [ 136.8994444, 35.57044445 ], [ 136.8994444, 35.57022222 ], [ 136.8997222, 35.57022222 ], [ 136.8997222, 35.57 ], [ 136.8997222, 35.56977778 ], [ 136.8997222, 35.56955556 ], [ 136.8994444, 35.56955556 ], [ 136.8994444, 35.56977778 ], [ 136.8991667, 35.56977778 ], [ 136.8991667, 35.57 ], [ 136.8991667, 35.57022222 ], [ 136.8988889, 35.57022222 ], [ 136.8988889, 35.57044445 ], [ 136.8986111, 35.57044445 ], [ 136.8986111, 35.57066667 ], [ 136.8986111, 35.57088889 ], [ 136.8983333, 35.57088889 ], [ 136.8983333, 35.57111111 ], [ 136.8980556, 35.57111111 ], [ 136.8980556, 35.57133333 ], [ 136.8980556, 35.57155556 ], [ 136.8977778, 35.57155556 ], [ 136.8977778, 35.57177778 ], [ 136.8977778, 35.572 ], [ 136.8975, 35.572 ], [ 136.8975, 35.57222222 ], [ 136.8975, 35.57244445 ], [ 136.8975, 35.57266667 ], [ 136.8972222, 35.57266667 ], [ 136.8972222, 35.57288889 ], [ 136.8972222, 35.57311111 ], [ 136.8972222, 35.57333333 ], [ 136.8972222, 35.57355556 ], [ 136.8972222, 35.57377778 ], [ 136.8972222, 35.574 ], [ 136.8969444, 35.574 ], [ 136.8969444, 35.57422222 ], [ 136.8969444, 35.57444445 ], [ 136.8969444, 35.57466667 ], [ 136.8969444, 35.57488889 ], [ 136.8969444, 35.57511111 ], [ 136.8972222, 35.57511111 ], [ 136.8972222, 35.57533333 ], [ 136.8972222, 35.57555556 ], [ 136.8972222, 35.57577778 ], [ 136.8972222, 35.576 ], [ 136.8972222, 35.57622222 ], [ 136.8972222, 35.57644445 ], [ 136.8972222, 35.57666667 ], [ 136.8972222, 35.57688889 ], [ 136.8972222, 35.57711111 ], [ 136.8972222, 35.57733333 ], [ 136.8972222, 35.57755556 ], [ 136.8975, 35.57755556 ], [ 136.8975, 35.57777778 ], [ 136.8977778, 35.57777778 ], [ 136.8977778, 35.57755556 ], [ 136.8977778, 35.57733333 ], [ 136.8977778, 35.57711111 ], [ 136.8977778, 35.57688889 ], [ 136.8977778, 35.57666667 ], [ 136.8977778, 35.57644445 ], [ 136.8977778, 35.57622222 ] ] ] } },
{ "type": "Feature", "properties": { "A31a_401": "8505090098", "A31a_402": "板取川", "A31a_403": "21", "A31a_404": "岐阜県", "A31a_405": 1 }, "geometry": { "type": "Polygon", "coordinates": [ [ [ 136.8994444, 35.57733333 ], [ 136.8994444, 35.57711111 ], [ 136.8994444, 35.57688889 ], [ 136.8994444, 35.57666667 ], [ 136.8991667, 35.57666667 ], [ 136.8991667, 35.57688889 ], [ 136.8988889, 35.57688889 ], [ 136.8986111, 35.57688889 ], [ 136.8986111, 35.57711111 ], [ 136.8983333, 35.57711111 ], [ 136.8983333, 35.57733333 ], [ 136.8980556, 35.57733333 ], [ 136.8980556, 35.57755556 ], [ 136.8980556, 35.57777778 ], [ 136.8980556, 35.578 ], [ 136.8983333, 35.578 ], [ 136.8983333, 35.57822222 ], [ 136.8983333, 35.57844445 ], [ 136.8983333, 35.57866667 ], [ 136.8983333, 35.57888889 ], [ 136.8986111, 35.57888889 ], [ 136.8986111, 35.57911111 ], [ 136.8986111, 35.57933333 ], [ 136.8988889, 35.57933333 ], [ 136.8988889, 35.57955556 ], [ 136.8988889, 35.57977778 ], [ 136.8991667, 35.57977778 ], [ 136.8991667, 35.58 ], [ 136.8994444, 35.58 ], [ 136.8994444, 35.58022222 ], [ 136.8997222, 35.58022222 ], [ 136.9, 35.58022222 ], [ 136.9, 35.58044445 ], [ 136.9002778, 35.58044445 ], [ 136.9005556, 35.58044445 ], [ 136.9005556, 35.58022222 ], [ 136.9005556, 35.58 ], [ 136.9005556, 35.57977778 ], [ 136.9002778, 35.57977778 ], [ 136.9002778, 35.57955556 ], [ 136.9002778, 35.57933333 ], [ 136.9002778, 35.57911111 ], [ 136.9002778, 35.57888889 ], [ 136.9, 35.57888889 ], [ 136.9, 35.57866667 ], [ 136.9, 35.57844445 ], [ 136.9, 35.57822222 ], [ 136.8997222, 35.57822222 ], [ 136.8997222, 35.578 ], [ 136.8997222, 35.57777778 ], [ 136.8997222, 35.57755556 ], [ 136.8994444, 35.57755556 ], [ 136.8994444, 35.57733333 ] ] ] } }
]
}
