{
"type": "FeatureCollection",
"name": "A31a-30-25_21_8505090087_20",
"crs": { "type": "name", "properties": { "name": "urn:ogc:def:crs:EPSG::6668" } },
"xy_coordinate_resolution": 1e-09,
"features": [
{ "type": "Feature", "properties": { "A31a_301": "8505090087", "A31a_302": "福富川", "A31a_303": "21", "A31a_304": "岐阜県", "A31a_305": 1 }, "geometry": { "type": "Polygon", "coordinates": [ [ [ 136.830625, 35.470833 ], [ 136.830625, 35.470625 ], [ 136.830938, 35.470625 ], [ 136.830938, 35.470417 ], [ 136.830938, 35.470208 ], [ 136.83125, 35.470208 ], [ 136.83125, 35.47 ], [ 136.83125, 35.469792 ], [ 136.831563, 35.469792 ], [ 136.831563, 35.469583 ], [ 136.831563, 35.469375 ], [ 136.831875, 35.469375 ], [ 136.831875, 35.469167 ], [ 136.831563, 35.469167 ], [ 136.83125, 35.469167 ], [ 136.830938, 35.469167 ], [ 136.830625, 35.469167 ], [ 136.830625, 35.469375 ], [ 136.830313, 35.469375 ], [ 136.830313, 35.469583 ], [ 136.83, 35.469583 ], [ 136.829688, 35.469583 ], [ 136.829688, 35.469792 ], [ 136.829688, 35.47 ], [ 136.829375, 35.47 ], [ 136.829375, 35.470208 ], [ 136.829688, 35.470208 ], [ 136.829688, 35.470417 ], [ 136.83, 35.470417 ], [ 136.83, 35.470625 ], [ 136.830313, 35.470625 ], [ 136.830313, 35.470833 ], [ 136.830625, 35.470833 ] ] ] } },
{ "type": "Feature", "properties": { "A31a_301": "8505090087", "A31a_302": "福富川", "A31a_303": "21", "A31a_304": "岐阜県", "A31a_305": 1 }, "geometry": { "type": "Polygon", "coordinates": [ [ [ 136.825313, 35.4775 ], [ 136.825313, 35.477292 ], [ 136.825625, 35.477292 ], [ 136.825625, 35.477083 ], [ 136.825938, 35.477083 ], [ 136.82625, 35.477083 ], [ 136.826563, 35.477083 ], [ 136.826875, 35.477083 ], [ 136.826875, 35.476875 ], [ 136.827188, 35.476875 ], [ 136.827188, 35.476667 ], [ 136.8275, 35.476667 ], [ 136.8275, 35.476458 ], [ 136.8275, 35.47625 ], [ 136.8275, 35.476042 ], [ 136.8275, 35.475833 ], [ 136.8275, 35.475625 ], [ 136.827813, 35.475625 ], [ 136.827813, 35.475417 ], [ 136.827813, 35.475208 ], [ 136.827813, 35.475 ], [ 136.827813, 35.474792 ], [ 136.828125, 35.474792 ], [ 136.828125, 35.474583 ], [ 136.828125, 35.474375 ], [ 136.828125, 35.474167 ], [ 136.828125, 35.473958 ], [ 136.828125, 35.47375 ], [ 136.828438, 35.47375 ], [ 136.828438, 35.473542 ], [ 136.828438, 35.473333 ], [ 136.828438, 35.473125 ], [ 136.828438, 35.472917 ], [ 136.82875, 35.472917 ], [ 136.82875, 35.472708 ], [ 136.82875, 35.4725 ], [ 136.82875, 35.472292 ], [ 136.82875, 35.472083 ], [ 136.829063, 35.472083 ], [ 136.829063, 35.471875 ], [ 136.829063, 35.471667 ], [ 136.82875, 35.471667 ], [ 136.82875, 35.471875 ], [ 136.828438, 35.471875 ], [ 136.828125, 35.471875 ], [ 136.828125, 35.472083 ], [ 136.827813, 35.472083 ], [ 136.827813, 35.471875 ], [ 136.8275, 35.471875 ], [ 136.8275, 35.472083 ], [ 136.827188, 35.472083 ], [ 136.827188, 35.472292 ], [ 136.827188, 35.4725 ], [ 136.826875, 35.4725 ], [ 136.826563, 35.4725 ], [ 136.82625, 35.4725 ], [ 136.82625, 35.472708 ], [ 136.82625, 35.472917 ], [ 136.82625, 35.473125 ], [ 136.825938, 35.473125 ], [ 136.825625, 35.473125 ], [ 136.825625, 35.473333 ], [ 136.825625, 35.473542 ], [ 136.825313, 35.473542 ], [ 136.825313, 35.47375 ], [ 136.825, 35.47375 ], [ 136.825, 35.473958 ], [ 136.824688, 35.473958 ], [ 136.824375, 35.473958 ], [ 136.824375, 35.474167 ], [ 136.824063, 35.474167 ], [ 136.824063, 35.474375 ], [ 136.82375, 35.474375 ], [ 136.82375, 35.474583 ], [ 136.823438, 35.474583 ], [ 136.823438, 35.474375 ], [ 136.823125, 35.474375 ], [ 136.822813, 35.474375 ], [ 136.822813, 35.474583 ], [ 136.8225, 35.474583 ], [ 136.822188, 35.474583 ], [ 136.822188, 35.474375 ], [ 136.821875, 35.474375 ], [ 136.821875, 35.474583 ], [ 136.821875, 35.474792 ], [ 136.821875, 35.475 ], [ 136.821875, 35.475208 ], [ 136.821875, 35.475417 ], [ 136.821875, 35.475625 ], [ 136.821875, 35.475833 ], [ 136.821563, 35.475833 ], [ 136.821563, 35.476042 ], [ 136.82125, 35.476042 ], [ 136.820938, 35.476042 ], [ 136.820625, 35.476042 ], [ 136.820625, 35.475833 ], [ 136.820313, 35.475833 ], [ 136.82, 35.475833 ], [ 136.819688, 35.475833 ], [ 136.819688, 35.476042 ], [ 136.819375, 35.476042 ], [ 136.819375, 35.47625 ], [ 136.819375, 35.476458 ], [ 136.819375, 35.476667 ], [ 136.819063, 35.476667 ], [ 136.819063, 35.476875 ], [ 136.819063, 35.477083 ], [ 136.819063, 35.477292 ], [ 136.81875, 35.477292 ], [ 136.818438, 35.477292 ], [ 136.818438, 35.4775 ], [ 136.81875, 35.4775 ], [ 136.819063, 35.4775 ], [ 136.819375, 35.4775 ], [ 136.819688, 35.4775 ], [ 136.82, 35.4775 ], [ 136.820313, 35.4775 ], [ 136.820625, 35.4775 ], [ 136.820938, 35.4775 ], [ 136.82125, 35.4775 ], [ 136.821563, 35.4775 ], [ 136.821875, 35.4775 ], [ 136.822188, 35.4775 ], [ 136.822188, 35.477292 ], [ 136.822188, 35.477083 ], [ 136.8225, 35.477083 ], [ 136.8225, 35.477292 ], [ 136.8225, 35.4775 ], [ 136.822813, 35.4775 ], [ 136.823125, 35.4775 ], [ 136.823125, 35.477708 ], [ 136.823438, 35.477708 ], [ 136.82375, 35.477708 ], [ 136.824063, 35.477708 ], [ 136.824375, 35.477708 ], [ 136.824375, 35.4775 ], [ 136.824063, 35.4775 ], [ 136.824063, 35.477292 ], [ 136.824375, 35.477292 ], [ 136.824688, 35.477292 ], [ 136.824688, 35.4775 ], [ 136.825, 35.4775 ], [ 136.825313, 35.4775 ] ], [ [ 136.821563, 35.477083 ], [ 136.821563, 35.477292 ], [ 136.82125, 35.477292 ], [ 136.820938, 35.477292 ], [ 136.820938, 35.477083 ], [ 136.82125, 35.477083 ], [ 136.821563, 35.477083 ] ], [ [ 136.82, 35.476667 ], [ 136.82, 35.476458 ], [ 136.820313, 35.476458 ], [ 136.820313, 35.476667 ], [ 136.820313, 35.476875 ], [ 136.82, 35.476875 ], [ 136.82, 35.476667 ] ] ] } },
{ "type": "Feature", "properties": { "A31a_301": "8505090087", "A31a_302": "福富川", "A31a_303": "21", "A31a_304": "岐阜県", "A31a_305": 1 }, "geometry": { "type": "Polygon", "coordinates": [ [ [ 136.823438, 35.478333 ], [ 136.82375, 35.478333 ], [ 136.82375, 35.478125 ], [ 136.82375, 35.477917 ], [ 136.823438, 35.477917 ], [ 136.823438, 35.478125 ], [ 136.823438, 35.478333 ] ] ] } },
{ "type": "Feature", "properties": { "A31a_301": "8505090087", "A31a_302": "福富川", "A31a_303": "21", "A31a_304": "岐阜県", "A31a_305": 1 }, "geometry": { "type": "Polygon", "coordinates": [ [ [ 136.823438, 35.478333 ], [ 136.823125, 35.478333 ], [ 136.822813, 35.478333 ], [ 136.822813, 35.478125 ], [ 136.823125, 35.478125 ], [ 136.823125, 35.477917 ], [ 136.822813, 35.477917 ], [ 136.822813, 35.477708 ], [ 136.8225, 35.477708 ], [ 136.822188, 35.477708 ], [ 136.821875, 35.477708 ], [ 136.821563, 35.477708 ], [ 136.82125, 35.477708 ], [ 136.82125, 35.477917 ], [ 136.821563, 35.477917 ], [ 136.821563, 35.478125 ], [ 136.821875, 35.478125 ], [ 136.822188, 35.478125 ], [ 136.8225, 35.478125 ], [ 136.8225, 35.478333 ], [ 136.8225, 35.478542 ], [ 136.8225, 35.47875 ], [ 136.822813, 35.47875 ], [ 136.823125, 35.47875 ], [ 136.823438, 35.47875 ], [ 136.823438, 35.478542 ], [ 136.823438, 35.478333 ] ] ] } },
{ "type": "Feature", "properties": { "A31a_301": "8505090087", "A31a_302": "福富川", "A31a_303": "21", "A31a_304": "岐阜県", "A31a_305": 1 }, "geometry": { "type": "Polygon", "coordinates": [ [ [ 136.83375, 35.476458 ], [ 136.833438, 35.476458 ], [ 136.833438, 35.47625 ], [ 136.833125, 35.47625 ], [ 136.833125, 35.476042 ], [ 136.833438, 35.476042 ], [ 136.83375, 35.476042 ], [ 136.83375, 35.47625 ], [ 136.83375, 35.476458 ], [ 136.834063, 35.476458 ], [ 136.834063, 35.47625 ], [ 136.834375, 35.47625 ], [ 136.834375, 35.476458 ], [ 136.834688, 35.476458 ], [ 136.835, 35.476458 ], [ 136.835313, 35.476458 ], [ 136.835313, 35.476667 ], [ 136.835313, 35.476875 ], [ 136.835625, 35.476875 ], [ 136.835625, 35.477083 ], [ 136.835938, 35.477083 ], [ 136.83625, 35.477083 ], [ 136.83625, 35.477292 ], [ 136.835938, 35.477292 ], [ 136.835938, 35.4775 ], [ 136.835938, 35.477708 ], [ 136.83625, 35.477708 ], [ 136.836563, 35.477708 ], [ 136.836563, 35.477917 ], [ 136.836875, 35.477917 ], [ 136.836875, 35.478125 ], [ 136.836875, 35.478333 ], [ 136.837188, 35.478333 ], [ 136.837188, 35.478542 ], [ 136.837188, 35.47875 ], [ 136.8375, 35.47875 ], [ 136.8375, 35.478542 ], [ 136.837813, 35.478542 ], [ 136.837813, 35.478333 ], [ 136.8375, 35.478333 ], [ 136.8375, 35.478125 ], [ 136.8375, 35.477917 ], [ 136.8375, 35.477708 ], [ 136.8375, 35.4775 ], [ 136.8375, 35.477292 ], [ 136.8375, 35.477083 ], [ 136.837188, 35.477083 ], [ 136.837188, 35.476875 ], [ 136.837188, 35.476667 ], [ 136.837188, 35.476458 ], [ 136.836875, 35.476458 ], [ 136.836875, 35.47625 ], [ 136.836875, 35.476042 ], [ 136.836875, 35.475833 ], [ 136.836563, 35.475833 ], [ 136.836563, 35.475625 ], [ 136.836563, 35.475417 ], [ 136.83625, 35.475417 ], [ 136.835938, 35.475417 ], [ 136.835938, 35.475208 ], [ 136.83625, 35.475208 ], [ 136.83625, 35.475 ], [ 136.835938, 35.475 ], [ 136.835625, 35.475 ], [ 136.835625, 35.474792 ], [ 136.835625, 35.474583 ], [ 136.835938, 35.474583 ], [ 136.835938, 35.474375 ], [ 136.835625, 35.474375 ], [ 136.835625, 35.474167 ], [ 136.835625, 35.473958 ], [ 136.835625, 35.47375 ], [ 136.835625, 35.473542 ], [ 136.835625, 35.473333 ], [ 136.835313, 35.473333 ], [ 136.835, 35.473333 ], [ 136.834688, 35.473333 ], [ 136.834688, 35.473125 ], [ 136.834375, 35.473125 ], [ 136.834375, 35.472917 ], [ 136.834375, 35.472708 ], [ 136.834375, 35.4725 ], [ 136.834375, 35.472292 ], [ 136.834375, 35.472083 ], [ 136.834063, 35.472083 ], [ 136.834063, 35.471875 ], [ 136.834375, 35.471875 ], [ 136.834375, 35.471667 ], [ 136.834063, 35.471667 ], [ 136.834063, 35.471458 ], [ 136.83375, 35.471458 ], [ 136.833438, 35.471458 ], [ 136.833125, 35.471458 ], [ 136.832813, 35.471458 ], [ 136.8325, 35.471458 ], [ 136.8325, 35.47125 ], [ 136.8325, 35.471042 ], [ 136.832813, 35.471042 ], [ 136.832813, 35.470833 ], [ 136.833125, 35.470833 ], [ 136.833438, 35.470833 ], [ 136.833438, 35.470625 ], [ 136.833438, 35.470417 ], [ 136.833125, 35.470417 ], [ 136.833125, 35.470208 ], [ 136.833125, 35.47 ], [ 136.832813, 35.47 ], [ 136.8325, 35.47 ], [ 136.8325, 35.469792 ], [ 136.8325, 35.469583 ], [ 136.8325, 35.469375 ], [ 136.832188, 35.469375 ], [ 136.832188, 35.469583 ], [ 136.832188, 35.469792 ], [ 136.832188, 35.47 ], [ 136.832188, 35.470208 ], [ 136.832188, 35.470417 ], [ 136.831875, 35.470417 ], [ 136.831875, 35.470208 ], [ 136.831875, 35.47 ], [ 136.831875, 35.469792 ], [ 136.831563, 35.469792 ], [ 136.831563, 35.47 ], [ 136.831563, 35.470208 ], [ 136.83125, 35.470208 ], [ 136.83125, 35.470417 ], [ 136.83125, 35.470625 ], [ 136.830938, 35.470625 ], [ 136.830938, 35.470833 ], [ 136.830625, 35.470833 ], [ 136.830625, 35.471042 ], [ 136.830313, 35.471042 ], [ 136.83, 35.471042 ], [ 136.83, 35.47125 ], [ 136.829688, 35.47125 ], [ 136.829688, 35.471458 ], [ 136.829375, 35.471458 ], [ 136.829375, 35.471667 ], [ 136.829375, 35.471875 ], [ 136.829375, 35.472083 ], [ 136.829063, 35.472083 ], [ 136.829063, 35.472292 ], [ 136.829063, 35.4725 ], [ 136.829063, 35.472708 ], [ 136.829063, 35.472917 ], [ 136.82875, 35.472917 ], [ 136.82875, 35.473125 ], [ 136.82875, 35.473333 ], [ 136.82875, 35.473542 ], [ 136.82875, 35.47375 ], [ 136.828438, 35.47375 ], [ 136.828438, 35.473958 ], [ 136.828438, 35.474167 ], [ 136.828438, 35.474375 ], [ 136.828438, 35.474583 ], [ 136.828438, 35.474792 ], [ 136.828125, 35.474792 ], [ 136.828125, 35.475 ], [ 136.828125, 35.475208 ], [ 136.828125, 35.475417 ], [ 136.828125, 35.475625 ], [ 136.827813, 35.475625 ], [ 136.827813, 35.475833 ], [ 136.827813, 35.476042 ], [ 136.827813, 35.47625 ], [ 136.827813, 35.476458 ], [ 136.827813, 35.476667 ], [ 136.8275, 35.476667 ], [ 136.8275, 35.476875 ], [ 136.827188, 35.476875 ], [ 136.827188, 35.477083 ], [ 136.826875, 35.477083 ], [ 136.826875, 35.477292 ], [ 136.826563, 35.477292 ], [ 136.82625, 35.477292 ], [ 136.825938, 35.477292 ], [ 136.825938, 35.4775 ], [ 136.825625, 35.4775 ], [ 136.825313, 35.4775 ], [ 136.825313, 35.477708 ], [ 136.825, 35.477708 ], [ 136.824688, 35.477708 ], [ 136.824688, 35.477917 ], [ 136.825, 35.477917 ], [ 136.825, 35.478125 ], [ 136.825, 35.478333 ], [ 136.825313, 35.478333 ], [ 136.825625, 35.478333 ], [ 136.825938, 35.478333 ], [ 136.825938, 35.478125 ], [ 136.82625, 35.478125 ], [ 136.82625, 35.477917 ], [ 136.826563, 35.477917 ], [ 136.826875, 35.477917 ], [ 136.826875, 35.478125 ], [ 136.826875, 35.478333 ], [ 136.827188, 35.478333 ], [ 136.8275, 35.478333 ], [ 136.8275, 35.478542 ], [ 136.8275, 35.47875 ], [ 136.8275, 35.478958 ], [ 136.827813, 35.478958 ], [ 136.828125, 35.478958 ], [ 136.828438, 35.478958 ], [ 136.82875, 35.478958 ], [ 136.829063, 35.478958 ], [ 136.829375, 35.478958 ], [ 136.829688, 35.478958 ], [ 136.83, 35.478958 ], [ 136.830313, 35.478958 ], [ 136.830625, 35.478958 ], [ 136.830625, 35.479167 ], [ 136.830625, 35.479375 ], [ 136.830938, 35.479375 ], [ 136.830938, 35.479167 ], [ 136.830938, 35.478958 ], [ 136.83125, 35.478958 ], [ 136.83125, 35.479167 ], [ 136.83125, 35.479375 ], [ 136.831563, 35.479375 ], [ 136.831563, 35.479167 ], [ 136.831563, 35.478958 ], [ 136.831563, 35.47875 ], [ 136.831563, 35.478542 ], [ 136.831563, 35.478333 ], [ 136.831563, 35.478125 ], [ 136.831563, 35.477917 ], [ 136.831563, 35.477708 ], [ 136.831563, 35.4775 ], [ 136.831563, 35.477292 ], [ 136.831875, 35.477292 ], [ 136.832188, 35.477292 ], [ 136.8325, 35.477292 ], [ 136.8325, 35.4775 ], [ 136.8325, 35.477708 ], [ 136.832813, 35.477708 ], [ 136.832813, 35.4775 ], [ 136.832813, 35.477292 ], [ 136.833125, 35.477292 ], [ 136.833438, 35.477292 ], [ 136.833438, 35.477083 ], [ 136.833125, 35.477083 ], [ 136.832813, 35.477083 ], [ 136.8325, 35.477083 ], [ 136.8325, 35.476875 ], [ 136.832188, 35.476875 ], [ 136.832188, 35.476667 ], [ 136.831875, 35.476667 ], [ 136.831875, 35.476458 ], [ 136.832188, 35.476458 ], [ 136.832188, 35.47625 ], [ 136.8325, 35.47625 ], [ 136.8325, 35.476458 ], [ 136.832813, 35.476458 ], [ 136.833125, 35.476458 ], [ 136.833125, 35.476667 ], [ 136.833438, 35.476667 ], [ 136.83375, 35.476667 ], [ 136.83375, 35.476458 ] ], [ [ 136.83375, 35.475833 ], [ 136.83375, 35.475625 ], [ 136.834063, 35.475625 ], [ 136.834063, 35.475833 ], [ 136.83375, 35.475833 ] ] ] } },
{ "type": "Feature", "properties": { "A31a_301": "8505090087", "A31a_302": "福富川", "A31a_303": "21", "A31a_304": "岐阜県", "A31a_305": 1 }, "geometry": { "type": "Polygon", "coordinates": [ [ [ 136.814688, 35.481875 ], [ 136.814688, 35.481667 ], [ 136.814688, 35.481458 ], [ 136.814688, 35.48125 ], [ 136.815, 35.48125 ], [ 136.815313, 35.48125 ], [ 136.815625, 35.48125 ], [ 136.815938, 35.48125 ], [ 136.815938, 35.481042 ], [ 136.815938, 35.480833 ], [ 136.815938, 35.480625 ], [ 136.815938, 35.480417 ], [ 136.815938, 35.480208 ], [ 136.815938, 35.48 ], [ 136.815938, 35.479792 ], [ 136.815625, 35.479792 ], [ 136.815625, 35.479583 ], [ 136.815625, 35.479375 ], [ 136.815625, 35.479167 ], [ 136.815313, 35.479167 ], [ 136.815, 35.479167 ], [ 136.815, 35.479375 ], [ 136.815, 35.479583 ], [ 136.815, 35.479792 ], [ 136.815, 35.48 ], [ 136.815, 35.480208 ], [ 136.815, 35.480417 ], [ 136.814688, 35.480417 ], [ 136.814375, 35.480417 ], [ 136.814375, 35.480208 ], [ 136.814375, 35.48 ], [ 136.814063, 35.48 ], [ 136.814063, 35.480208 ], [ 136.814063, 35.480417 ], [ 136.814063, 35.480625 ], [ 136.814063, 35.480833 ], [ 136.814063, 35.481042 ], [ 136.814375, 35.481042 ], [ 136.814375, 35.48125 ], [ 136.814375, 35.481458 ], [ 136.814375, 35.481667 ], [ 136.814063, 35.481667 ], [ 136.814063, 35.481875 ], [ 136.814375, 35.481875 ], [ 136.814375, 35.482083 ], [ 136.814375, 35.482292 ], [ 136.814688, 35.482292 ], [ 136.814688, 35.482083 ], [ 136.814688, 35.481875 ] ] ] } },
{ "type": "Feature", "properties": { "A31a_301": "8505090087", "A31a_302": "福富川", "A31a_303": "21", "A31a_304": "岐阜県", "A31a_305": 1 }, "geometry": { "type": "Polygon", "coordinates": [ [ [ 136.815938, 35.483125 ], [ 136.815625, 35.483125 ], [ 136.815625, 35.483333 ], [ 136.815938, 35.483333 ], [ 136.815938, 35.483125 ] ] ] } },
{ "type": "Feature", "properties": { "A31a_301": "8505090087", "A31a_302": "福富川", "A31a_303": "21", "A31a_304": "岐阜県", "A31a_305": 1 }, "geometry": { "type": "Polygon", "coordinates": [ [ [ 136.817813, 35.4825 ], [ 136.817813, 35.482292 ], [ 136.818125, 35.482292 ], [ 136.818438, 35.482292 ], [ 136.81875, 35.482292 ], [ 136.819063, 35.482292 ], [ 136.819063, 35.482083 ], [ 136.819063, 35.481875 ], [ 136.819375, 35.481875 ], [ 136.819688, 35.481875 ], [ 136.819688, 35.481667 ], [ 136.819688, 35.481458 ], [ 136.819688, 35.48125 ], [ 136.82, 35.48125 ], [ 136.820313, 35.48125 ], [ 136.820313, 35.481042 ], [ 136.820625, 35.481042 ], [ 136.820625, 35.480833 ], [ 136.820625, 35.480625 ], [ 136.820938, 35.480625 ], [ 136.820938, 35.480833 ], [ 136.82125, 35.480833 ], [ 136.82125, 35.480625 ], [ 136.821563, 35.480625 ], [ 136.821563, 35.480417 ], [ 136.82125, 35.480417 ], [ 136.820938, 35.480417 ], [ 136.820938, 35.480208 ], [ 136.820625, 35.480208 ], [ 136.820625, 35.48 ], [ 136.820313, 35.48 ], [ 136.820313, 35.479792 ], [ 136.82, 35.479792 ], [ 136.82, 35.479583 ], [ 136.820313, 35.479583 ], [ 136.820313, 35.479375 ], [ 136.82, 35.479375 ], [ 136.82, 35.479167 ], [ 136.820313, 35.479167 ], [ 136.820313, 35.478958 ], [ 136.820313, 35.47875 ], [ 136.820625, 35.47875 ], [ 136.820625, 35.478542 ], [ 136.820625, 35.478333 ], [ 136.820625, 35.478125 ], [ 136.820625, 35.477917 ], [ 136.820625, 35.477708 ], [ 136.820313, 35.477708 ], [ 136.82, 35.477708 ], [ 136.819688, 35.477708 ], [ 136.819375, 35.477708 ], [ 136.819063, 35.477708 ], [ 136.81875, 35.477708 ], [ 136.818438, 35.477708 ], [ 136.818438, 35.477917 ], [ 136.818125, 35.477917 ], [ 136.817813, 35.477917 ], [ 136.817813, 35.478125 ], [ 136.8175, 35.478125 ], [ 136.8175, 35.478333 ], [ 136.8175, 35.478542 ], [ 136.817188, 35.478542 ], [ 136.817188, 35.47875 ], [ 136.816875, 35.47875 ], [ 136.816875, 35.478958 ], [ 136.816875, 35.479167 ], [ 136.817188, 35.479167 ], [ 136.817188, 35.479375 ], [ 136.817188, 35.479583 ], [ 136.817188, 35.479792 ], [ 136.816875, 35.479792 ], [ 136.816875, 35.48 ], [ 136.816563, 35.48 ], [ 136.816563, 35.479792 ], [ 136.81625, 35.479792 ], [ 136.81625, 35.48 ], [ 136.81625, 35.480208 ], [ 136.81625, 35.480417 ], [ 136.81625, 35.480625 ], [ 136.81625, 35.480833 ], [ 136.81625, 35.481042 ], [ 136.81625, 35.48125 ], [ 136.81625, 35.481458 ], [ 136.81625, 35.481667 ], [ 136.81625, 35.481875 ], [ 136.81625, 35.482083 ], [ 136.81625, 35.482292 ], [ 136.81625, 35.4825 ], [ 136.81625, 35.482708 ], [ 136.81625, 35.482917 ], [ 136.81625, 35.483125 ], [ 136.81625, 35.483333 ], [ 136.81625, 35.483542 ], [ 136.81625, 35.48375 ], [ 136.81625, 35.483958 ], [ 136.81625, 35.484167 ], [ 136.81625, 35.484375 ], [ 136.816563, 35.484375 ], [ 136.816875, 35.484375 ], [ 136.817188, 35.484375 ], [ 136.8175, 35.484375 ], [ 136.817813, 35.484375 ], [ 136.818125, 35.484375 ], [ 136.818438, 35.484375 ], [ 136.818438, 35.484167 ], [ 136.818438, 35.483958 ], [ 136.818125, 35.483958 ], [ 136.818125, 35.48375 ], [ 136.818125, 35.483542 ], [ 136.818125, 35.483333 ], [ 136.818125, 35.483125 ], [ 136.818125, 35.482917 ], [ 136.818125, 35.482708 ], [ 136.818125, 35.4825 ], [ 136.817813, 35.4825 ] ], [ [ 136.819063, 35.480833 ], [ 136.819063, 35.480625 ], [ 136.819375, 35.480625 ], [ 136.819375, 35.480833 ], [ 136.819375, 35.481042 ], [ 136.819375, 35.48125 ], [ 136.819063, 35.48125 ], [ 136.819063, 35.481042 ], [ 136.819063, 35.480833 ] ], [ [ 136.818438, 35.480208 ], [ 136.818438, 35.48 ], [ 136.81875, 35.48 ], [ 136.81875, 35.480208 ], [ 136.81875, 35.480417 ], [ 136.818438, 35.480417 ], [ 136.818438, 35.480208 ] ], [ [ 136.819375, 35.48 ], [ 136.819375, 35.479792 ], [ 136.819375, 35.479583 ], [ 136.819688, 35.479583 ], [ 136.819688, 35.479792 ], [ 136.819688, 35.48 ], [ 136.819375, 35.48 ] ], [ [ 136.817813, 35.479583 ], [ 136.817813, 35.479792 ], [ 136.8175, 35.479792 ], [ 136.8175, 35.479583 ], [ 136.8175, 35.479375 ], [ 136.817813, 35.479375 ], [ 136.817813, 35.479583 ] ] ] } }
]
}
