{
"type": "FeatureCollection",
"name": "概略調査_土石流",
"crs": { "type": "name", "properties": { "name": "urn:ogc:def:crs:OGC:1.3:CRS84" } },
"features": [
{ "type": "Feature", "properties": { "名称": "15-D1", "name": "E160015", "面積": "追加図化面積：0.150km2", "layer": "E260036、E160015を含む" }, "geometry": { "type": "MultiPolygon", "coordinates": [ [ [ [ 137.415086905470872, 35.532062233388018, 0.0 ], [ 137.415274573115028, 35.532131387637676, 0.0 ], [ 137.415696237014998, 35.531601316128523, 0.0 ], [ 137.41591075354242, 35.531187010308031, 0.0 ], [ 137.416076290284877, 35.531037405944097, 0.0 ], [ 137.416067172241981, 35.530772824781735, 0.0 ], [ 137.416016637729911, 35.530535466715698, 0.0 ], [ 137.416115501414197, 35.530297799724877, 0.0 ], [ 137.416306100766576, 35.530202420349312, 0.0 ], [ 137.416588357021681, 35.530222190294054, 0.0 ], [ 137.416811883059864, 35.530038541503984, 0.0 ], [ 137.416994331402492, 35.529990670458858, 0.0 ], [ 137.417210145323025, 35.529997007542335, 0.0 ], [ 137.417592125817379, 35.530057274712043, 0.0 ], [ 137.417932395066231, 35.530049781126543, 0.0 ], [ 137.418130149686135, 35.529588014785872, 0.0 ], [ 137.418444818267744, 35.529356679836795, 0.0 ], [ 137.419075276132673, 35.529253593531713, 0.0 ], [ 137.419373746863471, 35.529151198315745, 0.0 ], [ 137.419689113031325, 35.529143752505412, 0.0 ], [ 137.419946765112314, 35.529258551246237, 0.0 ], [ 137.42014593586876, 35.529251348188843, 0.0 ], [ 137.42052731458881, 35.529121637822577, 0.0 ], [ 137.421563701543391, 35.528780219763696, 0.0 ], [ 137.422525360950345, 35.528432167795643, 0.0 ], [ 137.422981450559689, 35.528309075805801, 0.0 ], [ 137.423777885368963, 35.528205611001162, 0.0 ], [ 137.424267256117332, 35.528109581784904, 0.0 ], [ 137.423955380454373, 35.527764231069277, 0.0 ], [ 137.423617751142473, 35.527439288328523, 0.0 ], [ 137.423096003792864, 35.527793199216759, 0.0 ], [ 137.422838740107863, 35.527800531086477, 0.0 ], [ 137.422465476490601, 35.527869169742431, 0.0 ], [ 137.422075440441716, 35.527883565590521, 0.0 ], [ 137.421768743394097, 35.528006338285117, 0.0 ], [ 137.421503587562256, 35.528142591179389, 0.0 ], [ 137.421246408312783, 35.528177057511243, 0.0 ], [ 137.421080330918556, 35.52815026935037, 0.0 ], [ 137.420873206434806, 35.528266045049897, 0.0 ], [ 137.420674550669844, 35.528436079726767, 0.0 ], [ 137.420500491799999, 35.528511076718083, 0.0 ], [ 137.420168723020424, 35.528579620384889, 0.0 ], [ 137.419886663534413, 35.528620920754825, 0.0 ], [ 137.419446909969707, 35.528662551611788, 0.0 ], [ 137.419148507587749, 35.528785299707579, 0.0 ], [ 137.418551397858806, 35.528935810378655, 0.0 ], [ 137.418102858741804, 35.528821407277974, 0.0 ], [ 137.417670979524701, 35.528727321774021, 0.0 ], [ 137.417098094508191, 35.528660666160114, 0.0 ], [ 137.416384474021555, 35.528709638273263, 0.0 ], [ 137.415778497127093, 35.528676968130668, 0.0 ], [ 137.415230848336108, 35.528718806415803, 0.0 ], [ 137.415169114039003, 35.530231906886456, 0.0 ], [ 137.415119796283392, 35.530388055320543, 0.0 ], [ 137.415278791101798, 35.530808375654132, 0.0 ], [ 137.415304883782625, 35.531195045478015, 0.0 ], [ 137.41513961788516, 35.531432848042087, 0.0 ], [ 137.414999292680648, 35.531684168859222, 0.0 ], [ 137.41489237548825, 35.53200326608188, 0.0 ], [ 137.415086905470872, 35.532062233388018, 0.0 ] ] ] ] } },
{ "type": "Feature", "properties": { "名称": "19-D1", "name": "E160016", "面積": "追加図化面積：0.149km2", "layer": "E260050、E260051、E160016を含む" }, "geometry": { "type": "MultiPolygon", "coordinates": [ [ [ [ 137.414980205781205, 35.522854940715668, 0.0 ], [ 137.415150155180299, 35.522786925758332, 0.0 ], [ 137.414872352010178, 35.52240755711707, 0.0 ], [ 137.414805041865975, 35.522109171377799, 0.0 ], [ 137.414815356246152, 35.521864903155176, 0.0 ], [ 137.414781462449298, 35.521638818092384, 0.0 ], [ 137.414968262886589, 35.521213262738861, 0.0 ], [ 137.415099175188658, 35.520606898218837, 0.0 ], [ 137.415219413447289, 35.520127201679834, 0.0 ], [ 137.415439374401501, 35.519692531327102, 0.0 ], [ 137.415638040777708, 35.519529289132088, 0.0 ], [ 137.415825780322962, 35.519411301691342, 0.0 ], [ 137.415935533404109, 35.519121595870338, 0.0 ], [ 137.415890714430191, 35.518940765563343, 0.0 ], [ 137.41593416301987, 35.51867833532463, 0.0 ], [ 137.416076971841107, 35.518343331260695, 0.0 ], [ 137.415789119668545, 35.518289648812285, 0.0 ], [ 137.41552348294195, 35.518263058480734, 0.0 ], [ 137.415435690088515, 35.5184984403176, 0.0 ], [ 137.415347673522206, 35.518661454143128, 0.0 ], [ 137.415259796726957, 35.51886969738058, 0.0 ], [ 137.415171809301114, 35.519041756302322, 0.0 ], [ 137.415051266456175, 35.519421944834185, 0.0 ], [ 137.414797969996613, 35.5198114522167, 0.0 ], [ 137.414654736594429, 35.520010763544754, 0.0 ], [ 137.414522653186594, 35.520237190412871, 0.0 ], [ 137.414390483631394, 35.520436477581576, 0.0 ], [ 137.414468495349269, 35.520617241322803, 0.0 ], [ 137.414491127160403, 35.520780026016574, 0.0 ], [ 137.414403272999749, 35.520997315460257, 0.0 ], [ 137.414270851872828, 35.521115188229125, 0.0 ], [ 137.414183274485765, 35.521422938085003, 0.0 ], [ 137.414018156966506, 35.521703708823509, 0.0 ], [ 137.413919403531935, 35.521975296921383, 0.0 ], [ 137.414330097100049, 35.52239057947218, 0.0 ], [ 137.414385616740958, 35.522453788535252, 0.0 ], [ 137.414419117881607, 35.522553227802156, 0.0 ], [ 137.414641038150137, 35.522751788472455, 0.0 ], [ 137.414873856006267, 35.522896048525986, 0.0 ], [ 137.414980205781205, 35.522854940715668, 0.0 ] ] ] ] } },
{ "type": "Feature", "properties": { "名称": "ks-2", "name": "E157002", "面積": "追加図化面積：0.439km2", "layer": "E257001、E157002を含む" }, "geometry": { "type": "MultiPolygon", "coordinates": [ [ [ [ 137.362127567451012, 35.77634175584037, 0.0 ], [ 137.361977531206207, 35.77622371688976, 0.0 ], [ 137.36169243891689, 35.776421989696004, 0.0 ], [ 137.361197134692191, 35.776828583076835, 0.0 ], [ 137.360894845985456, 35.776807654842827, 0.0 ], [ 137.360486989904615, 35.776604853104558, 0.0 ], [ 137.359974269857418, 35.776509302650844, 0.0 ], [ 137.359698212236538, 35.776466912424347, 0.0 ], [ 137.359526659545878, 35.776167352223439, 0.0 ], [ 137.359539050206251, 35.775856788498643, 0.0 ], [ 137.359525495907405, 35.775685475688036, 0.0 ], [ 137.359433124468808, 35.775524997637255, 0.0 ], [ 137.359340805069138, 35.775385936247176, 0.0 ], [ 137.358801555651411, 35.775183339156513, 0.0 ], [ 137.358446274849427, 35.774980446417885, 0.0 ], [ 137.3583274200343, 35.774734342432808, 0.0 ], [ 137.358287407992748, 35.774488112725621, 0.0 ], [ 137.358076238697009, 35.774102946157683, 0.0 ], [ 137.358246240363172, 35.773760006268027, 0.0 ], [ 137.358193319993603, 35.773610172770447, 0.0 ], [ 137.35778494901831, 35.773182485852892, 0.0 ], [ 137.357666201364822, 35.772979214621721, 0.0 ], [ 137.357481907514341, 35.77284029776569, 0.0 ], [ 137.357310601000023, 35.772637109546089, 0.0 ], [ 137.356929004300952, 35.772412837096724, 0.0 ], [ 137.35602155737169, 35.772082308313088, 0.0 ], [ 137.355494997587783, 35.771676216335251, 0.0 ], [ 137.355336256739832, 35.771226711912057, 0.0 ], [ 137.354862189356311, 35.770788409480083, 0.0 ], [ 137.354585171722647, 35.770328380584999, 0.0 ], [ 137.354335090539053, 35.770146727917933, 0.0 ], [ 137.354032627913256, 35.770040115280445, 0.0 ], [ 137.353151948953382, 35.769902274534772, 0.0 ], [ 137.352914612450519, 35.769549264390186, 0.0 ], [ 137.352650849519648, 35.769132044086255, 0.0 ], [ 137.352137863499905, 35.768897250936661, 0.0 ], [ 137.351966703238162, 35.7687475968307, 0.0 ], [ 137.351913897323413, 35.768640593940411, 0.0 ], [ 137.351834862461942, 35.768555048255195, 0.0 ], [ 137.351663827490086, 35.768458935634037, 0.0 ], [ 137.351519368942519, 35.768491283011478, 0.0 ], [ 137.351283256438535, 35.768662980440922, 0.0 ], [ 137.350981174072245, 35.768716985859541, 0.0 ], [ 137.350718090100031, 35.76858888764793, 0.0 ], [ 137.350625251429221, 35.768214234835376, 0.0 ], [ 137.350624536346174, 35.767903691613029, 0.0 ], [ 137.350519052592261, 35.767743226522647, 0.0 ], [ 137.350361184780127, 35.767657800329161, 0.0 ], [ 137.350177235669719, 35.767658081127166, 0.0 ], [ 137.349559030311582, 35.76736989525677, 0.0 ], [ 137.349243592211138, 35.767327540789843, 0.0 ], [ 137.349033072184454, 35.767199359050771, 0.0 ], [ 137.349137989701859, 35.76711353251509, 0.0 ], [ 137.349308382264553, 35.766931230639202, 0.0 ], [ 137.349439283336807, 35.76671686325269, 0.0 ], [ 137.349452103910238, 35.766577634213462, 0.0 ], [ 137.349254626664532, 35.766406599310834, 0.0 ], [ 137.348321001639476, 35.766076051688884, 0.0 ], [ 137.347900384765353, 35.766001727198081, 0.0 ], [ 137.347492471355594, 35.765734630410172, 0.0 ], [ 137.347031956865607, 35.765446194252334, 0.0 ], [ 137.346873541798772, 35.76511447035751, 0.0 ], [ 137.346596927515094, 35.764804339970659, 0.0 ], [ 137.346214628215108, 35.764237364364007, 0.0 ], [ 137.346160918869344, 35.763723439750805, 0.0 ], [ 137.346094672899852, 35.763477244619224, 0.0 ], [ 137.345949932738478, 35.763381084539247, 0.0 ], [ 137.345673472000414, 35.763135202303737, 0.0 ], [ 137.34539732435104, 35.763028528607137, 0.0 ], [ 137.345292096941336, 35.762975142746342, 0.0 ], [ 137.345121153521035, 35.762911145873112, 0.0 ], [ 137.345068408470127, 35.762825556634951, 0.0 ], [ 137.345187476677324, 35.762338554911764, 0.0 ], [ 137.345181461512738, 35.762264706543142, 0.0 ], [ 137.345014506941055, 35.762121989768623, 0.0 ], [ 137.344915057020245, 35.762093546098278, 0.0 ], [ 137.344602490196877, 35.762198845864177, 0.0 ], [ 137.344563952973886, 35.762155547532068, 0.0 ], [ 137.344553222243263, 35.761925428598225, 0.0 ], [ 137.344605973124231, 35.761756571225504, 0.0 ], [ 137.34458790690843, 35.761604385562848, 0.0 ], [ 137.344371164215943, 35.761400313935155, 0.0 ], [ 137.344229961216314, 35.761189469383325, 0.0 ], [ 137.344196466163055, 35.760663742412149, 0.0 ], [ 137.344209104617448, 35.76043884653361, 0.0 ], [ 137.344142463126332, 35.760010607282311, 0.0 ], [ 137.34424720993772, 35.759849826084476, 0.0 ], [ 137.34433068535165, 35.759593113791937, 0.0 ], [ 137.344310147148491, 35.759562164426882, 0.0 ], [ 137.344318826489683, 35.759521635535727, 0.0 ], [ 137.344423109528321, 35.759407675926937, 0.0 ], [ 137.344028415440221, 35.759430900670175, 0.0 ], [ 137.343632277721781, 35.759456505829348, 0.0 ], [ 137.343638145658247, 35.759469611965677, 0.0 ], [ 137.34368645728037, 35.759498131976805, 0.0 ], [ 137.343733303959766, 35.759524283551443, 0.0 ], [ 137.343778693090769, 35.759556395234675, 0.0 ], [ 137.343787544369064, 35.759593319880963, 0.0 ], [ 137.343778901727575, 35.759650532828893, 0.0 ], [ 137.343772892042892, 35.759718188646026, 0.0 ], [ 137.343769145045457, 35.759763938115228, 0.0 ], [ 137.343723767517019, 35.759961717936825, 0.0 ], [ 137.343718293628541, 35.760011688302946, 0.0 ], [ 137.343717410365969, 35.760142107181458, 0.0 ], [ 137.343717192957513, 35.760173754202107, 0.0 ], [ 137.343712871839898, 35.760199981083979, 0.0 ], [ 137.343654584845865, 35.760316242969118, 0.0 ], [ 137.343640146009704, 35.760372878545574, 0.0 ], [ 137.343653603679854, 35.760512352996464, 0.0 ], [ 137.34372616592546, 35.760594990922996, 0.0 ], [ 137.343725595805068, 35.760667091431408, 0.0 ], [ 137.34371480430579, 35.760742776363799, 0.0 ], [ 137.343682391714879, 35.760822891743722, 0.0 ], [ 137.343607092101934, 35.760957431138813, 0.0 ], [ 137.343581580054177, 35.760992621645123, 0.0 ], [ 137.343563380437104, 35.761028991185327, 0.0 ], [ 137.343581168089173, 35.761136217669211, 0.0 ], [ 137.343613485230293, 35.761207665886083, 0.0 ], [ 137.343689852052989, 35.761360081397036, 0.0 ], [ 137.343760363791773, 35.761510125889544, 0.0 ], [ 137.343807322634149, 35.761586329691347, 0.0 ], [ 137.343848404524977, 35.761655385345193, 0.0 ], [ 137.343962760286104, 35.76179820833466, 0.0 ], [ 137.344147029518609, 35.762066620722393, 0.0 ], [ 137.34412103827691, 35.762195160307471, 0.0 ], [ 137.343989940156376, 35.762323854878858, 0.0 ], [ 137.344056083583297, 35.762527217635423, 0.0 ], [ 137.344280554829794, 35.763030182845206, 0.0 ], [ 137.344530853104033, 35.763329649154251, 0.0 ], [ 137.344754494254232, 35.763457819454288, 0.0 ], [ 137.344991155182669, 35.763532427864185, 0.0 ], [ 137.345530386960974, 35.763777921190751, 0.0 ], [ 137.345596415622509, 35.763927741049869, 0.0 ], [ 137.345531321854821, 35.764195548684128, 0.0 ], [ 137.345492720757846, 35.764559692775194, 0.0 ], [ 137.345703540098413, 35.764827089948994, 0.0 ], [ 137.346019711663729, 35.765201413999989, 0.0 ], [ 137.346322578759128, 35.765500798055363, 0.0 ], [ 137.346611947435264, 35.765639575080854, 0.0 ], [ 137.346730583613976, 35.765810732409406, 0.0 ], [ 137.347190905560183, 35.766013502559858, 0.0 ], [ 137.347624927609218, 35.76620560208071, 0.0 ], [ 137.34783561274034, 35.766408745061476, 0.0 ], [ 137.348479668322312, 35.766514857512192, 0.0 ], [ 137.348755807720124, 35.766610815632411, 0.0 ], [ 137.348848025263266, 35.766717760264356, 0.0 ], [ 137.348703812699767, 35.766857188166952, 0.0 ], [ 137.34844117705029, 35.766921835934362, 0.0 ], [ 137.348191874734539, 35.767072130421951, 0.0 ], [ 137.348363462721125, 35.767414540986508, 0.0 ], [ 137.348560818661809, 35.767532035376377, 0.0 ], [ 137.349021179602317, 35.767745506810009, 0.0 ], [ 137.34994129468754, 35.767904734661109, 0.0 ], [ 137.350099162542278, 35.767990161402132, 0.0 ], [ 137.350204547375682, 35.768107793307237, 0.0 ], [ 137.350165449241985, 35.768247062482786, 0.0 ], [ 137.350126350972971, 35.768386331642802, 0.0 ], [ 137.350034990061602, 35.768654181562567, 0.0 ], [ 137.350074801578359, 35.768825455637931, 0.0 ], [ 137.350140719994641, 35.768921730910698, 0.0 ], [ 137.350430033781493, 35.769028373459321, 0.0 ], [ 137.351297608521975, 35.769187671138233, 0.0 ], [ 137.351994298685128, 35.769315100715922, 0.0 ], [ 137.352257486600706, 35.7694860296412, 0.0 ], [ 137.352363075726629, 35.769689326675291, 0.0 ], [ 137.352429595250868, 35.770042601851586, 0.0 ], [ 137.352601407212603, 35.770470673180533, 0.0 ], [ 137.352811941581422, 35.770598848561271, 0.0 ], [ 137.353048431266075, 35.77058777389594, 0.0 ], [ 137.353771716830153, 35.770843652940378, 0.0 ], [ 137.354523804961104, 35.772170324389407, 0.0 ], [ 137.35507628952692, 35.772426462155892, 0.0 ], [ 137.35562829630237, 35.772479138221442, 0.0 ], [ 137.356048548151335, 35.772382101469155, 0.0 ], [ 137.356298513123335, 35.772510208595051, 0.0 ], [ 137.356851031195646, 35.772777046544775, 0.0 ], [ 137.357377809673523, 35.773268799456929, 0.0 ], [ 137.357615151387705, 35.773611092108681, 0.0 ], [ 137.357603060740701, 35.774050156238872, 0.0 ], [ 137.35751240939004, 35.774607137554781, 0.0 ], [ 137.35763144073178, 35.774928200952282, 0.0 ], [ 137.358302809365057, 35.775430428344016, 0.0 ], [ 137.358816370699373, 35.775879362122268, 0.0 ], [ 137.358961690438633, 35.776200382120201, 0.0 ], [ 137.359133757218217, 35.776714110461448, 0.0 ], [ 137.359712310617596, 35.776863100874813, 0.0 ], [ 137.360133384651277, 35.777098009189956, 0.0 ], [ 137.360673196660798, 35.777525475839084, 0.0 ], [ 137.361408763887852, 35.77720205404087, 0.0 ], [ 137.361907701894552, 35.77686380427091, 0.0 ], [ 137.362211508922769, 35.776456192776898, 0.0 ], [ 137.362127567451012, 35.77634175584037, 0.0 ] ] ] ] } },
{ "type": "Feature", "properties": { "名称": "ks-6", "name": "E157006", "面積": "追加図化面積：0.099km2", "layer": null }, "geometry": { "type": "MultiPolygon", "coordinates": [ [ [ [ 137.343618150052464, 35.750837071125666, 0.0 ], [ 137.343753563153797, 35.750743156520045, 0.0 ], [ 137.343655060503863, 35.75034540925791, 0.0 ], [ 137.343621698054392, 35.749974092239199, 0.0 ], [ 137.343523255707225, 35.749602870879741, 0.0 ], [ 137.343311041656591, 35.749284868832, 0.0 ], [ 137.342998138156275, 35.747574390698546, 0.0 ], [ 137.342770859823332, 35.747800195976282, 0.0 ], [ 137.342576382320289, 35.748145320578338, 0.0 ], [ 137.342251453222161, 35.748358004524519, 0.0 ], [ 137.341894244335862, 35.74869010231744, 0.0 ], [ 137.341716814951297, 35.749393303744675, 0.0 ], [ 137.343084344742749, 35.749775935312833, 0.0 ], [ 137.343149717898399, 35.749908470185161, 0.0 ], [ 137.343199436185046, 35.750319552566076, 0.0 ], [ 137.343232562468927, 35.75058476543817, 0.0 ], [ 137.34339591008191, 35.750876313202546, 0.0 ], [ 137.343618150052464, 35.750837071125666, 0.0 ] ] ] ] } },
{ "type": "Feature", "properties": { "名称": "ks-10", "name": "E157012", "面積": "E257013で計上", "layer": "E257013、E257014、E257015、E257019、E157012を含む" }, "geometry": { "type": "MultiPolygon", "coordinates": [ [ [ [ 137.344964504596788, 35.742777313391208, 0.0 ], [ 137.344969495713144, 35.742636202494232, 0.0 ], [ 137.344706409476203, 35.742581622185334, 0.0 ], [ 137.342937142899586, 35.741363895050995, 0.0 ], [ 137.342957685643796, 35.74150678676817, 0.0 ], [ 137.342937651810985, 35.741594768006458, 0.0 ], [ 137.342904629475612, 35.741908144963247, 0.0 ], [ 137.342857709829758, 35.742034644509587, 0.0 ], [ 137.342824699116306, 35.742353518397294, 0.0 ], [ 137.342778202811928, 35.742672412000232, 0.0 ], [ 137.342826527700339, 35.743183561468669, 0.0 ], [ 137.342779704046393, 35.743354036748016, 0.0 ], [ 137.342712700388688, 35.743546529499028, 0.0 ], [ 137.342591826923268, 35.743772082935855, 0.0 ], [ 137.344964995038481, 35.742997266026769, 0.0 ], [ 137.344964504596788, 35.742777313391208, 0.0 ] ] ] ] } },
{ "type": "Feature", "properties": { "名称": "ks-12", "name": "E157015", "面積": "追加図化不要", "layer": null }, "geometry": { "type": "MultiPolygon", "coordinates": [ [ [ [ 137.339641237693627, 35.720169957651933, 0.0 ], [ 137.339578580672992, 35.72028039634251, 0.0 ], [ 137.339874788885112, 35.720549410622453, 0.0 ], [ 137.34015357852121, 35.720804268206216, 0.0 ], [ 137.34052786022076, 35.720988081889381, 0.0 ], [ 137.340815163265376, 35.721157839236653, 0.0 ], [ 137.341224212544432, 35.721334509889537, 0.0 ], [ 137.341372708102227, 35.721646277779222, 0.0 ], [ 137.34146908106834, 35.721979392782728, 0.0 ], [ 137.341660868083864, 35.722206011024468, 0.0 ], [ 137.341991497964159, 35.722304797205382, 0.0 ], [ 137.342435024586621, 35.722339602860252, 0.0 ], [ 137.342626456604449, 35.722403137873869, 0.0 ], [ 137.342835903492613, 35.722750267402489, 0.0 ], [ 137.342992775027454, 35.722913119829286, 0.0 ], [ 137.343236598770773, 35.723075844495277, 0.0 ], [ 137.34351517286251, 35.723224336539836, 0.0 ], [ 137.34366333583543, 35.72338011034536, 0.0 ], [ 137.343759359529884, 35.723550141761393, 0.0 ], [ 137.343777597407296, 35.723933003451251, 0.0 ], [ 137.343969285673921, 35.724109984375225, 0.0 ], [ 137.344100563731331, 35.724492679374279, 0.0 ], [ 137.344353389034069, 35.724790108467154, 0.0 ], [ 137.344545017581879, 35.724938726425023, 0.0 ], [ 137.344866761642095, 35.724945340927619, 0.0 ], [ 137.345240788679803, 35.725001510682439, 0.0 ], [ 137.34536263463707, 35.725050963492862, 0.0 ], [ 137.346024070846653, 35.725312328936589, 0.0 ], [ 137.346137445008395, 35.72546106095038, 0.0 ], [ 137.346381505864201, 35.725723046162265, 0.0 ], [ 137.346712523033972, 35.725984900792341, 0.0 ], [ 137.347226179864094, 35.726260661639003, 0.0 ], [ 137.347670292022798, 35.726543615427389, 0.0 ], [ 137.348192233037793, 35.726635006022718, 0.0 ], [ 137.348384468964184, 35.727045966277252, 0.0 ], [ 137.349135264743467, 35.7283494863781, 0.0 ], [ 137.349395067741966, 35.727881117653553, 0.0 ], [ 137.349507933288123, 35.727802950460031, 0.0 ], [ 137.349716742866804, 35.727852266658857, 0.0 ], [ 137.350202074004955, 35.72714247508145, 0.0 ], [ 137.350618076929038, 35.726539145338791, 0.0 ], [ 137.350857663178289, 35.72630740715239, 0.0 ], [ 137.351217855881629, 35.726024376947478, 0.0 ], [ 137.351077086188099, 35.725886161331545, 0.0 ], [ 137.350968421598083, 35.725788133253388, 0.0 ], [ 137.350912544562988, 35.725740293314651, 0.0 ], [ 137.350830314669821, 35.725673033241897, 0.0 ], [ 137.350752590707202, 35.725863402993141, 0.0 ], [ 137.350305590331118, 35.726266770168777, 0.0 ], [ 137.34982264949889, 35.726617298360118, 0.0 ], [ 137.348704979589513, 35.726506602006083, 0.0 ], [ 137.348443920466707, 35.726421910351341, 0.0 ], [ 137.348173716011274, 35.726138697227178, 0.0 ], [ 137.347886299206948, 35.725933505180741, 0.0 ], [ 137.347642585615318, 35.725827514076528, 0.0 ], [ 137.347338164675051, 35.725792518892497, 0.0 ], [ 137.346955405096168, 35.725722187703816, 0.0 ], [ 137.346624515801352, 35.725517057746181, 0.0 ], [ 137.346415268208972, 35.725269202074571, 0.0 ], [ 137.34631906168417, 35.725021177319, 0.0 ], [ 137.346188344835014, 35.724893742918674, 0.0 ], [ 137.345909902933869, 35.724809071663486, 0.0 ], [ 137.345544698481234, 35.72480961508694, 0.0 ], [ 137.344935850604799, 35.724732522790291, 0.0 ], [ 137.344561336360357, 35.724456546457887, 0.0 ], [ 137.344490954529221, 35.72408794304625, 0.0 ], [ 137.344281780239925, 35.723868445595649, 0.0 ], [ 137.344246684562222, 35.723726686826289, 0.0 ], [ 137.34418533034696, 35.723506970967939, 0.0 ], [ 137.344011001994204, 35.723315783729205, 0.0 ], [ 137.343714769641736, 35.723046779822646, 0.0 ], [ 137.343436101823073, 35.722855745196668, 0.0 ], [ 137.343148552573211, 35.722579636585799, 0.0 ], [ 137.343069843365782, 35.722374126621808, 0.0 ], [ 137.342747532511595, 35.722105158507759, 0.0 ], [ 137.342373365053902, 35.72197807585475, 0.0 ], [ 137.342147200773383, 35.721935862675906, 0.0 ], [ 137.341868835508023, 35.721879544019821, 0.0 ], [ 137.341720725340679, 35.721745039473426, 0.0 ], [ 137.341659271064373, 35.721475688669891, 0.0 ], [ 137.341562665482769, 35.721036216152967, 0.0 ], [ 137.341214481408315, 35.720859458375394, 0.0 ], [ 137.340927055079135, 35.720632977892635, 0.0 ], [ 137.340344004858281, 35.720406923716752, 0.0 ], [ 137.340030605601214, 35.720230112282032, 0.0 ], [ 137.33974728653655, 35.720052075583972, 0.0 ], [ 137.339641237693627, 35.720169957651933, 0.0 ] ] ] ] } },
{ "type": "Feature", "properties": { "名称": "ks-18", "name": "E157025", "面積": "追加図化面積：0.296km2", "layer": "E257059、E257060、E257062、E157025を含む" }, "geometry": { "type": "MultiPolygon", "coordinates": [ [ [ [ 137.39877130671303, 35.682064439814681, 0.0 ], [ 137.398585371624876, 35.682114378223481, 0.0 ], [ 137.39873774641768, 35.682429538895732, 0.0 ], [ 137.398625909217685, 35.682774982531811, 0.0 ], [ 137.398391586542033, 35.68303627276898, 0.0 ], [ 137.398223128632935, 35.683312779350928, 0.0 ], [ 137.398054935377985, 35.683681345993762, 0.0 ], [ 137.397521340812858, 35.684510917629467, 0.0 ], [ 137.396920919621749, 35.684995386653121, 0.0 ], [ 137.396310164387529, 35.685157659590942, 0.0 ], [ 137.396159996305158, 35.685257678466577, 0.0 ], [ 137.395897250636494, 35.685449972352238, 0.0 ], [ 137.395634131050969, 35.685511846917549, 0.0 ], [ 137.395164136124436, 35.685574113726155, 0.0 ], [ 137.394741419551849, 35.685728349934919, 0.0 ], [ 137.393990756092165, 35.68629747787994, 0.0 ], [ 137.393790870123695, 35.686904990992161, 0.0 ], [ 137.393283413805591, 35.687633383240694, 0.0 ], [ 137.393066160419409, 35.688027201207817, 0.0 ], [ 137.392704248201028, 35.688747894291112, 0.0 ], [ 137.392193715046034, 35.68906184259577, 0.0 ], [ 137.392093963146351, 35.689119599825467, 0.0 ], [ 137.39191897633404, 35.689132952140149, 0.0 ], [ 137.391703911531323, 35.689101662238137, 0.0 ], [ 137.391452167682331, 35.689024128134662, 0.0 ], [ 137.391405527298986, 35.689015048295651, 0.0 ], [ 137.391379221269176, 35.689011527982167, 0.0 ], [ 137.391364057199809, 35.68902152542119, 0.0 ], [ 137.391179407611133, 35.689198267721189, 0.0 ], [ 137.390971795101905, 35.689291207233843, 0.0 ], [ 137.390728180179991, 35.689346887735795, 0.0 ], [ 137.390530561903176, 35.689331598610117, 0.0 ], [ 137.39043215848065, 35.689350530018672, 0.0 ], [ 137.390354852694458, 35.689391190194023, 0.0 ], [ 137.390274416441514, 35.689414739148546, 0.0 ], [ 137.389936369379456, 35.689380447558982, 0.0 ], [ 137.389847955785228, 35.68938021489766, 0.0 ], [ 137.389718904086635, 35.689363959033145, 0.0 ], [ 137.389500141534398, 35.68925443326696, 0.0 ], [ 137.389356709934987, 35.689220248370304, 0.0 ], [ 137.389195443341094, 35.689217058276867, 0.0 ], [ 137.388978505809604, 35.689275083565569, 0.0 ], [ 137.388773379378847, 35.689349122017354, 0.0 ], [ 137.388534027110893, 35.689424575253959, 0.0 ], [ 137.388221169403295, 35.68947320338475, 0.0 ], [ 137.388133896457617, 35.689461961657052, 0.0 ], [ 137.387929792913496, 35.689442750226057, 0.0 ], [ 137.387659326884176, 35.689586645727843, 0.0 ], [ 137.387441728500306, 35.689549962680786, 0.0 ], [ 137.387200985518263, 35.689514223008992, 0.0 ], [ 137.386974218365367, 35.689502154256438, 0.0 ], [ 137.386748563471258, 35.689536990257025, 0.0 ], [ 137.386535814504327, 35.689600384657602, 0.0 ], [ 137.386335547324904, 35.689614279793815, 0.0 ], [ 137.386154691379346, 35.689607425761061, 0.0 ], [ 137.385945999332961, 35.689562782714944, 0.0 ], [ 137.385750043240279, 35.689484486072132, 0.0 ], [ 137.385539407426648, 35.689375235763798, 0.0 ], [ 137.385317116802298, 35.689286647591288, 0.0 ], [ 137.385235734599604, 35.689271760546895, 0.0 ], [ 137.385157272968712, 35.689274417791779, 0.0 ], [ 137.385008236245199, 35.689303207488166, 0.0 ], [ 137.384749291253968, 35.689411255183529, 0.0 ], [ 137.384558958598518, 35.68950287239992, 0.0 ], [ 137.384327873027189, 35.689536010107531, 0.0 ], [ 137.384202780151327, 35.689577636068904, 0.0 ], [ 137.384167257004464, 35.689556923710128, 0.0 ], [ 137.38400227394709, 35.689475034891927, 0.0 ], [ 137.383829581034092, 35.689332704967072, 0.0 ], [ 137.383676481266008, 35.689228178924509, 0.0 ], [ 137.383353691630106, 35.689032865925988, 0.0 ], [ 137.38315770124521, 35.688899572613408, 0.0 ], [ 137.382885868822683, 35.688781206675806, 0.0 ], [ 137.38271314212048, 35.688682420307217, 0.0 ], [ 137.38267650646668, 35.68886349889695, 0.0 ], [ 137.38263718558926, 35.689081394180889, 0.0 ], [ 137.382602539573753, 35.689299812866672, 0.0 ], [ 137.382572568287799, 35.689518691862759, 0.0 ], [ 137.382547282648062, 35.689737968057067, 0.0 ], [ 137.382526693547277, 35.689957569323489, 0.0 ], [ 137.382510800853794, 35.690177432568753, 0.0 ], [ 137.382499615460915, 35.690397485665606, 0.0 ], [ 137.382495931041063, 35.690522737408187, 0.0 ], [ 137.382679454952296, 35.690452984848065, 0.0 ], [ 137.382850072874021, 35.690350310170111, 0.0 ], [ 137.383089564617592, 35.690278482468749, 0.0 ], [ 137.38318494211714, 35.690205886013899, 0.0 ], [ 137.383450184971394, 35.690202262893195, 0.0 ], [ 137.383826543615868, 35.690168747724776, 0.0 ], [ 137.384085859806106, 35.690090266235003, 0.0 ], [ 137.384309750854158, 35.689913535982477, 0.0 ], [ 137.38453884646168, 35.689838938963263, 0.0 ], [ 137.384731697790386, 35.689750904666525, 0.0 ], [ 137.384919501754496, 35.689655641222281, 0.0 ], [ 137.385086994346466, 35.689599777098657, 0.0 ], [ 137.385169390577943, 35.68958528680362, 0.0 ], [ 137.385257440364541, 35.689581683731603, 0.0 ], [ 137.385450465026508, 35.689658796696548, 0.0 ], [ 137.385611509760452, 35.689790770716883, 0.0 ], [ 137.385831140928389, 35.689888025327484, 0.0 ], [ 137.385893406777114, 35.689934323413759, 0.0 ], [ 137.386019517077017, 35.689981938329574, 0.0 ], [ 137.386368227749756, 35.690117138655111, 0.0 ], [ 137.386673132864843, 35.690052052858782, 0.0 ], [ 137.386845014062743, 35.689977024195294, 0.0 ], [ 137.386883892060411, 35.689971833310757, 0.0 ], [ 137.386990551052264, 35.689981174632543, 0.0 ], [ 137.387040251834236, 35.689994189558035, 0.0 ], [ 137.387111885541628, 35.690015510973154, 0.0 ], [ 137.387173243294654, 35.690016588407474, 0.0 ], [ 137.387236561783538, 35.6900074677419, 0.0 ], [ 137.387314994550309, 35.689978047567323, 0.0 ], [ 137.387555326367817, 35.689920234738139, 0.0 ], [ 137.387793252201362, 35.689883535895824, 0.0 ], [ 137.388016831727668, 35.689945157182457, 0.0 ], [ 137.38811678467917, 35.689982686610961, 0.0 ], [ 137.388183939992615, 35.689970646969563, 0.0 ], [ 137.38833059407699, 35.689943245839039, 0.0 ], [ 137.388789841930873, 35.689847205843954, 0.0 ], [ 137.388889529555229, 35.689840775386216, 0.0 ], [ 137.388979292695467, 35.68984139384677, 0.0 ], [ 137.389032753851211, 35.689867615065268, 0.0 ], [ 137.389393257627063, 35.689875385439457, 0.0 ], [ 137.390025315379177, 35.689857016293203, 0.0 ], [ 137.390057716619765, 35.689843246360418, 0.0 ], [ 137.390088258664179, 35.689796715130484, 0.0 ], [ 137.390143728243061, 35.689782316470684, 0.0 ], [ 137.390238644435613, 35.689772603758911, 0.0 ], [ 137.390322046418419, 35.689762452666422, 0.0 ], [ 137.390587685462719, 35.689751016250298, 0.0 ], [ 137.390848765308078, 35.689705497988015, 0.0 ], [ 137.391148784451957, 35.689680872383626, 0.0 ], [ 137.391393877828818, 35.689620248774027, 0.0 ], [ 137.39160925507278, 35.68955379425892, 0.0 ], [ 137.391687343441419, 35.689532303921901, 0.0 ], [ 137.391825840791682, 35.689485011567847, 0.0 ], [ 137.3921543534764, 35.689401371659514, 0.0 ], [ 137.392403094136455, 35.689310363049927, 0.0 ], [ 137.392612680743952, 35.689216705285951, 0.0 ], [ 137.392815993627266, 35.689112188439331, 0.0 ], [ 137.392965577099233, 35.688945595867033, 0.0 ], [ 137.393169498220885, 35.688802597859464, 0.0 ], [ 137.393273492328234, 35.688643499912764, 0.0 ], [ 137.393373400463275, 35.688485274880968, 0.0 ], [ 137.393472743985285, 35.68831898357854, 0.0 ], [ 137.393598719189896, 35.68817387823438, 0.0 ], [ 137.393707633270253, 35.688016537307007, 0.0 ], [ 137.393820132773186, 35.687861343783453, 0.0 ], [ 137.393925220392873, 35.687714709117408, 0.0 ], [ 137.394355898152213, 35.687229517893215, 0.0 ], [ 137.394351215696446, 35.687028079869222, 0.0 ], [ 137.394608870856729, 35.686714691181713, 0.0 ], [ 137.395156810879058, 35.686302942189428, 0.0 ], [ 137.395964545194261, 35.685963850270582, 0.0 ], [ 137.396649808126455, 35.685548269620611, 0.0 ], [ 137.397269836554699, 35.685339946808703, 0.0 ], [ 137.398002546941086, 35.685077702204396, 0.0 ], [ 137.39850948417444, 35.684785201194856, 0.0 ], [ 137.399007147881946, 35.684538746340358, 0.0 ], [ 137.398685059614536, 35.683718491964662, 0.0 ], [ 137.398693329981541, 35.683327217557235, 0.0 ], [ 137.398871300545835, 35.683089050650452, 0.0 ], [ 137.39896450887403, 35.682805016635392, 0.0 ], [ 137.399057316117478, 35.682382892062414, 0.0 ], [ 137.398915314691465, 35.682053281411946, 0.0 ], [ 137.39877130671303, 35.682064439814681, 0.0 ] ] ] ] } },
{ "type": "Feature", "properties": { "名称": "ks-20", "name": "E157027", "面積": "追加図化面積：0.034km2", "layer": null }, "geometry": { "type": "MultiPolygon", "coordinates": [ [ [ [ 137.3800789143624, 35.673833562409996, 0.0 ], [ 137.379899611797413, 35.673870765106187, 0.0 ], [ 137.379970053672395, 35.674602287646465, 0.0 ], [ 137.380007942344378, 35.674800374983604, 0.0 ], [ 137.379984427323876, 35.675323747634785, 0.0 ], [ 137.380072483737052, 35.675653848992795, 0.0 ], [ 137.379649643776418, 35.675878156534253, 0.0 ], [ 137.379307819896326, 35.676127723947758, 0.0 ], [ 137.378897321721041, 35.676311359980943, 0.0 ], [ 137.377269199320949, 35.676319407064881, 0.0 ], [ 137.377228254526415, 35.676498571997833, 0.0 ], [ 137.377004231630053, 35.676898865616494, 0.0 ], [ 137.376784860463545, 35.677008309973594, 0.0 ], [ 137.376702441923811, 35.677040691288042, 0.0 ], [ 137.376259055246067, 35.677231599023401, 0.0 ], [ 137.376115794575497, 35.677222843628847, 0.0 ], [ 137.376014833258751, 35.67724779789004, 0.0 ], [ 137.375794234664454, 35.677325041110009, 0.0 ], [ 137.375619629777304, 35.677378624263, 0.0 ], [ 137.375578758065018, 35.677388231686443, 0.0 ], [ 137.375522423645322, 35.677382182072947, 0.0 ], [ 137.375345168135397, 35.67737674768712, 0.0 ], [ 137.375312916567196, 35.677379156157144, 0.0 ], [ 137.375272062057377, 35.677391143064767, 0.0 ], [ 137.375192958895241, 35.677440116342247, 0.0 ], [ 137.375088348381951, 35.67751063140998, 0.0 ], [ 137.374997856642779, 35.677534620255663, 0.0 ], [ 137.374913276905971, 35.677584810661074, 0.0 ], [ 137.374764683090831, 35.677730458628204, 0.0 ], [ 137.374659187980455, 35.677783920921279, 0.0 ], [ 137.374638179392321, 35.677806482458415, 0.0 ], [ 137.37439635014988, 35.677872898271083, 0.0 ], [ 137.37406633798318, 35.677959457926271, 0.0 ], [ 137.373887402061683, 35.678001012731158, 0.0 ], [ 137.373760528814302, 35.67799435356622, 0.0 ], [ 137.373642872929935, 35.677912197663517, 0.0 ], [ 137.373474541932381, 35.677795191578056, 0.0 ], [ 137.373295189735472, 35.677670957150163, 0.0 ], [ 137.373111998822139, 35.67757017368011, 0.0 ], [ 137.372933516613557, 35.677474510660552, 0.0 ], [ 137.372747521836629, 35.677378499684636, 0.0 ], [ 137.372605516373568, 35.677535770414281, 0.0 ], [ 137.372458161261534, 35.67770508341291, 0.0 ], [ 137.372314445383921, 35.677876463163749, 0.0 ], [ 137.37217441282661, 35.678049864535808, 0.0 ], [ 137.372038118700743, 35.678225233365524, 0.0 ], [ 137.371905584977128, 35.678402515545763, 0.0 ], [ 137.37177745027094, 35.678580871726325, 0.0 ], [ 137.371877017236528, 35.678657372629317, 0.0 ], [ 137.372078024365891, 35.678821187432511, 0.0 ], [ 137.37231870590773, 35.678852414672463, 0.0 ], [ 137.372490182569095, 35.678821826601478, 0.0 ], [ 137.372742801065812, 35.678850932393956, 0.0 ], [ 137.373359852560867, 35.678927464631933, 0.0 ], [ 137.37408158707575, 35.679164834192719, 0.0 ], [ 137.374188512552024, 35.679172284549608, 0.0 ], [ 137.374296589295341, 35.679172098220256, 0.0 ], [ 137.374395856039001, 35.679152863013911, 0.0 ], [ 137.374506761423277, 35.679114534641151, 0.0 ], [ 137.374602526329824, 35.679044323808697, 0.0 ], [ 137.374759421225946, 35.678818502864345, 0.0 ], [ 137.374869580429447, 35.67859097782177, 0.0 ], [ 137.374988522515991, 35.678440297322936, 0.0 ], [ 137.375099321293675, 35.67836146100354, 0.0 ], [ 137.375119683048013, 35.678328057022767, 0.0 ], [ 137.375183814899799, 35.678277892878107, 0.0 ], [ 137.375373407757877, 35.678120374406909, 0.0 ], [ 137.375627435654337, 35.677948979897124, 0.0 ], [ 137.375831859498163, 35.677722254778509, 0.0 ], [ 137.375906305184373, 35.677603090448748, 0.0 ], [ 137.37610251928669, 35.677600450806828, 0.0 ], [ 137.37628166955281, 35.677675439533367, 0.0 ], [ 137.376603368878079, 35.677752712374826, 0.0 ], [ 137.376881162102052, 35.677634355479313, 0.0 ], [ 137.377051463975079, 35.677515599923311, 0.0 ], [ 137.377258111388642, 35.677455991583898, 0.0 ], [ 137.377484176666627, 35.677378510771021, 0.0 ], [ 137.377665886238049, 35.677355288649636, 0.0 ], [ 137.377771533862216, 35.677402659765953, 0.0 ], [ 137.377992138763062, 35.677408068584448, 0.0 ], [ 137.37821225882584, 35.677426493639416, 0.0 ], [ 137.378397837755642, 35.677500575564792, 0.0 ], [ 137.378495623111007, 35.677590783976605, 0.0 ], [ 137.378597091880977, 35.677736996978545, 0.0 ], [ 137.37872795940217, 35.677913038541767, 0.0 ], [ 137.378900759497157, 35.678054357374187, 0.0 ], [ 137.379100950038605, 35.678163665039804, 0.0 ], [ 137.379861059177756, 35.676804761130114, 0.0 ], [ 137.380126145686205, 35.676578474481843, 0.0 ], [ 137.380622886533843, 35.676044664709998, 0.0 ], [ 137.380988131392598, 35.67601691708532, 0.0 ], [ 137.381596726937232, 35.675916472763383, 0.0 ], [ 137.380296578406899, 35.674067086855864, 0.0 ], [ 137.380200347793448, 35.6738240621019, 0.0 ], [ 137.3800789143624, 35.673833562409996, 0.0 ] ] ] ] } },
{ "type": "Feature", "properties": { "名称": "ks-1", "name": "E157001", "面積": "追加図化不要", "layer": null }, "geometry": { "type": "MultiPolygon", "coordinates": [ [ [ [ 137.363193940405552, 35.781730373425326, 0.0 ], [ 137.363398220777754, 35.781592044725727, 0.0 ], [ 137.362595016043059, 35.780737984071813, 0.0 ], [ 137.362415293755873, 35.780670747172771, 0.0 ], [ 137.362235573795715, 35.780603510000155, 0.0 ], [ 137.362041708393775, 35.780401236938388, 0.0 ], [ 137.361971739160737, 35.780029938184114, 0.0 ], [ 137.362039973570859, 35.779692181088286, 0.0 ], [ 137.362052932335672, 35.779343257264017, 0.0 ], [ 137.361817333563323, 35.779017247796439, 0.0 ], [ 137.36180286387912, 35.778747153450922, 0.0 ], [ 137.361815930860587, 35.778443249336384, 0.0 ], [ 137.361441946211983, 35.77800491458531, 0.0 ], [ 137.361206134567823, 35.777588864888017, 0.0 ], [ 137.361197135884709, 35.776828583877645, 0.0 ], [ 137.360894845794178, 35.776807655356507, 0.0 ], [ 137.360486988935207, 35.776604853621265, 0.0 ], [ 137.359974271413421, 35.776509302411498, 0.0 ], [ 137.359698211415576, 35.776466912710383, 0.0 ], [ 137.359526661143434, 35.776167352855673, 0.0 ], [ 137.359539051305376, 35.775856788786946, 0.0 ], [ 137.359525497503824, 35.775685475861231, 0.0 ], [ 137.359433124148751, 35.775524998394019, 0.0 ], [ 137.359340804854583, 35.775385936223223, 0.0 ], [ 137.358801555585046, 35.77518333968424, 0.0 ], [ 137.358446275391515, 35.774980447496596, 0.0 ], [ 137.358327421003708, 35.774734343483999, 0.0 ], [ 137.35828740775176, 35.774488112651632, 0.0 ], [ 137.358076239666644, 35.774102946374718, 0.0 ], [ 137.358246240939906, 35.773760006257056, 0.0 ], [ 137.358193319860618, 35.773610172935655, 0.0 ], [ 137.357784950806803, 35.773182485729251, 0.0 ], [ 137.357666201555503, 35.772979214502399, 0.0 ], [ 137.357481907921908, 35.772840298515881, 0.0 ], [ 137.35731060112613, 35.772637110848663, 0.0 ], [ 137.356929005350878, 35.772412837009952, 0.0 ], [ 137.356021556973985, 35.772082308694813, 0.0 ], [ 137.355494997513148, 35.771676216169858, 0.0 ], [ 137.355336255886158, 35.771226712273062, 0.0 ], [ 137.354862190211151, 35.770788409407899, 0.0 ], [ 137.354585172899306, 35.770328380342661, 0.0 ], [ 137.354335091043538, 35.770146727967763, 0.0 ], [ 137.354032627036503, 35.770040116086179, 0.0 ], [ 137.353151948331202, 35.769902274559591, 0.0 ], [ 137.352914614034887, 35.769549265138515, 0.0 ], [ 137.352650850928313, 35.769132044693762, 0.0 ], [ 137.352137864734431, 35.768897251112172, 0.0 ], [ 137.351966704189095, 35.768747596631556, 0.0 ], [ 137.351913897565993, 35.768640594496148, 0.0 ], [ 137.351834862312984, 35.768555048204206, 0.0 ], [ 137.351663827057934, 35.768458935381673, 0.0 ], [ 137.351519370610077, 35.768491283740019, 0.0 ], [ 137.351283256933442, 35.768662980185333, 0.0 ], [ 137.350981173860902, 35.768716986328428, 0.0 ], [ 137.350718092414581, 35.768588888577341, 0.0 ], [ 137.350625251150745, 35.768214235656231, 0.0 ], [ 137.350624536066931, 35.767903692089156, 0.0 ], [ 137.350519052916695, 35.767743226478103, 0.0 ], [ 137.350361184325465, 35.76765780077875, 0.0 ], [ 137.350177236104855, 35.767658081575405, 0.0 ], [ 137.349559030502036, 35.767369895099861, 0.0 ], [ 137.349243591516114, 35.767327540605713, 0.0 ], [ 137.349033072700252, 35.767199359329197, 0.0 ], [ 137.349137989613922, 35.767113533287393, 0.0 ], [ 137.349308382457508, 35.766931230601919, 0.0 ], [ 137.349439284629625, 35.766716863070862, 0.0 ], [ 137.349452104706245, 35.766577634352139, 0.0 ], [ 137.349254628172559, 35.766406599334076, 0.0 ], [ 137.348321002693638, 35.766076051628922, 0.0 ], [ 137.347900385539191, 35.766001727226026, 0.0 ], [ 137.347492471353178, 35.765734631223438, 0.0 ], [ 137.347031957398769, 35.765446194459294, 0.0 ], [ 137.346873541554032, 35.76511447158196, 0.0 ], [ 137.346596928265484, 35.764804340298717, 0.0 ], [ 137.346214629892557, 35.7642373647246, 0.0 ], [ 137.346160919162202, 35.763723440320646, 0.0 ], [ 137.346094672980087, 35.763477245162626, 0.0 ], [ 137.345949934240537, 35.763381084878681, 0.0 ], [ 137.345673471124627, 35.763135202619893, 0.0 ], [ 137.345397324472799, 35.763028529125435, 0.0 ], [ 137.345292096991386, 35.762975142541329, 0.0 ], [ 137.345121153965096, 35.762911146449881, 0.0 ], [ 137.345068407527805, 35.762825556606479, 0.0 ], [ 137.345187477570107, 35.762338555733464, 0.0 ], [ 137.345181463846671, 35.7622647070854, 0.0 ], [ 137.345014506650216, 35.762121990107921, 0.0 ], [ 137.344915056733669, 35.762093545913849, 0.0 ], [ 137.344602490208104, 35.762198846062226, 0.0 ], [ 137.344563952840616, 35.762155548302452, 0.0 ], [ 137.344553221983659, 35.76192542842692, 0.0 ], [ 137.344605974393318, 35.761756571272031, 0.0 ], [ 137.344587906525902, 35.761604385946278, 0.0 ], [ 137.344371164017701, 35.761400314639609, 0.0 ], [ 137.344229962221476, 35.761189469733935, 0.0 ], [ 137.344196467681826, 35.760663743412422, 0.0 ], [ 137.344209105638157, 35.760438847247038, 0.0 ], [ 137.344142463932599, 35.760010607160105, 0.0 ], [ 137.344247210141674, 35.759849827093824, 0.0 ], [ 137.3443306858602, 35.759593114240104, 0.0 ], [ 137.344310146834829, 35.759562164220483, 0.0 ], [ 137.344318827181667, 35.759521635921999, 0.0 ], [ 137.344423110251967, 35.75940767597428, 0.0 ], [ 137.344028417018706, 35.759430901482055, 0.0 ], [ 137.343632276982646, 35.759456506103312, 0.0 ], [ 137.343638147786663, 35.759469612389474, 0.0 ], [ 137.343686457118054, 35.759498131827407, 0.0 ], [ 137.343733303998391, 35.759524283921046, 0.0 ], [ 137.343778695401539, 35.759556395116832, 0.0 ], [ 137.343787544984792, 35.759593319968062, 0.0 ], [ 137.343778904038999, 35.759650532988289, 0.0 ], [ 137.34377289360387, 35.759718188850556, 0.0 ], [ 137.343769146357062, 35.759763937880017, 0.0 ], [ 137.343723768094208, 35.759961717680717, 0.0 ], [ 137.343718292802407, 35.760011688317356, 0.0 ], [ 137.343717412041002, 35.760142107689518, 0.0 ], [ 137.343717194621462, 35.760173754586951, 0.0 ], [ 137.343712871520893, 35.760199980890803, 0.0 ], [ 137.343654585807343, 35.76031624311733, 0.0 ], [ 137.343640148137609, 35.760372878744896, 0.0 ], [ 137.343653604069345, 35.760512353317196, 0.0 ], [ 137.343726166127027, 35.760594991728112, 0.0 ], [ 137.343725596238073, 35.760667091897282, 0.0 ], [ 137.343714806455068, 35.760742776453057, 0.0 ], [ 137.343682392277827, 35.760822892345864, 0.0 ], [ 137.343607092004902, 35.76095743120495, 0.0 ], [ 137.343581580346381, 35.76099262193074, 0.0 ], [ 137.343563382587689, 35.761028991859938, 0.0 ], [ 137.343581168612985, 35.761136217677198, 0.0 ], [ 137.343613485300665, 35.761207665956356, 0.0 ], [ 137.34368985212447, 35.761360081991079, 0.0 ], [ 137.343760365304234, 35.761510126111766, 0.0 ], [ 137.343807321645954, 35.761586329692804, 0.0 ], [ 137.343848404089414, 35.761655386164442, 0.0 ], [ 137.343962760652914, 35.761798208175698, 0.0 ], [ 137.344147030326724, 35.762066621421837, 0.0 ], [ 137.344121039405167, 35.762195161092215, 0.0 ], [ 137.343989940183462, 35.762323855200819, 0.0 ], [ 137.344056084496685, 35.762527217404156, 0.0 ], [ 137.344280554037653, 35.763030183364862, 0.0 ], [ 137.344530852985173, 35.763329649872958, 0.0 ], [ 137.344754495127091, 35.763457819707142, 0.0 ], [ 137.344991156550634, 35.763532428028782, 0.0 ], [ 137.345530388182198, 35.763777921382363, 0.0 ], [ 137.34559641705593, 35.763927741066091, 0.0 ], [ 137.345531323076386, 35.764195549016854, 0.0 ], [ 137.345492720771801, 35.764559693077544, 0.0 ], [ 137.345703540928326, 35.764827090566314, 0.0 ], [ 137.346019711353023, 35.765201414181377, 0.0 ], [ 137.346322579831764, 35.765500798434736, 0.0 ], [ 137.346611947688814, 35.7656395756919, 0.0 ], [ 137.346730585465451, 35.765810733132355, 0.0 ], [ 137.347190906198477, 35.766013502732704, 0.0 ], [ 137.347624928706438, 35.76620560265652, 0.0 ], [ 137.347835612626568, 35.76640874508719, 0.0 ], [ 137.348479669481435, 35.76651485733241, 0.0 ], [ 137.348755808557513, 35.766610815654929, 0.0 ], [ 137.348848025992794, 35.766717760083395, 0.0 ], [ 137.348703812827154, 35.766857188217315, 0.0 ], [ 137.348441177003053, 35.76692183630292, 0.0 ], [ 137.348191874689093, 35.767072130615475, 0.0 ], [ 137.348363462283913, 35.767414541409273, 0.0 ], [ 137.34856082021102, 35.767532035187074, 0.0 ], [ 137.349021180614898, 35.767745506764427, 0.0 ], [ 137.349941293952412, 35.767904735137925, 0.0 ], [ 137.350099162586218, 35.76799016138478, 0.0 ], [ 137.350204548839685, 35.768107793228786, 0.0 ], [ 137.350165449500196, 35.768247063186735, 0.0 ], [ 137.350126350021554, 35.768386331478723, 0.0 ], [ 137.350034989218329, 35.768654181714496, 0.0 ], [ 137.350074801942952, 35.768825455902309, 0.0 ], [ 137.350140721246049, 35.768921730825411, 0.0 ], [ 137.350430034215293, 35.769028374271933, 0.0 ], [ 137.351297609195541, 35.769187671370013, 0.0 ], [ 137.351994299316004, 35.76931510048334, 0.0 ], [ 137.3522574867321, 35.769486029523719, 0.0 ], [ 137.352363075253152, 35.769689326556978, 0.0 ], [ 137.352429595667161, 35.770042602655323, 0.0 ], [ 137.352601407909788, 35.770470673169342, 0.0 ], [ 137.352811943769154, 35.770598848633526, 0.0 ], [ 137.353048431249874, 35.77058777437707, 0.0 ], [ 137.353771718476622, 35.770843653040266, 0.0 ], [ 137.354523805250381, 35.77217032427707, 0.0 ], [ 137.355076291198714, 35.772426462763001, 0.0 ], [ 137.355628297328934, 35.772479138452695, 0.0 ], [ 137.356048549459274, 35.772382102048269, 0.0 ], [ 137.356298512402816, 35.772510208712966, 0.0 ], [ 137.356851031856678, 35.77277704697665, 0.0 ], [ 137.357377810685392, 35.773268799941825, 0.0 ], [ 137.357615152894141, 35.773611092271302, 0.0 ], [ 137.35760306004542, 35.774050156835415, 0.0 ], [ 137.357512408800432, 35.774607137422421, 0.0 ], [ 137.357631441739869, 35.774928200756669, 0.0 ], [ 137.358302808628025, 35.775430428899597, 0.0 ], [ 137.358816370134235, 35.775879362152466, 0.0 ], [ 137.358961691151222, 35.77620038208763, 0.0 ], [ 137.359133757539297, 35.77671411077246, 0.0 ], [ 137.359712311999118, 35.776863101009035, 0.0 ], [ 137.360133386314459, 35.777098009756017, 0.0 ], [ 137.360673198176499, 35.77752547614103, 0.0 ], [ 137.360783323371862, 35.778104356195691, 0.0 ], [ 137.361263477248968, 35.778658822188937, 0.0 ], [ 137.361430388242724, 35.779138760910882, 0.0 ], [ 137.361781093875436, 35.779468336963951, 0.0 ], [ 137.36165357496904, 35.780038791897368, 0.0 ], [ 137.361654747559697, 35.780518998802307, 0.0 ], [ 137.362079233329922, 35.780893473046504, 0.0 ], [ 137.363039047872377, 35.781777295674523, 0.0 ], [ 137.363193940405552, 35.781730373425326, 0.0 ] ] ] ] } },
{ "type": "Feature", "properties": { "名称": "20-D1", "name": "E157007", "面積": "追加図化面積：0.124km2", "layer": null }, "geometry": { "type": "MultiPolygon", "coordinates": [ [ [ [ 137.408126657018244, 35.750547161047415, 0.0 ], [ 137.408256881464752, 35.750631633051761, 0.0 ], [ 137.408558391939863, 35.750448631839042, 0.0 ], [ 137.408658803101872, 35.750357232228886, 0.0 ], [ 137.408994235992679, 35.750292717548888, 0.0 ], [ 137.409598164162389, 35.750227661143498, 0.0 ], [ 137.409933706747836, 35.750199623791502, 0.0 ], [ 137.410179469153974, 35.750080569600598, 0.0 ], [ 137.410492497004952, 35.75000697742778, 0.0 ], [ 137.411957965913615, 35.749976637895543, 0.0 ], [ 137.412035242039536, 35.749639048926056, 0.0 ], [ 137.412000980294977, 35.749411123514641, 0.0 ], [ 137.412927732745828, 35.748825562653934, 0.0 ], [ 137.411931338263855, 35.74859048417067, 0.0 ], [ 137.411608651467049, 35.748551622424309, 0.0 ], [ 137.411494897531242, 35.748545774315332, 0.0 ], [ 137.411237896088664, 35.74864661452235, 0.0 ], [ 137.410902391057675, 35.748683775198735, 0.0 ], [ 137.410477360083661, 35.7487119966409, 0.0 ], [ 137.410242258933607, 35.7486577542616, 0.0 ], [ 137.408892775230044, 35.750037568402348, 0.0 ], [ 137.408613363233229, 35.750129328347064, 0.0 ], [ 137.408378730619319, 35.750230117446094, 0.0 ], [ 137.408155422615465, 35.750376483290246, 0.0 ], [ 137.408010123294645, 35.750422373708062, 0.0 ], [ 137.408126657018244, 35.750547161047415, 0.0 ] ] ] ] } },
{ "type": "Feature", "properties": { "名称": "40-D1", "name": "E157016", "面積": "追加図化不要", "layer": null }, "geometry": { "type": "MultiPolygon", "coordinates": [ [ [ [ 137.354429310357517, 35.721102458417597, 0.0 ], [ 137.354365539168072, 35.721253824144476, 0.0 ], [ 137.355921802759639, 35.723573908288806, 0.0 ], [ 137.35611818614035, 35.7233650851541, 0.0 ], [ 137.356263016121005, 35.722831623033834, 0.0 ], [ 137.356441499676976, 35.72239434958864, 0.0 ], [ 137.356598234424212, 35.722168385546112, 0.0 ], [ 137.356730011984496, 35.722029669780923, 0.0 ], [ 137.357141790043642, 35.721776942649733, 0.0 ], [ 137.35719726422613, 35.721753022927366, 0.0 ], [ 137.357298067578853, 35.721742145284317, 0.0 ], [ 137.357502397488986, 35.721634568781241, 0.0 ], [ 137.357993006999635, 35.721422339447578, 0.0 ], [ 137.357608508066704, 35.720955557794142, 0.0 ], [ 137.35745057301429, 35.720823000638482, 0.0 ], [ 137.35691034491137, 35.721147040406592, 0.0 ], [ 137.354676790277495, 35.720996653012222, 0.0 ], [ 137.35450072259394, 35.721027707146249, 0.0 ], [ 137.354429310357517, 35.721102458417597, 0.0 ] ] ] ] } }
]
}
